{"type": "FeatureCollection", "features": [{"type": "Feature", "properties": {"name": "Variante +10 % de détour", "tier_pct": 10, "length_m": 7471, "detour_pct": 0.8, "max_grade_pct": 6.0, "steep_len_m": 0, "gain_m": 82, "loss_m": 76, "time_s": 1519}, "geometry": {"type": "LineString", "coordinates": [[2.462161, 48.90228, 57.8], [2.462183, 48.902232, 57.9], [2.462204, 48.902183, 57.9], [2.46221, 48.902172, 57.9], [2.462224, 48.902142, 57.9], [2.462231, 48.902126, 57.9], [2.462263, 48.902052, 57.9], [2.462296, 48.901978, 57.8], [2.462329, 48.901904, 57.8], [2.462361, 48.90183, 57.8], [2.462404, 48.9018, 57.8], [2.462448, 48.901768, 57.8], [2.462495, 48.901734, 57.9], [2.462563, 48.901688, 57.9], [2.462596, 48.901666, 57.9], [2.462686, 48.901606, 58.0], [2.462777, 48.901545, 58.0], [2.462851, 48.901496, 58.0], [2.462925, 48.901447, 58.0], [2.462955, 48.901426, 58.0], [2.46301, 48.901386, 58.1], [2.463078, 48.901369, 58.1], [2.463089, 48.901367, 58.1], [2.463107, 48.901362, 58.1], [2.463144, 48.901362, 58.1], [2.463268, 48.901385, 58.0], [2.463392, 48.901409, 58.0], [2.463516, 48.901432, 57.9], [2.463639, 48.901455, 57.8], [2.463763, 48.901478, 57.7], [2.463887, 48.901501, 57.5], [2.463937, 48.90151, 57.4], [2.463938, 48.901511, 57.4], [2.464007, 48.901523, 57.3], [2.464023, 48.90149, 57.3], [2.464025, 48.901485, 57.3], [2.46404, 48.901455, 57.3], [2.464075, 48.901382, 57.3], [2.46411, 48.90131, 57.2], [2.464145, 48.901238, 57.1], [2.464165, 48.901198, 57.1], [2.464199, 48.901126, 57.0], [2.464234, 48.901054, 56.9], [2.464269, 48.900982, 56.7], [2.464303, 48.900909, 56.6], [2.464368, 48.90087, 56.5], [2.464477, 48.900829, 56.4], [2.464585, 48.900787, 56.4], [2.464693, 48.900746, 56.3], [2.464786, 48.90071, 56.3], [2.464878, 48.900673, 56.3], [2.464971, 48.900637, 56.2], [2.465064, 48.900599, 56.2], [2.465158, 48.900561, 56.1], [2.465251, 48.900524, 56.1], [2.465345, 48.900486, 56.1], [2.465345, 48.900486, 56.0], [2.465389, 48.900466, 56.0], [2.465331, 48.900413, 56.1], [2.465273, 48.900359, 56.1], [2.465272, 48.900359, 56.1], [2.465191, 48.900289, 56.2], [2.46511, 48.900218, 56.2], [2.465029, 48.900148, 56.2], [2.464992, 48.900109, 56.2], [2.46496, 48.900077, 56.2], [2.46493, 48.900041, 56.2], [2.464891, 48.899998, 56.2], [2.464847, 48.899957, 56.2], [2.464777, 48.899894, 56.2], [2.464708, 48.899831, 56.3], [2.464638, 48.899768, 56.3], [2.464569, 48.899705, 56.4], [2.464499, 48.899642, 56.4], [2.46443, 48.89958, 56.5], [2.46436, 48.899517, 56.5], [2.464359, 48.899516, 56.5], [2.464294, 48.899456, 56.5], [2.464228, 48.899397, 56.6], [2.464163, 48.899338, 56.6], [2.464097, 48.899279, 56.6], [2.464032, 48.89922, 56.6], [2.463959, 48.899154, 56.6], [2.463885, 48.899089, 56.6], [2.463812, 48.899023, 56.6], [2.463739, 48.898957, 56.7], [2.463666, 48.898892, 56.8], [2.463592, 48.898826, 56.9], [2.463515, 48.898757, 57.0], [2.463438, 48.898688, 57.3], [2.463361, 48.89862, 57.5], [2.463284, 48.898551, 57.8], [2.463207, 48.898482, 58.0], [2.46313, 48.898413, 58.3], [2.463053, 48.898344, 58.5], [2.462976, 48.898275, 58.6], [2.462899, 48.898206, 58.7], [2.462822, 48.898137, 58.8], [2.462745, 48.898068, 58.9], [2.462668, 48.897999, 58.9], [2.462648, 48.897985, 58.9], [2.462644, 48.897981, 58.9], [2.462575, 48.89793, 58.9], [2.462507, 48.897878, 58.8], [2.462444, 48.897876, 58.7], [2.462388, 48.897859, 58.6], [2.462346, 48.89783, 58.5], [2.462323, 48.897793, 58.5], [2.462323, 48.897754, 58.5], [2.462322, 48.897752, 58.5], [2.462338, 48.897722, 58.5], [2.462367, 48.897697, 58.5], [2.462368, 48.897696, 58.5], [2.462381, 48.897688, 58.6], [2.462369, 48.897654, 58.5], [2.462369, 48.897654, 58.5], [2.462353, 48.897605, 58.5], [2.462337, 48.897557, 58.5], [2.462275, 48.897512, 58.4], [2.462212, 48.897468, 58.3], [2.462211, 48.897467, 58.2], [2.462138, 48.897408, 58.2], [2.462068, 48.897345, 58.1], [2.461998, 48.897283, 58.0], [2.461928, 48.89722, 58.0], [2.461859, 48.897158, 58.0], [2.461789, 48.897096, 58.0], [2.46171, 48.89703, 58.0], [2.461631, 48.896965, 58.0], [2.461552, 48.896899, 58.0], [2.461478, 48.896837, 58.0], [2.461404, 48.896774, 58.0], [2.461333, 48.896713, 58.1], [2.461263, 48.896652, 58.3], [2.461193, 48.89659, 58.5], [2.461122, 48.896529, 58.6], [2.461052, 48.896467, 58.8], [2.460982, 48.896406, 59.0], [2.460943, 48.896351, 59.6], [2.460917, 48.896318, 59.8], [2.460917, 48.896317, 60.3], [2.460875, 48.896252, 60.5], [2.460834, 48.896187, 60.7], [2.460818, 48.896153, 60.9], [2.460787, 48.896124, 61.1], [2.460685, 48.896079, 61.7], [2.460592, 48.896032, 61.9], [2.460586, 48.896029, 62.0], [2.460547, 48.895997, 62.1], [2.46046, 48.895933, 62.4], [2.460374, 48.89587, 62.7], [2.460288, 48.895806, 62.9], [2.460202, 48.895742, 63.1], [2.460202, 48.895742, 63.2], [2.460124, 48.895685, 63.2], [2.460047, 48.895627, 63.3], [2.459969, 48.89557, 63.4], [2.459892, 48.895513, 63.4], [2.459888, 48.89551, 63.5], [2.459799, 48.895444, 63.6], [2.459709, 48.895378, 63.6], [2.45962, 48.895311, 63.5], [2.45953, 48.895245, 63.5], [2.459462, 48.895203, 63.4], [2.459393, 48.895162, 63.3], [2.459389, 48.895159, 63.3], [2.459306, 48.895114, 63.1], [2.459215, 48.895049, 63.0], [2.459124, 48.894983, 62.9], [2.459032, 48.894918, 62.8], [2.458941, 48.894852, 62.7], [2.45885, 48.894787, 62.5], [2.458759, 48.894721, 62.2], [2.458668, 48.894655, 61.9], [2.458577, 48.89459, 61.7], [2.458486, 48.894524, 61.4], [2.458395, 48.894459, 61.1], [2.458303, 48.894393, 60.9], [2.458212, 48.894328, 60.7], [2.458134, 48.894269, 60.5], [2.458134, 48.894269, 60.5], [2.458121, 48.894259, 60.5], [2.45806, 48.894224, 60.4], [2.457999, 48.89419, 60.4], [2.457912, 48.894126, 60.4], [2.457824, 48.894063, 60.4], [2.457737, 48.893999, 60.4], [2.457729, 48.893993, 60.4], [2.457722, 48.893988, 60.5], [2.457631, 48.893921, 60.7], [2.457541, 48.893855, 61.0], [2.45745, 48.893788, 61.4], [2.457391, 48.893733, 61.7], [2.457385, 48.893728, 62.0], [2.457377, 48.893719, 62.0], [2.45732, 48.893656, 62.0], [2.457268, 48.893611, 62.5], [2.457216, 48.893566, 62.6], [2.457214, 48.893565, 62.7], [2.457206, 48.893557, 62.9], [2.457127, 48.893494, 63.1], [2.457048, 48.893431, 63.4], [2.45697, 48.893368, 63.7], [2.456891, 48.893304, 63.9], [2.456813, 48.893241, 64.1], [2.456812, 48.89324, 64.1], [2.456803, 48.893233, 64.1], [2.456766, 48.893204, 64.2], [2.456765, 48.893204, 64.2], [2.456727, 48.893174, 64.2], [2.456696, 48.89315, 64.3], [2.456696, 48.89315, 64.3], [2.456687, 48.893142, 64.3], [2.456608, 48.893081, 64.3], [2.45653, 48.893019, 64.3], [2.456452, 48.892957, 64.3], [2.456373, 48.892895, 64.3], [2.456306, 48.892841, 64.3], [2.456305, 48.892841, 64.3], [2.456292, 48.892831, 64.2], [2.456215, 48.892769, 64.2], [2.456138, 48.892706, 64.1], [2.456061, 48.892644, 64.1], [2.455984, 48.892582, 64.0], [2.45592, 48.89253, 64.0], [2.455856, 48.892479, 64.1], [2.455855, 48.892478, 64.1], [2.455847, 48.892471, 64.1], [2.455774, 48.892418, 64.1], [2.455701, 48.892361, 64.2], [2.455701, 48.89236, 64.2], [2.455694, 48.892355, 64.2], [2.455627, 48.892299, 64.2], [2.455559, 48.892243, 64.3], [2.455492, 48.892187, 64.4], [2.455424, 48.892131, 64.4], [2.455421, 48.892128, 64.5], [2.455418, 48.892126, 64.5], [2.455334, 48.892059, 64.6], [2.45525, 48.891993, 64.8], [2.455166, 48.891927, 64.9], [2.455082, 48.89186, 65.1], [2.455077, 48.891857, 65.2], [2.45502, 48.891816, 65.3], [2.454952, 48.891764, 65.4], [2.454884, 48.891711, 65.5], [2.454826, 48.891677, 65.6], [2.454767, 48.891644, 65.6], [2.454704, 48.891595, 65.7], [2.454641, 48.891546, 65.7], [2.454578, 48.891497, 65.7], [2.454637, 48.891458, 65.9], [2.454638, 48.891457, 66.0], [2.454654, 48.891447, 66.1], [2.454735, 48.891394, 66.2], [2.454816, 48.891341, 66.4], [2.454897, 48.891288, 66.5], [2.454978, 48.891235, 66.6], [2.45498, 48.891234, 66.6], [2.455007, 48.891217, 66.6], [2.455009, 48.891215, 66.6], [2.455094, 48.89116, 66.5], [2.45518, 48.891104, 66.4], [2.455265, 48.891048, 66.3], [2.455269, 48.891045, 66.3], [2.4553, 48.891025, 66.2], [2.455334, 48.891004, 66.2], [2.455338, 48.891002, 66.2], [2.455435, 48.890942, 65.9], [2.455532, 48.890882, 65.6], [2.455629, 48.890822, 65.4], [2.455632, 48.890821, 65.3], [2.455702, 48.890777, 65.2], [2.455705, 48.890775, 65.2], [2.455794, 48.890721, 65.0], [2.455882, 48.890666, 64.9], [2.455971, 48.890611, 64.8], [2.455973, 48.89061, 64.8], [2.456064, 48.890554, 64.8], [2.456154, 48.890498, 64.8], [2.456245, 48.890442, 64.9], [2.456336, 48.890386, 65.0], [2.456283, 48.890344, 65.0], [2.45623, 48.890303, 65.1], [2.456158, 48.890248, 65.2], [2.456158, 48.890248, 65.2], [2.456097, 48.890201, 65.5], [2.456014, 48.890137, 65.8], [2.45593, 48.890073, 66.0], [2.45593, 48.890073, 66.3], [2.455844, 48.890008, 66.9], [2.455758, 48.889942, 67.3], [2.455673, 48.889876, 67.7], [2.455587, 48.889811, 68.0], [2.455586, 48.88981, 68.1], [2.455525, 48.889765, 68.3], [2.455446, 48.889696, 68.5], [2.45536, 48.889634, 68.6], [2.455273, 48.889571, 68.8], [2.455187, 48.889508, 68.9], [2.455181, 48.889505, 68.9], [2.455094, 48.889448, 69.0], [2.455008, 48.889391, 69.1], [2.455002, 48.889387, 69.1], [2.454915, 48.88934, 69.1], [2.454829, 48.889292, 69.1], [2.454828, 48.889292, 69.2], [2.454742, 48.889238, 69.2], [2.454735, 48.889153, 69.2], [2.454834, 48.8891, 69.3], [2.454933, 48.889046, 69.3], [2.455032, 48.888992, 69.3], [2.455131, 48.888938, 69.4], [2.45523, 48.888885, 69.4], [2.45531, 48.888845, 69.4], [2.455391, 48.888804, 69.5], [2.45549, 48.888756, 69.5], [2.455588, 48.888707, 69.7], [2.455687, 48.888658, 69.9], [2.455786, 48.888609, 70.2], [2.4559, 48.888564, 70.5], [2.456013, 48.888518, 70.7], [2.456126, 48.888473, 70.9], [2.45624, 48.888428, 71.1], [2.456313, 48.888398, 71.1], [2.456313, 48.888397, 71.2], [2.456409, 48.888354, 71.4], [2.456451, 48.888287, 71.7], [2.456492, 48.888221, 71.9], [2.456541, 48.888143, 72.6], [2.45659, 48.888066, 72.9], [2.456665, 48.888034, 73.1], [2.456741, 48.888002, 73.2], [2.456706, 48.887963, 73.5], [2.456672, 48.887924, 73.6], [2.45667, 48.887922, 73.7], [2.456616, 48.88786, 74.2], [2.456562, 48.887797, 74.6], [2.456505, 48.887741, 74.8], [2.456448, 48.887685, 75.1], [2.456391, 48.887628, 75.3], [2.456335, 48.887572, 75.4], [2.456323, 48.88756, 75.4], [2.456321, 48.887558, 75.4], [2.45625, 48.887487, 75.7], [2.45618, 48.887416, 75.9], [2.456109, 48.887345, 76.2], [2.456039, 48.887274, 76.4], [2.455968, 48.887203, 76.7], [2.455898, 48.887132, 77.0], [2.455897, 48.887132, 77.2], [2.455843, 48.887074, 77.2], [2.455798, 48.887021, 77.6], [2.455798, 48.88702, 77.8], [2.455737, 48.886962, 78.1], [2.455677, 48.886903, 78.5], [2.455626, 48.886829, 78.9], [2.455574, 48.886755, 79.1], [2.455568, 48.886747, 79.4], [2.45554, 48.886682, 79.6], [2.455512, 48.886616, 79.7], [2.455493, 48.886572, 80.0], [2.455475, 48.886528, 80.1], [2.455474, 48.886525, 80.4], [2.45546, 48.88644, 80.7], [2.455446, 48.886356, 81.1], [2.455432, 48.886271, 81.5], [2.455418, 48.886186, 81.9], [2.455411, 48.886123, 82.4], [2.455403, 48.886059, 82.7], [2.455395, 48.885996, 82.9], [2.455395, 48.885995, 83.1], [2.455393, 48.885932, 83.2], [2.455426, 48.885919, 83.3], [2.455451, 48.885895, 83.4], [2.455459, 48.885873, 83.4], [2.455455, 48.885852, 83.5], [2.455438, 48.885829, 83.6], [2.455412, 48.885814, 83.6], [2.455367, 48.885804, 83.7], [2.455351, 48.885745, 84.1], [2.455351, 48.885743, 84.2], [2.455356, 48.885671, 84.3], [2.455361, 48.885599, 84.5], [2.455356, 48.88553, 84.6], [2.455351, 48.88546, 84.8], [2.455344, 48.885386, 84.9], [2.455337, 48.885312, 85.1], [2.455329, 48.885238, 85.2], [2.455322, 48.885164, 85.3], [2.455322, 48.885164, 85.5], [2.455314, 48.88508, 85.6], [2.455314, 48.88508, 85.8], [2.455303, 48.885019, 86.0], [2.455294, 48.884929, 86.4], [2.455285, 48.884839, 86.6], [2.455276, 48.88475, 86.8], [2.455267, 48.88466, 87.0], [2.455257, 48.884571, 87.1], [2.455248, 48.884481, 87.3], [2.455239, 48.884391, 87.5], [2.45523, 48.884302, 87.7], [2.455222, 48.884225, 87.8], [2.455214, 48.884148, 87.8], [2.455206, 48.884071, 87.9], [2.455198, 48.883994, 88.0], [2.45519, 48.883917, 88.2], [2.455182, 48.88384, 88.4], [2.455182, 48.883839, 88.5], [2.455181, 48.883758, 88.9], [2.455181, 48.883719, 89.0], [2.455181, 48.883718, 89.0], [2.455192, 48.88364, 89.6], [2.455204, 48.883562, 89.8], [2.455183, 48.883494, 90.6], [2.455167, 48.88344, 91.0], [2.455151, 48.883387, 91.5], [2.455134, 48.883335, 91.8], [2.455116, 48.883282, 92.1], [2.455092, 48.883212, 93.0], [2.455068, 48.883142, 93.4], [2.455044, 48.883072, 93.7], [2.455013, 48.883013, 94.0], [2.454982, 48.882955, 94.3], [2.454952, 48.882897, 94.7], [2.454889, 48.882834, 95.0], [2.454827, 48.88277, 95.4], [2.454765, 48.882713, 95.8], [2.454704, 48.882656, 96.1], [2.45461, 48.882592, 96.5], [2.454516, 48.882528, 96.9], [2.454446, 48.882487, 97.2], [2.454377, 48.882447, 97.5], [2.454307, 48.882409, 97.8], [2.454238, 48.882371, 98.2], [2.454153, 48.882343, 98.6], [2.454068, 48.882314, 99.1], [2.453959, 48.882283, 99.6], [2.45385, 48.882252, 100.0], [2.453741, 48.882221, 100.3], [2.453632, 48.88219, 100.6], [2.453523, 48.882159, 100.9], [2.453426, 48.88213, 101.2], [2.453328, 48.8821, 101.5], [2.45325, 48.882071, 101.8], [2.453172, 48.882041, 102.0], [2.453101, 48.882005, 102.2], [2.45303, 48.881969, 102.3], [2.452981, 48.881933, 102.3], [2.452932, 48.881898, 102.3], [2.452879, 48.881851, 102.3], [2.452825, 48.881805, 102.3], [2.45276, 48.881741, 102.3], [2.452695, 48.881677, 102.4], [2.45263, 48.881613, 102.5], [2.452565, 48.88155, 102.7], [2.452501, 48.881499, 102.9], [2.452437, 48.881449, 103.2], [2.452356, 48.881403, 103.3], [2.452275, 48.881357, 103.5], [2.452229, 48.881335, 103.5], [2.452152, 48.881298, 104.2], [2.452046, 48.881264, 104.6], [2.45194, 48.881229, 105.1], [2.451866, 48.881201, 105.4], [2.451792, 48.881173, 105.6], [2.451747, 48.881192, 106.0], [2.451628, 48.88116, 106.4], [2.451509, 48.881128, 106.7], [2.451389, 48.881095, 107.0], [2.45127, 48.881063, 107.4], [2.451151, 48.881031, 108.0], [2.451032, 48.880998, 108.6], [2.450913, 48.880966, 109.1], [2.450794, 48.880934, 109.4], [2.450674, 48.880902, 109.7], [2.450555, 48.880869, 110.0], [2.450436, 48.880837, 110.3], [2.450341, 48.880806, 110.5], [2.450247, 48.880775, 110.7], [2.450155, 48.880727, 110.9], [2.450064, 48.880679, 111.1], [2.449994, 48.880614, 111.2], [2.449925, 48.88055, 111.2], [2.449892, 48.880492, 111.2], [2.449859, 48.880433, 111.2], [2.449826, 48.880375, 111.2], [2.449826, 48.880308, 111.4], [2.449826, 48.880241, 111.4], [2.449803, 48.880192, 111.7], [2.44978, 48.880144, 111.8], [2.449755, 48.880089, 112.2], [2.44971, 48.880046, 112.4], [2.449666, 48.880003, 112.7], [2.449614, 48.879959, 113.0], [2.449563, 48.879916, 113.3], [2.449496, 48.879885, 113.7], [2.449429, 48.879854, 114.1], [2.449314, 48.879815, 114.6], [2.4492, 48.879777, 115.1], [2.449085, 48.879738, 115.5], [2.44897, 48.879699, 115.8], [2.448855, 48.87966, 116.1], [2.44874, 48.879621, 116.2], [2.448736, 48.87962, 116.3], [2.44863, 48.879579, 116.4], [2.448696, 48.879511, 116.1], [2.448763, 48.879442, 115.9], [2.448829, 48.879374, 115.6], [2.448896, 48.879306, 115.4], [2.448962, 48.879238, 115.2], [2.449029, 48.87917, 114.9], [2.449032, 48.879167, 114.8], [2.44907, 48.879123, 114.8], [2.449109, 48.879079, 114.7], [2.449159, 48.879013, 114.7], [2.449204, 48.878958, 114.8], [2.449249, 48.878903, 114.9], [2.449294, 48.878848, 115.0], [2.449296, 48.878846, 115.2], [2.449334, 48.87879, 115.3], [2.449372, 48.878734, 115.4], [2.449339, 48.878708, 115.6], [2.449327, 48.878675, 115.7], [2.449338, 48.878643, 115.7], [2.44937, 48.878617, 115.8], [2.449417, 48.878603, 115.9], [2.4494, 48.878521, 116.3], [2.4494, 48.87852, 116.4], [2.449395, 48.878445, 116.5], [2.449389, 48.87837, 116.6], [2.449384, 48.878296, 116.8], [2.449379, 48.878221, 116.9], [2.449378, 48.87817, 117.0], [2.449377, 48.878119, 117.1], [2.449348, 48.878061, 117.2], [2.449331, 48.878027, 117.2], [2.449327, 48.877956, 117.2], [2.449323, 48.877884, 117.3], [2.449323, 48.877879, 117.3], [2.449323, 48.877875, 117.3], [2.449319, 48.877806, 117.3], [2.449315, 48.877738, 117.3], [2.449315, 48.877661, 117.4], [2.449316, 48.877584, 117.4], [2.449316, 48.877507, 117.4], [2.449316, 48.87743, 117.5], [2.449317, 48.877353, 117.5], [2.449317, 48.877276, 117.5], [2.449314, 48.877206, 117.4], [2.449311, 48.877137, 117.4], [2.449308, 48.877067, 117.3], [2.449308, 48.877066, 117.3], [2.449308, 48.877052, 117.2], [2.44932, 48.876998, 117.2], [2.449333, 48.876944, 117.2], [2.449325, 48.876863, 117.1], [2.449323, 48.87684, 117.0], [2.449301, 48.876768, 116.8], [2.449284, 48.876722, 116.8], [2.449281, 48.876716, 116.7], [2.449246, 48.876641, 116.5], [2.449211, 48.876566, 116.4], [2.449177, 48.876492, 116.3], [2.449127, 48.876412, 116.3], [2.449074, 48.876339, 116.2], [2.44907, 48.876333, 116.2], [2.449026, 48.876271, 116.0], [2.448983, 48.87621, 116.0], [2.448981, 48.876208, 116.0], [2.448929, 48.876135, 115.8], [2.448881, 48.876078, 115.6], [2.448832, 48.87602, 115.5], [2.448792, 48.875969, 115.3], [2.448792, 48.875969, 115.2], [2.448733, 48.875892, 115.0], [2.448674, 48.875815, 114.7], [2.448615, 48.875738, 114.5], [2.448556, 48.875661, 114.3], [2.448497, 48.875584, 114.1], [2.448438, 48.875507, 113.9], [2.448379, 48.87543, 113.8], [2.44832, 48.875353, 113.7], [2.448261, 48.875276, 113.7], [2.448202, 48.8752, 113.7], [2.448143, 48.875123, 113.7], [2.448085, 48.875046, 113.6], [2.448026, 48.874969, 113.5], [2.447967, 48.874892, 113.4], [2.447908, 48.874815, 113.3], [2.447849, 48.874738, 113.1], [2.447821, 48.874702, 113.1], [2.44782, 48.874701, 112.9], [2.447782, 48.874649, 112.9], [2.447744, 48.874597, 112.8], [2.447708, 48.874544, 112.6], [2.447593, 48.874498, 112.5], [2.447477, 48.874451, 112.4], [2.447362, 48.874404, 112.3], [2.447297, 48.874384, 112.2], [2.447231, 48.874364, 112.1], [2.447109, 48.874326, 111.9], [2.446986, 48.874288, 111.7], [2.446863, 48.87425, 111.5], [2.44674, 48.874212, 111.2], [2.446617, 48.874173, 110.9], [2.446494, 48.874135, 110.7], [2.446371, 48.874097, 110.5], [2.446248, 48.874059, 110.3], [2.446125, 48.874021, 110.3], [2.446024, 48.873986, 110.3], [2.445924, 48.873951, 110.3], [2.445823, 48.873915, 110.4], [2.44575, 48.873887, 110.5], [2.445678, 48.873859, 110.5], [2.445626, 48.873817, 110.6], [2.445575, 48.873775, 110.6], [2.445554, 48.873737, 110.7], [2.44554, 48.873712, 110.7], [2.445526, 48.873635, 110.6], [2.445513, 48.873558, 110.6], [2.4455, 48.873481, 110.5], [2.445486, 48.873404, 110.4], [2.445515, 48.873321, 110.3], [2.445558, 48.87326, 110.2], [2.44559, 48.873227, 109.9], [2.445647, 48.873184, 109.7], [2.445704, 48.87314, 109.6], [2.445789, 48.873087, 109.5], [2.445883, 48.873027, 109.2], [2.445978, 48.872966, 109.0], [2.446054, 48.87293, 108.8], [2.446131, 48.872893, 108.6], [2.446207, 48.872856, 108.5], [2.446283, 48.87282, 108.2], [2.446358, 48.872783, 108.0], [2.446434, 48.872747, 107.8], [2.446493, 48.872719, 107.6], [2.446552, 48.87269, 107.3], [2.446621, 48.87264, 107.0], [2.446691, 48.872567, 106.7], [2.446752, 48.872496, 106.4], [2.446753, 48.872408, 105.7], [2.446753, 48.872321, 105.4], [2.446754, 48.872233, 105.0], [2.446754, 48.872145, 104.6], [2.446755, 48.872057, 104.2], [2.446755, 48.87197, 103.8], [2.446756, 48.871882, 103.4], [2.446756, 48.871794, 103.1], [2.446757, 48.871707, 102.7], [2.446758, 48.871619, 102.4], [2.446758, 48.871531, 102.0], [2.446759, 48.871444, 101.6], [2.446759, 48.871356, 101.2], [2.44676, 48.871268, 100.8], [2.44676, 48.871181, 100.5], [2.446761, 48.871093, 100.3], [2.446762, 48.871005, 100.1], [2.446762, 48.870917, 99.8], [2.446763, 48.87083, 99.5], [2.446763, 48.870742, 99.2], [2.446764, 48.870654, 98.8], [2.446764, 48.870567, 98.5], [2.446765, 48.870479, 98.2], [2.446765, 48.870391, 97.9], [2.446766, 48.870303, 97.6], [2.446767, 48.870216, 97.3], [2.446767, 48.870128, 97.0], [2.446768, 48.87004, 96.7], [2.446768, 48.869953, 96.5], [2.446769, 48.869865, 96.3], [2.446769, 48.869777, 96.1], [2.446769, 48.869777, 96.1], [2.44677, 48.869698, 95.9], [2.446771, 48.869623, 95.8], [2.446771, 48.869623, 95.8], [2.446774, 48.869534, 95.6], [2.446777, 48.869446, 95.5], [2.446779, 48.869357, 95.3], [2.446782, 48.869268, 95.1], [2.446785, 48.86918, 94.7], [2.446788, 48.869091, 94.4], [2.44679, 48.869002, 93.9], [2.446793, 48.868914, 93.5], [2.446796, 48.868825, 93.0], [2.446799, 48.868737, 92.4], [2.446801, 48.868648, 91.8], [2.446804, 48.868559, 91.3], [2.446807, 48.868471, 90.8], [2.446809, 48.868396, 90.5], [2.44681, 48.86835, 90.3], [2.446812, 48.868303, 90.2], [2.446812, 48.868302, 90.1], [2.446826, 48.868253, 90.0], [2.446826, 48.86823, 89.9], [2.446826, 48.868229, 89.9], [2.446807, 48.868162, 89.7], [2.446728, 48.868108, 89.7], [2.44665, 48.868053, 89.7], [2.446642, 48.868048, 89.7], [2.446623, 48.868033, 89.7], [2.446615, 48.868027, 89.7], [2.446585, 48.867999, 89.7], [2.446541, 48.867959, 89.6], [2.446496, 48.867919, 89.6], [2.446418, 48.867849, 89.5], [2.446339, 48.867779, 89.4], [2.44626, 48.86771, 89.3], [2.446181, 48.86764, 89.3], [2.446102, 48.86757, 89.2], [2.446024, 48.8675, 89.2], [2.445945, 48.867431, 89.2], [2.445866, 48.867361, 89.2], [2.445787, 48.867291, 89.3], [2.445708, 48.867222, 89.4], [2.44563, 48.867152, 89.6], [2.445551, 48.867082, 89.8], [2.445472, 48.867011, 90.0], [2.445392, 48.866941, 90.2], [2.445313, 48.86687, 90.4], [2.445234, 48.866799, 90.5], [2.445208, 48.866776, 90.5], [2.445207, 48.866776, 90.6], [2.445146, 48.866721, 90.6], [2.445088, 48.866667, 90.6], [2.445088, 48.866667, 90.5], [2.445063, 48.866645, 90.5], [2.444986, 48.866577, 90.4], [2.444909, 48.866509, 90.4], [2.444832, 48.866442, 90.3], [2.444755, 48.866374, 90.2], [2.444678, 48.866306, 90.1], [2.444601, 48.866238, 89.9], [2.444524, 48.86617, 89.6], [2.444446, 48.866102, 89.3], [2.444369, 48.866034, 89.0], [2.444292, 48.865966, 88.6], [2.444215, 48.865899, 88.2], [2.444138, 48.865831, 87.8], [2.444061, 48.865763, 87.4], [2.443986, 48.865696, 87.0], [2.443911, 48.865629, 86.5], [2.443836, 48.865562, 86.2], [2.443832, 48.865559, 86.0], [2.443778, 48.865511, 85.7], [2.443735, 48.865473, 85.6], [2.44373, 48.865469, 85.5], [2.443679, 48.865433, 85.1], [2.443627, 48.865397, 85.1], [2.443665, 48.865361, 84.7], [2.443683, 48.865318, 84.5], [2.443679, 48.865273, 84.3], [2.443653, 48.865232, 84.2], [2.443608, 48.865199, 84.1], [2.443563, 48.865181, 83.9], [2.443619, 48.865104, 83.6], [2.443622, 48.8651, 83.5], [2.443643, 48.865065, 83.3], [2.443679, 48.865006, 83.1], [2.443716, 48.864948, 82.9], [2.443752, 48.864888, 82.8], [2.443758, 48.864878, 82.6], [2.443807, 48.864802, 82.3], [2.443855, 48.864726, 81.9], [2.443903, 48.864651, 81.4], [2.443951, 48.864575, 81.0], [2.443999, 48.864499, 80.7], [2.444013, 48.864477, 80.2], [2.444049, 48.864421, 80.0], [2.444084, 48.864365, 79.8], [2.44412, 48.864309, 79.7], [2.444138, 48.86428, 79.4], [2.444175, 48.864225, 79.3], [2.444213, 48.86417, 79.1], [2.444251, 48.864114, 79.0], [2.444254, 48.864107, 78.9], [2.444262, 48.864092, 78.9], [2.444266, 48.864083, 78.9], [2.444272, 48.86407, 78.8], [2.444282, 48.864045, 78.8], [2.444297, 48.864008, 78.7], [2.444307, 48.863975, 78.6], [2.444304, 48.863923, 78.5], [2.444296, 48.863872, 78.4], [2.444268, 48.863802, 78.3], [2.444141, 48.863777, 78.0], [2.444078, 48.863779, 77.9], [2.443951, 48.863784, 77.9], [2.443824, 48.863788, 77.8], [2.443698, 48.863793, 77.8], [2.443571, 48.863798, 77.7], [2.443444, 48.863802, 77.7], [2.443317, 48.863807, 77.7], [2.44319, 48.863811, 77.7], [2.443063, 48.863816, 77.7], [2.442936, 48.86382, 77.8], [2.44281, 48.863825, 77.8], [2.442683, 48.863829, 77.8], [2.442677, 48.863811, 77.8], [2.442677, 48.863811, 77.8], [2.442654, 48.863736, 77.3], [2.442631, 48.86366, 76.8], [2.442606, 48.863571, 76.4], [2.442581, 48.863483, 76.0], [2.442556, 48.863395, 75.7], [2.442531, 48.863306, 75.4], [2.442506, 48.863218, 75.1], [2.442481, 48.863129, 74.8], [2.442456, 48.863041, 74.4], [2.442432, 48.862953, 74.0], [2.442407, 48.862864, 73.7], [2.442382, 48.862776, 73.3], [2.442357, 48.862688, 73.0], [2.442332, 48.862599, 72.8], [2.442332, 48.862599, 72.6], [2.442318, 48.862552, 72.6], [2.442253, 48.862561, 72.5], [2.442253, 48.862561, 72.5], [2.442153, 48.862575, 72.4], [2.442053, 48.86259, 72.4], [2.441953, 48.862605, 72.4], [2.441861, 48.862616, 72.4], [2.44177, 48.862627, 72.4], [2.44177, 48.862627, 72.4], [2.441695, 48.862637, 72.5], [2.441619, 48.862648, 72.5], [2.441599, 48.862577, 72.3], [2.441578, 48.862506, 72.1], [2.441557, 48.862435, 72.0], [2.441537, 48.862364, 72.0], [2.441516, 48.862293, 71.9], [2.441515, 48.86229, 71.9], [2.441495, 48.862214, 72.1], [2.441475, 48.862139, 72.2], [2.441446, 48.862096, 72.3], [2.441418, 48.862054, 72.3], [2.441346, 48.861997, 72.5], [2.441273, 48.861939, 72.6], [2.4412, 48.861882, 72.7], [2.44102, 48.86173, 73.1], [2.441001, 48.861713, 73.2], [2.440947, 48.861668, 73.2], [2.440893, 48.861623, 73.3], [2.440836, 48.861573, 73.4], [2.440756, 48.861506, 73.6], [2.440676, 48.861439, 73.7], [2.440596, 48.861372, 73.9], [2.440517, 48.861305, 74.1], [2.440437, 48.861238, 74.3], [2.440357, 48.861171, 74.4], [2.440277, 48.861104, 74.6], [2.440197, 48.861037, 74.7], [2.440118, 48.86097, 74.8], [2.440038, 48.860903, 74.9], [2.439962, 48.860837, 74.9], [2.439887, 48.860772, 74.9], [2.439811, 48.860707, 74.9], [2.439736, 48.860642, 74.8], [2.439735, 48.860641, 74.8], [2.43972, 48.860628, 74.8], [2.439647, 48.86059, 74.7], [2.439587, 48.860543, 74.7], [2.439527, 48.860495, 74.7], [2.439466, 48.860447, 74.7], [2.439409, 48.8604, 74.8], [2.439351, 48.860352, 74.8], [2.439312, 48.860285, 74.8], [2.439289, 48.860266, 74.8], [2.439289, 48.860266, 74.9], [2.439229, 48.860216, 74.9], [2.439169, 48.860167, 75.0], [2.439109, 48.860117, 75.2], [2.439043, 48.860062, 75.3], [2.438978, 48.860007, 75.4], [2.438912, 48.859951, 75.5], [2.438838, 48.859888, 75.5], [2.438755, 48.859818, 75.3], [2.438671, 48.859748, 75.0], [2.438588, 48.859678, 74.6], [2.438504, 48.859608, 74.2], [2.438421, 48.859538, 73.9], [2.438337, 48.859468, 73.8], [2.438335, 48.859466, 73.7], [2.438259, 48.859411, 73.8], [2.43815, 48.859363, 73.8], [2.438134, 48.859356, 73.8], [2.438055, 48.859289, 73.8], [2.437976, 48.859221, 73.8], [2.437897, 48.859154, 73.8], [2.437819, 48.859087, 73.8], [2.43774, 48.85902, 73.7], [2.437661, 48.858952, 73.7], [2.437583, 48.858885, 73.5], [2.437504, 48.858818, 73.3], [2.437425, 48.85875, 73.1], [2.437347, 48.858683, 72.8], [2.437268, 48.858616, 72.4], [2.437189, 48.858548, 72.2], [2.437132, 48.858499, 71.9], [2.437076, 48.858449, 71.7], [2.437019, 48.8584, 71.6], [2.437001, 48.858384, 71.5], [2.436994, 48.858378, 71.5], [2.436987, 48.858371, 71.4], [2.436956, 48.858345, 71.4], [2.436944, 48.858297, 71.4], [2.436933, 48.858249, 71.3], [2.436928, 48.858227, 71.1], [2.436929, 48.858199, 71.1], [2.43682, 48.858189, 71.1], [2.436762, 48.858186, 71.1], [2.436762, 48.858186, 71.2], [2.436672, 48.858176, 71.2], [2.436636, 48.858173, 71.2], [2.436566, 48.858164, 71.2], [2.436566, 48.858164, 71.3], [2.436522, 48.858159, 71.3], [2.436447, 48.858154, 71.3], [2.436354, 48.858151, 71.4], [2.436284, 48.858138, 71.5], [2.436283, 48.858138, 71.5], [2.436264, 48.858135, 71.5], [2.436264, 48.858135, 71.6], [2.436154, 48.858119, 71.7], [2.436043, 48.858103, 71.8], [2.435933, 48.858087, 71.8], [2.435822, 48.858072, 71.9], [2.435822, 48.858072, 71.9], [2.435805, 48.85807, 71.9], [2.4357, 48.858054, 71.9], [2.435676, 48.858086, 71.9], [2.435672, 48.858097, 72.0], [2.435649, 48.858135, 72.0], [2.43562, 48.858165, 72.0], [2.435609, 48.858171, 72.1], [2.43558, 48.858189, 72.1], [2.43552, 48.858201, 72.1], [2.435451, 48.858214, 72.2], [2.435382, 48.858227, 72.2], [2.435283, 48.858239, 72.3], [2.435183, 48.858252, 72.3], [2.435083, 48.858264, 72.3], [2.434964, 48.858277, 72.6], [2.434846, 48.85829, 72.7], [2.434846, 48.85829, 72.8], [2.434711, 48.858306, 73.2], [2.434577, 48.858321, 73.5], [2.434443, 48.858336, 73.7], [2.434442, 48.858336, 73.9], [2.434352, 48.858345, 73.9], [2.434262, 48.858355, 74.0], [2.434172, 48.858365, 74.0], [2.434083, 48.858374, 74.0], [2.433988, 48.858383, 73.9], [2.433988, 48.858383, 73.9], [2.433898, 48.858391, 73.8], [2.433808, 48.858399, 73.7], [2.433702, 48.858407, 73.5], [2.433702, 48.858407, 73.5], [2.433584, 48.858413, 73.3], [2.433476, 48.858421, 73.2], [2.433343, 48.85843, 73.1], [2.433343, 48.85843, 73.0], [2.433228, 48.858436, 72.7], [2.433113, 48.858442, 72.4], [2.432997, 48.858448, 72.2], [2.432882, 48.858455, 72.0], [2.432758, 48.85846, 71.8], [2.432634, 48.858466, 71.7], [2.43251, 48.858471, 71.7], [2.432386, 48.858477, 71.7], [2.432262, 48.858482, 71.8], [2.432138, 48.858488, 71.9], [2.432014, 48.858493, 72.0], [2.431973, 48.85846, 72.0], [2.431948, 48.858439, 72.0], [2.43194, 48.858433, 72.0], [2.431913, 48.858414, 71.9], [2.431894, 48.858404, 71.9], [2.431869, 48.858393, 71.9], [2.431799, 48.858379, 71.9], [2.431757, 48.858371, 71.9], [2.431751, 48.85837, 71.8], [2.431681, 48.858354, 71.7], [2.43161, 48.85834, 71.7], [2.43161, 48.85834, 71.7], [2.431484, 48.858315, 71.4], [2.431358, 48.85829, 71.1], [2.431232, 48.858266, 70.9], [2.431107, 48.858241, 70.7], [2.430981, 48.858216, 70.7], [2.430855, 48.858191, 70.7], [2.43073, 48.858167, 70.9], [2.430604, 48.858142, 71.2], [2.430478, 48.858117, 71.4], [2.430353, 48.858092, 71.7], [2.430227, 48.858068, 71.8], [2.430101, 48.858043, 71.8], [2.429975, 48.858018, 71.8], [2.42997, 48.858017, 71.7], [2.429869, 48.857997, 71.6], [2.429768, 48.857977, 71.5], [2.429762, 48.857976, 71.4], [2.429638, 48.857952, 71.1], [2.429514, 48.857927, 70.9], [2.42939, 48.857903, 70.7], [2.429266, 48.857878, 70.5], [2.429141, 48.857854, 70.3], [2.429017, 48.857829, 70.0], [2.428893, 48.857805, 69.9], [2.428884, 48.857803, 69.8], [2.428769, 48.85778, 69.7], [2.428655, 48.857758, 69.6], [2.428645, 48.857756, 69.5], [2.428548, 48.857737, 69.5], [2.428451, 48.857718, 69.5], [2.428354, 48.857699, 69.5], [2.428246, 48.857689, 69.5], [2.428137, 48.85768, 69.5], [2.428028, 48.85767, 69.6], [2.42792, 48.857661, 69.6], [2.427916, 48.857661, 69.7], [2.427824, 48.857653, 69.7], [2.427731, 48.857645, 69.7], [2.427639, 48.857637, 69.7], [2.427548, 48.857604, 69.6], [2.427413, 48.857594, 69.4], [2.427278, 48.857583, 69.2], [2.427143, 48.857573, 69.1], [2.427136, 48.857573, 69.0], [2.427016, 48.857563, 68.9], [2.426896, 48.857554, 68.7], [2.426777, 48.857545, 68.6], [2.426657, 48.857536, 68.5], [2.426537, 48.857527, 68.4], [2.426417, 48.857518, 68.2], [2.426283, 48.857506, 67.9], [2.426149, 48.857495, 67.7], [2.426014, 48.857483, 67.4], [2.42588, 48.857472, 67.1], [2.425746, 48.85746, 66.8], [2.425611, 48.857449, 66.6], [2.425477, 48.857437, 66.4], [2.425343, 48.857426, 66.3], [2.425309, 48.857423, 66.3], [2.425183, 48.857413, 66.3], [2.425057, 48.857403, 66.4], [2.424931, 48.857393, 66.5], [2.424805, 48.857383, 66.8], [2.42468, 48.857373, 67.1], [2.424554, 48.857363, 67.3], [2.424428, 48.857353, 67.5], [2.424302, 48.857343, 67.5], [2.424176, 48.857334, 67.4], [2.42405, 48.857324, 67.2], [2.423924, 48.857314, 66.9], [2.423804, 48.857302, 66.6], [2.423685, 48.857289, 66.4], [2.423565, 48.857277, 66.1], [2.423445, 48.857265, 65.9], [2.423383, 48.857258, 65.6], [2.423288, 48.857224, 65.5], [2.423193, 48.85719, 65.3], [2.423137, 48.857176, 65.2], [2.423011, 48.857102, 64.7], [2.42295, 48.85705, 64.4], [2.422852, 48.856992, 64.2], [2.422755, 48.856934, 63.9], [2.422657, 48.856876, 63.8], [2.42256, 48.856818, 63.7], [2.422504, 48.856854, 63.7], [2.422531, 48.856841, 63.7]]}}, {"type": "Feature", "properties": {"kind": "step", "n": 1, "instruction": "Partir sur", "name": "Rue René Clément", "length_m": 196, "max_grade_pct": 0.2, "notes": []}, "geometry": {"type": "Point", "coordinates": [2.462161, 48.90228]}}, {"type": "Feature", "properties": {"kind": "step", "n": 2, "instruction": "Tourner à droite sur", "name": "Rue Jean Gabin", "length_m": 129, "max_grade_pct": -0.4, "notes": []}, "geometry": {"type": "Point", "coordinates": [2.464007, 48.901523]}}, {"type": "Feature", "properties": {"kind": "step", "n": 3, "instruction": "Continuer tout droit sur", "name": "Rue Emmanuel Arago", "length_m": 36, "max_grade_pct": -0.1, "notes": []}, "geometry": {"type": "Point", "coordinates": [2.464971, 48.900637]}}, {"type": "Feature", "properties": {"kind": "step", "n": 4, "instruction": "Tourner à droite sur", "name": "Avenue Gallieni", "length_m": 357, "max_grade_pct": 2.0, "notes": []}, "geometry": {"type": "Point", "coordinates": [2.465389, 48.900466]}}, {"type": "Feature", "properties": {"kind": "step", "n": 5, "instruction": "Continuer tout droit sur", "name": "voie sans nom", "length_m": 31, "max_grade_pct": -0.2, "notes": []}, "geometry": {"type": "Point", "coordinates": [2.462507, 48.897878]}}, {"type": "Feature", "properties": {"kind": "step", "n": 6, "instruction": "Continuer tout droit sur", "name": "Avenue Gallieni", "length_m": 211, "max_grade_pct": 4.2, "notes": ["montée sur 69 m (+3 m), pente max 4.2 %"]}, "geometry": {"type": "Point", "coordinates": [2.462381, 48.897688]}}, {"type": "Feature", "properties": {"kind": "step", "n": 7, "instruction": "Légèrement à droite sur", "name": "Place Jean Coquelin", "length_m": 9, "max_grade_pct": 4.2, "notes": []}, "geometry": {"type": "Point", "coordinates": [2.460787, 48.896124]}}, {"type": "Feature", "properties": {"kind": "step", "n": 8, "instruction": "Continuer tout droit sur", "name": "Rue Jean Jaurès", "length_m": 678, "max_grade_pct": 4.2, "notes": ["montée sur 148 m (+8 m), pente max 4.2 %", "descente sur 59 m (pente min -2.4 %)"]}, "geometry": {"type": "Point", "coordinates": [2.460685, 48.896079]}}, {"type": "Feature", "properties": {"kind": "step", "n": 9, "instruction": "Tourner à gauche sur", "name": "Rue Adrien Damoiselet", "length_m": 178, "max_grade_pct": 1.6, "notes": []}, "geometry": {"type": "Point", "coordinates": [2.454578, 48.891497]}}, {"type": "Feature", "properties": {"kind": "step", "n": 10, "instruction": "Tourner à droite sur", "name": "Rue Pierre Brossolette", "length_m": 183, "max_grade_pct": 3.6, "notes": ["montée sur 113 m (+4 m), pente max 3.6 %"]}, "geometry": {"type": "Point", "coordinates": [2.456336, 48.890386]}}, {"type": "Feature", "properties": {"kind": "step", "n": 11, "instruction": "Tourner à gauche sur", "name": "Rue de Brément", "length_m": 151, "max_grade_pct": 3.1, "notes": ["montée sur 44 m (+2 m), pente max 3.1 %"]}, "geometry": {"type": "Point", "coordinates": [2.454735, 48.889153]}}, {"type": "Feature", "properties": {"kind": "step", "n": 12, "instruction": "Légèrement à droite sur", "name": "Place du Général de Gaulle", "length_m": 48, "max_grade_pct": 4.0, "notes": ["montée sur 48 m (+2 m), pente max 4.0 %"]}, "geometry": {"type": "Point", "coordinates": [2.456409, 48.888354]}}, {"type": "Feature", "properties": {"kind": "step", "n": 13, "instruction": "Tourner à droite sur", "name": "Boulevard Roger Salengro", "length_m": 1222, "max_grade_pct": 6.0, "notes": ["montée sur 1.0 km (+43 m), pente max 6.0 %"]}, "geometry": {"type": "Point", "coordinates": [2.456741, 48.888002]}}, {"type": "Feature", "properties": {"kind": "step", "n": 14, "instruction": "Tourner à gauche sur", "name": "Avenue Pierre Kérautret", "length_m": 109, "max_grade_pct": 2.0, "notes": []}, "geometry": {"type": "Point", "coordinates": [2.44863, 48.879579]}}, {"type": "Feature", "properties": {"kind": "step", "n": 15, "instruction": "Continuer tout droit sur", "name": "Place Salvador Allende", "length_m": 19, "max_grade_pct": 2.3, "notes": []}, "geometry": {"type": "Point", "coordinates": [2.449372, 48.878734]}}, {"type": "Feature", "properties": {"kind": "step", "n": 16, "instruction": "Légèrement à droite sur", "name": "Route de Montreuil", "length_m": 185, "max_grade_pct": 2.3, "notes": []}, "geometry": {"type": "Point", "coordinates": [2.449417, 48.878603]}}, {"type": "Feature", "properties": {"kind": "step", "n": 17, "instruction": "Continuer tout droit sur", "name": "Route de Montreuil / Rue de Romainville", "length_m": 294, "max_grade_pct": -0.8, "notes": ["descente sur 52 m (pente min -2.2 %)"]}, "geometry": {"type": "Point", "coordinates": [2.449333, 48.876944]}}, {"type": "Feature", "properties": {"kind": "step", "n": 18, "instruction": "Légèrement à droite sur", "name": "Rue du Docteur Calmette", "length_m": 238, "max_grade_pct": 0.1, "notes": []}, "geometry": {"type": "Point", "coordinates": [2.447708, 48.874544]}}, {"type": "Feature", "properties": {"kind": "step", "n": 19, "instruction": "Légèrement à gauche sur", "name": "Rue Albert Thomas", "length_m": 66, "max_grade_pct": -1.8, "notes": ["descente sur 55 m (pente min -3.0 %)"]}, "geometry": {"type": "Point", "coordinates": [2.445558, 48.87326]}}, {"type": "Feature", "properties": {"kind": "step", "n": 20, "instruction": "Continuer tout droit sur", "name": "rue sans nom", "length_m": 57, "max_grade_pct": -3.0, "notes": ["descente sur 57 m (pente min -4.0 %)"]}, "geometry": {"type": "Point", "coordinates": [2.446207, 48.872856]}}, {"type": "Feature", "properties": {"kind": "step", "n": 21, "instruction": "Légèrement à droite sur", "name": "Rue de Romainville", "length_m": 482, "max_grade_pct": -2.1, "notes": ["descente sur 482 m (pente min -4.7 %)"]}, "geometry": {"type": "Point", "coordinates": [2.446752, 48.872496]}}, {"type": "Feature", "properties": {"kind": "step", "n": 22, "instruction": "Légèrement à droite sur", "name": "Boulevard Paul Vaillant-Couturier", "length_m": 386, "max_grade_pct": 1.4, "notes": ["descente sur 135 m (pente min -4.5 %)"]}, "geometry": {"type": "Point", "coordinates": [2.446807, 48.868162]}}, {"type": "Feature", "properties": {"kind": "step", "n": 23, "instruction": "Légèrement à gauche sur", "name": "Place François Mitterrand", "length_m": 29, "max_grade_pct": -3.8, "notes": []}, "geometry": {"type": "Point", "coordinates": [2.443627, 48.865397]}}, {"type": "Feature", "properties": {"kind": "step", "n": 24, "instruction": "Légèrement à gauche sur", "name": "Rue Franklin", "length_m": 164, "max_grade_pct": -1.5, "notes": ["descente sur 151 m (pente min -4.2 %)"]}, "geometry": {"type": "Point", "coordinates": [2.443563, 48.865181]}}, {"type": "Feature", "properties": {"kind": "step", "n": 25, "instruction": "Tourner à droite sur", "name": "Rue de l'Église", "length_m": 115, "max_grade_pct": -0.1, "notes": []}, "geometry": {"type": "Point", "coordinates": [2.444268, 48.863802]}}, {"type": "Feature", "properties": {"kind": "step", "n": 26, "instruction": "Tourner à gauche sur", "name": "Rue de la Convention", "length_m": 145, "max_grade_pct": -1.7, "notes": ["descente sur 139 m (pente min -3.8 %)"]}, "geometry": {"type": "Point", "coordinates": [2.442683, 48.863829]}}, {"type": "Feature", "properties": {"kind": "step", "n": 27, "instruction": "Tourner à droite sur", "name": "Avenue Walwein", "length_m": 52, "max_grade_pct": -0.4, "notes": []}, "geometry": {"type": "Point", "coordinates": [2.442318, 48.862552]}}, {"type": "Feature", "properties": {"kind": "step", "n": 28, "instruction": "Tourner à gauche sur", "name": "Boulevard Rouget de Lisle", "length_m": 599, "max_grade_pct": 1.9, "notes": ["descente sur 58 m (pente min -2.5 %)"]}, "geometry": {"type": "Point", "coordinates": [2.441619, 48.862648]}}, {"type": "Feature", "properties": {"kind": "step", "n": 29, "instruction": "Tourner à droite sur", "name": "piste cyclable", "length_m": 36, "max_grade_pct": 0.5, "notes": []}, "geometry": {"type": "Point", "coordinates": [2.436929, 48.858199]}}, {"type": "Feature", "properties": {"kind": "step", "n": 30, "instruction": "Continuer tout droit sur", "name": "Place Jacques Duclos", "length_m": 56, "max_grade_pct": 1.0, "notes": []}, "geometry": {"type": "Point", "coordinates": [2.436447, 48.858154]}}, {"type": "Feature", "properties": {"kind": "step", "n": 31, "instruction": "Légèrement à droite sur", "name": "Boulevard Chanzy", "length_m": 279, "max_grade_pct": 1.9, "notes": []}, "geometry": {"type": "Point", "coordinates": [2.4357, 48.858054]}}, {"type": "Feature", "properties": {"kind": "step", "n": 32, "instruction": "Légèrement à gauche sur", "name": "Rue Étienne Marcel", "length_m": 337, "max_grade_pct": 0.8, "notes": []}, "geometry": {"type": "Point", "coordinates": [2.432014, 48.858493]}}, {"type": "Feature", "properties": {"kind": "step", "n": 33, "instruction": "Continuer tout droit sur", "name": "piste cyclable", "length_m": 335, "max_grade_pct": 0.9, "notes": ["descente sur 119 m (pente min -3.2 %)"]}, "geometry": {"type": "Point", "coordinates": [2.427639, 48.857637]}}, {"type": "Feature", "properties": {"kind": "step", "n": 34, "instruction": "Continuer tout droit sur", "name": "Place de la Fraternité", "length_m": 54, "max_grade_pct": -2.2, "notes": ["descente sur 54 m (pente min -2.9 %)"]}, "geometry": {"type": "Point", "coordinates": [2.423137, 48.857176]}}, {"type": "Feature", "properties": {"kind": "step", "n": 35, "instruction": "Tourner à droite sur", "name": "Rue Arsène Chéreau", "length_m": 6, "max_grade_pct": -1.8, "notes": []}, "geometry": {"type": "Point", "coordinates": [2.42256, 48.856818]}}]}