<?xml version="1.0" encoding="UTF-8"?>
<gpx version="1.1" creator="itinerary-optim" xmlns="http://www.topografix.com/GPX/1/1">
  <trk>
    <name>Variante +10 % de détour</name>
    <trkseg>
      <trkpt lat="48.902280" lon="2.462161"><ele>57.8</ele></trkpt>
      <trkpt lat="48.902232" lon="2.462183"><ele>57.9</ele></trkpt>
      <trkpt lat="48.902183" lon="2.462204"><ele>57.9</ele></trkpt>
      <trkpt lat="48.902172" lon="2.462210"><ele>57.9</ele></trkpt>
      <trkpt lat="48.902142" lon="2.462224"><ele>57.9</ele></trkpt>
      <trkpt lat="48.902126" lon="2.462231"><ele>57.9</ele></trkpt>
      <trkpt lat="48.902052" lon="2.462263"><ele>57.9</ele></trkpt>
      <trkpt lat="48.901978" lon="2.462296"><ele>57.8</ele></trkpt>
      <trkpt lat="48.901904" lon="2.462329"><ele>57.8</ele></trkpt>
      <trkpt lat="48.901830" lon="2.462361"><ele>57.8</ele></trkpt>
      <trkpt lat="48.901800" lon="2.462404"><ele>57.8</ele></trkpt>
      <trkpt lat="48.901768" lon="2.462448"><ele>57.8</ele></trkpt>
      <trkpt lat="48.901734" lon="2.462495"><ele>57.9</ele></trkpt>
      <trkpt lat="48.901688" lon="2.462563"><ele>57.9</ele></trkpt>
      <trkpt lat="48.901666" lon="2.462596"><ele>57.9</ele></trkpt>
      <trkpt lat="48.901606" lon="2.462686"><ele>58.0</ele></trkpt>
      <trkpt lat="48.901545" lon="2.462777"><ele>58.0</ele></trkpt>
      <trkpt lat="48.901496" lon="2.462851"><ele>58.0</ele></trkpt>
      <trkpt lat="48.901447" lon="2.462925"><ele>58.0</ele></trkpt>
      <trkpt lat="48.901426" lon="2.462955"><ele>58.0</ele></trkpt>
      <trkpt lat="48.901386" lon="2.463010"><ele>58.1</ele></trkpt>
      <trkpt lat="48.901369" lon="2.463078"><ele>58.1</ele></trkpt>
      <trkpt lat="48.901367" lon="2.463089"><ele>58.1</ele></trkpt>
      <trkpt lat="48.901362" lon="2.463107"><ele>58.1</ele></trkpt>
      <trkpt lat="48.901362" lon="2.463144"><ele>58.1</ele></trkpt>
      <trkpt lat="48.901385" lon="2.463268"><ele>58.0</ele></trkpt>
      <trkpt lat="48.901409" lon="2.463392"><ele>58.0</ele></trkpt>
      <trkpt lat="48.901432" lon="2.463516"><ele>57.9</ele></trkpt>
      <trkpt lat="48.901455" lon="2.463639"><ele>57.8</ele></trkpt>
      <trkpt lat="48.901478" lon="2.463763"><ele>57.7</ele></trkpt>
      <trkpt lat="48.901501" lon="2.463887"><ele>57.5</ele></trkpt>
      <trkpt lat="48.901510" lon="2.463937"><ele>57.4</ele></trkpt>
      <trkpt lat="48.901511" lon="2.463938"><ele>57.4</ele></trkpt>
      <trkpt lat="48.901523" lon="2.464007"><ele>57.3</ele></trkpt>
      <trkpt lat="48.901490" lon="2.464023"><ele>57.3</ele></trkpt>
      <trkpt lat="48.901485" lon="2.464025"><ele>57.3</ele></trkpt>
      <trkpt lat="48.901455" lon="2.464040"><ele>57.3</ele></trkpt>
      <trkpt lat="48.901382" lon="2.464075"><ele>57.3</ele></trkpt>
      <trkpt lat="48.901310" lon="2.464110"><ele>57.2</ele></trkpt>
      <trkpt lat="48.901238" lon="2.464145"><ele>57.1</ele></trkpt>
      <trkpt lat="48.901198" lon="2.464165"><ele>57.1</ele></trkpt>
      <trkpt lat="48.901126" lon="2.464199"><ele>57.0</ele></trkpt>
      <trkpt lat="48.901054" lon="2.464234"><ele>56.9</ele></trkpt>
      <trkpt lat="48.900982" lon="2.464269"><ele>56.7</ele></trkpt>
      <trkpt lat="48.900909" lon="2.464303"><ele>56.6</ele></trkpt>
      <trkpt lat="48.900870" lon="2.464368"><ele>56.5</ele></trkpt>
      <trkpt lat="48.900829" lon="2.464477"><ele>56.4</ele></trkpt>
      <trkpt lat="48.900787" lon="2.464585"><ele>56.4</ele></trkpt>
      <trkpt lat="48.900746" lon="2.464693"><ele>56.3</ele></trkpt>
      <trkpt lat="48.900710" lon="2.464786"><ele>56.3</ele></trkpt>
      <trkpt lat="48.900673" lon="2.464878"><ele>56.3</ele></trkpt>
      <trkpt lat="48.900637" lon="2.464971"><ele>56.2</ele></trkpt>
      <trkpt lat="48.900599" lon="2.465064"><ele>56.2</ele></trkpt>
      <trkpt lat="48.900561" lon="2.465158"><ele>56.1</ele></trkpt>
      <trkpt lat="48.900524" lon="2.465251"><ele>56.1</ele></trkpt>
      <trkpt lat="48.900486" lon="2.465345"><ele>56.1</ele></trkpt>
      <trkpt lat="48.900486" lon="2.465345"><ele>56.0</ele></trkpt>
      <trkpt lat="48.900466" lon="2.465389"><ele>56.0</ele></trkpt>
      <trkpt lat="48.900413" lon="2.465331"><ele>56.1</ele></trkpt>
      <trkpt lat="48.900359" lon="2.465273"><ele>56.1</ele></trkpt>
      <trkpt lat="48.900359" lon="2.465272"><ele>56.1</ele></trkpt>
      <trkpt lat="48.900289" lon="2.465191"><ele>56.2</ele></trkpt>
      <trkpt lat="48.900218" lon="2.465110"><ele>56.2</ele></trkpt>
      <trkpt lat="48.900148" lon="2.465029"><ele>56.2</ele></trkpt>
      <trkpt lat="48.900109" lon="2.464992"><ele>56.2</ele></trkpt>
      <trkpt lat="48.900077" lon="2.464960"><ele>56.2</ele></trkpt>
      <trkpt lat="48.900041" lon="2.464930"><ele>56.2</ele></trkpt>
      <trkpt lat="48.899998" lon="2.464891"><ele>56.2</ele></trkpt>
      <trkpt lat="48.899957" lon="2.464847"><ele>56.2</ele></trkpt>
      <trkpt lat="48.899894" lon="2.464777"><ele>56.2</ele></trkpt>
      <trkpt lat="48.899831" lon="2.464708"><ele>56.3</ele></trkpt>
      <trkpt lat="48.899768" lon="2.464638"><ele>56.3</ele></trkpt>
      <trkpt lat="48.899705" lon="2.464569"><ele>56.4</ele></trkpt>
      <trkpt lat="48.899642" lon="2.464499"><ele>56.4</ele></trkpt>
      <trkpt lat="48.899580" lon="2.464430"><ele>56.5</ele></trkpt>
      <trkpt lat="48.899517" lon="2.464360"><ele>56.5</ele></trkpt>
      <trkpt lat="48.899516" lon="2.464359"><ele>56.5</ele></trkpt>
      <trkpt lat="48.899456" lon="2.464294"><ele>56.5</ele></trkpt>
      <trkpt lat="48.899397" lon="2.464228"><ele>56.6</ele></trkpt>
      <trkpt lat="48.899338" lon="2.464163"><ele>56.6</ele></trkpt>
      <trkpt lat="48.899279" lon="2.464097"><ele>56.6</ele></trkpt>
      <trkpt lat="48.899220" lon="2.464032"><ele>56.6</ele></trkpt>
      <trkpt lat="48.899154" lon="2.463959"><ele>56.6</ele></trkpt>
      <trkpt lat="48.899089" lon="2.463885"><ele>56.6</ele></trkpt>
      <trkpt lat="48.899023" lon="2.463812"><ele>56.6</ele></trkpt>
      <trkpt lat="48.898957" lon="2.463739"><ele>56.7</ele></trkpt>
      <trkpt lat="48.898892" lon="2.463666"><ele>56.8</ele></trkpt>
      <trkpt lat="48.898826" lon="2.463592"><ele>56.9</ele></trkpt>
      <trkpt lat="48.898757" lon="2.463515"><ele>57.0</ele></trkpt>
      <trkpt lat="48.898688" lon="2.463438"><ele>57.3</ele></trkpt>
      <trkpt lat="48.898620" lon="2.463361"><ele>57.5</ele></trkpt>
      <trkpt lat="48.898551" lon="2.463284"><ele>57.8</ele></trkpt>
      <trkpt lat="48.898482" lon="2.463207"><ele>58.0</ele></trkpt>
      <trkpt lat="48.898413" lon="2.463130"><ele>58.3</ele></trkpt>
      <trkpt lat="48.898344" lon="2.463053"><ele>58.5</ele></trkpt>
      <trkpt lat="48.898275" lon="2.462976"><ele>58.6</ele></trkpt>
      <trkpt lat="48.898206" lon="2.462899"><ele>58.7</ele></trkpt>
      <trkpt lat="48.898137" lon="2.462822"><ele>58.8</ele></trkpt>
      <trkpt lat="48.898068" lon="2.462745"><ele>58.9</ele></trkpt>
      <trkpt lat="48.897999" lon="2.462668"><ele>58.9</ele></trkpt>
      <trkpt lat="48.897985" lon="2.462648"><ele>58.9</ele></trkpt>
      <trkpt lat="48.897981" lon="2.462644"><ele>58.9</ele></trkpt>
      <trkpt lat="48.897930" lon="2.462575"><ele>58.9</ele></trkpt>
      <trkpt lat="48.897878" lon="2.462507"><ele>58.8</ele></trkpt>
      <trkpt lat="48.897876" lon="2.462444"><ele>58.7</ele></trkpt>
      <trkpt lat="48.897859" lon="2.462388"><ele>58.6</ele></trkpt>
      <trkpt lat="48.897830" lon="2.462346"><ele>58.5</ele></trkpt>
      <trkpt lat="48.897793" lon="2.462323"><ele>58.5</ele></trkpt>
      <trkpt lat="48.897754" lon="2.462323"><ele>58.5</ele></trkpt>
      <trkpt lat="48.897752" lon="2.462322"><ele>58.5</ele></trkpt>
      <trkpt lat="48.897722" lon="2.462338"><ele>58.5</ele></trkpt>
      <trkpt lat="48.897697" lon="2.462367"><ele>58.5</ele></trkpt>
      <trkpt lat="48.897696" lon="2.462368"><ele>58.5</ele></trkpt>
      <trkpt lat="48.897688" lon="2.462381"><ele>58.6</ele></trkpt>
      <trkpt lat="48.897654" lon="2.462369"><ele>58.5</ele></trkpt>
      <trkpt lat="48.897654" lon="2.462369"><ele>58.5</ele></trkpt>
      <trkpt lat="48.897605" lon="2.462353"><ele>58.5</ele></trkpt>
      <trkpt lat="48.897557" lon="2.462337"><ele>58.5</ele></trkpt>
      <trkpt lat="48.897512" lon="2.462275"><ele>58.4</ele></trkpt>
      <trkpt lat="48.897468" lon="2.462212"><ele>58.3</ele></trkpt>
      <trkpt lat="48.897467" lon="2.462211"><ele>58.2</ele></trkpt>
      <trkpt lat="48.897408" lon="2.462138"><ele>58.2</ele></trkpt>
      <trkpt lat="48.897345" lon="2.462068"><ele>58.1</ele></trkpt>
      <trkpt lat="48.897283" lon="2.461998"><ele>58.0</ele></trkpt>
      <trkpt lat="48.897220" lon="2.461928"><ele>58.0</ele></trkpt>
      <trkpt lat="48.897158" lon="2.461859"><ele>58.0</ele></trkpt>
      <trkpt lat="48.897096" lon="2.461789"><ele>58.0</ele></trkpt>
      <trkpt lat="48.897030" lon="2.461710"><ele>58.0</ele></trkpt>
      <trkpt lat="48.896965" lon="2.461631"><ele>58.0</ele></trkpt>
      <trkpt lat="48.896899" lon="2.461552"><ele>58.0</ele></trkpt>
      <trkpt lat="48.896837" lon="2.461478"><ele>58.0</ele></trkpt>
      <trkpt lat="48.896774" lon="2.461404"><ele>58.0</ele></trkpt>
      <trkpt lat="48.896713" lon="2.461333"><ele>58.1</ele></trkpt>
      <trkpt lat="48.896652" lon="2.461263"><ele>58.3</ele></trkpt>
      <trkpt lat="48.896590" lon="2.461193"><ele>58.5</ele></trkpt>
      <trkpt lat="48.896529" lon="2.461122"><ele>58.6</ele></trkpt>
      <trkpt lat="48.896467" lon="2.461052"><ele>58.8</ele></trkpt>
      <trkpt lat="48.896406" lon="2.460982"><ele>59.0</ele></trkpt>
      <trkpt lat="48.896351" lon="2.460943"><ele>59.6</ele></trkpt>
      <trkpt lat="48.896318" lon="2.460917"><ele>59.8</ele></trkpt>
      <trkpt lat="48.896317" lon="2.460917"><ele>60.3</ele></trkpt>
      <trkpt lat="48.896252" lon="2.460875"><ele>60.5</ele></trkpt>
      <trkpt lat="48.896187" lon="2.460834"><ele>60.7</ele></trkpt>
      <trkpt lat="48.896153" lon="2.460818"><ele>60.9</ele></trkpt>
      <trkpt lat="48.896124" lon="2.460787"><ele>61.1</ele></trkpt>
      <trkpt lat="48.896079" lon="2.460685"><ele>61.7</ele></trkpt>
      <trkpt lat="48.896032" lon="2.460592"><ele>61.9</ele></trkpt>
      <trkpt lat="48.896029" lon="2.460586"><ele>62.0</ele></trkpt>
      <trkpt lat="48.895997" lon="2.460547"><ele>62.1</ele></trkpt>
      <trkpt lat="48.895933" lon="2.460460"><ele>62.4</ele></trkpt>
      <trkpt lat="48.895870" lon="2.460374"><ele>62.7</ele></trkpt>
      <trkpt lat="48.895806" lon="2.460288"><ele>62.9</ele></trkpt>
      <trkpt lat="48.895742" lon="2.460202"><ele>63.1</ele></trkpt>
      <trkpt lat="48.895742" lon="2.460202"><ele>63.2</ele></trkpt>
      <trkpt lat="48.895685" lon="2.460124"><ele>63.2</ele></trkpt>
      <trkpt lat="48.895627" lon="2.460047"><ele>63.3</ele></trkpt>
      <trkpt lat="48.895570" lon="2.459969"><ele>63.4</ele></trkpt>
      <trkpt lat="48.895513" lon="2.459892"><ele>63.4</ele></trkpt>
      <trkpt lat="48.895510" lon="2.459888"><ele>63.5</ele></trkpt>
      <trkpt lat="48.895444" lon="2.459799"><ele>63.6</ele></trkpt>
      <trkpt lat="48.895378" lon="2.459709"><ele>63.6</ele></trkpt>
      <trkpt lat="48.895311" lon="2.459620"><ele>63.5</ele></trkpt>
      <trkpt lat="48.895245" lon="2.459530"><ele>63.5</ele></trkpt>
      <trkpt lat="48.895203" lon="2.459462"><ele>63.4</ele></trkpt>
      <trkpt lat="48.895162" lon="2.459393"><ele>63.3</ele></trkpt>
      <trkpt lat="48.895159" lon="2.459389"><ele>63.3</ele></trkpt>
      <trkpt lat="48.895114" lon="2.459306"><ele>63.1</ele></trkpt>
      <trkpt lat="48.895049" lon="2.459215"><ele>63.0</ele></trkpt>
      <trkpt lat="48.894983" lon="2.459124"><ele>62.9</ele></trkpt>
      <trkpt lat="48.894918" lon="2.459032"><ele>62.8</ele></trkpt>
      <trkpt lat="48.894852" lon="2.458941"><ele>62.7</ele></trkpt>
      <trkpt lat="48.894787" lon="2.458850"><ele>62.5</ele></trkpt>
      <trkpt lat="48.894721" lon="2.458759"><ele>62.2</ele></trkpt>
      <trkpt lat="48.894655" lon="2.458668"><ele>61.9</ele></trkpt>
      <trkpt lat="48.894590" lon="2.458577"><ele>61.7</ele></trkpt>
      <trkpt lat="48.894524" lon="2.458486"><ele>61.4</ele></trkpt>
      <trkpt lat="48.894459" lon="2.458395"><ele>61.1</ele></trkpt>
      <trkpt lat="48.894393" lon="2.458303"><ele>60.9</ele></trkpt>
      <trkpt lat="48.894328" lon="2.458212"><ele>60.7</ele></trkpt>
      <trkpt lat="48.894269" lon="2.458134"><ele>60.5</ele></trkpt>
      <trkpt lat="48.894269" lon="2.458134"><ele>60.5</ele></trkpt>
      <trkpt lat="48.894259" lon="2.458121"><ele>60.5</ele></trkpt>
      <trkpt lat="48.894224" lon="2.458060"><ele>60.4</ele></trkpt>
      <trkpt lat="48.894190" lon="2.457999"><ele>60.4</ele></trkpt>
      <trkpt lat="48.894126" lon="2.457912"><ele>60.4</ele></trkpt>
      <trkpt lat="48.894063" lon="2.457824"><ele>60.4</ele></trkpt>
      <trkpt lat="48.893999" lon="2.457737"><ele>60.4</ele></trkpt>
      <trkpt lat="48.893993" lon="2.457729"><ele>60.4</ele></trkpt>
      <trkpt lat="48.893988" lon="2.457722"><ele>60.5</ele></trkpt>
      <trkpt lat="48.893921" lon="2.457631"><ele>60.7</ele></trkpt>
      <trkpt lat="48.893855" lon="2.457541"><ele>61.0</ele></trkpt>
      <trkpt lat="48.893788" lon="2.457450"><ele>61.4</ele></trkpt>
      <trkpt lat="48.893733" lon="2.457391"><ele>61.7</ele></trkpt>
      <trkpt lat="48.893728" lon="2.457385"><ele>62.0</ele></trkpt>
      <trkpt lat="48.893719" lon="2.457377"><ele>62.0</ele></trkpt>
      <trkpt lat="48.893656" lon="2.457320"><ele>62.0</ele></trkpt>
      <trkpt lat="48.893611" lon="2.457268"><ele>62.5</ele></trkpt>
      <trkpt lat="48.893566" lon="2.457216"><ele>62.6</ele></trkpt>
      <trkpt lat="48.893565" lon="2.457214"><ele>62.7</ele></trkpt>
      <trkpt lat="48.893557" lon="2.457206"><ele>62.9</ele></trkpt>
      <trkpt lat="48.893494" lon="2.457127"><ele>63.1</ele></trkpt>
      <trkpt lat="48.893431" lon="2.457048"><ele>63.4</ele></trkpt>
      <trkpt lat="48.893368" lon="2.456970"><ele>63.7</ele></trkpt>
      <trkpt lat="48.893304" lon="2.456891"><ele>63.9</ele></trkpt>
      <trkpt lat="48.893241" lon="2.456813"><ele>64.1</ele></trkpt>
      <trkpt lat="48.893240" lon="2.456812"><ele>64.1</ele></trkpt>
      <trkpt lat="48.893233" lon="2.456803"><ele>64.1</ele></trkpt>
      <trkpt lat="48.893204" lon="2.456766"><ele>64.2</ele></trkpt>
      <trkpt lat="48.893204" lon="2.456765"><ele>64.2</ele></trkpt>
      <trkpt lat="48.893174" lon="2.456727"><ele>64.2</ele></trkpt>
      <trkpt lat="48.893150" lon="2.456696"><ele>64.3</ele></trkpt>
      <trkpt lat="48.893150" lon="2.456696"><ele>64.3</ele></trkpt>
      <trkpt lat="48.893142" lon="2.456687"><ele>64.3</ele></trkpt>
      <trkpt lat="48.893081" lon="2.456608"><ele>64.3</ele></trkpt>
      <trkpt lat="48.893019" lon="2.456530"><ele>64.3</ele></trkpt>
      <trkpt lat="48.892957" lon="2.456452"><ele>64.3</ele></trkpt>
      <trkpt lat="48.892895" lon="2.456373"><ele>64.3</ele></trkpt>
      <trkpt lat="48.892841" lon="2.456306"><ele>64.3</ele></trkpt>
      <trkpt lat="48.892841" lon="2.456305"><ele>64.3</ele></trkpt>
      <trkpt lat="48.892831" lon="2.456292"><ele>64.2</ele></trkpt>
      <trkpt lat="48.892769" lon="2.456215"><ele>64.2</ele></trkpt>
      <trkpt lat="48.892706" lon="2.456138"><ele>64.1</ele></trkpt>
      <trkpt lat="48.892644" lon="2.456061"><ele>64.1</ele></trkpt>
      <trkpt lat="48.892582" lon="2.455984"><ele>64.0</ele></trkpt>
      <trkpt lat="48.892530" lon="2.455920"><ele>64.0</ele></trkpt>
      <trkpt lat="48.892479" lon="2.455856"><ele>64.1</ele></trkpt>
      <trkpt lat="48.892478" lon="2.455855"><ele>64.1</ele></trkpt>
      <trkpt lat="48.892471" lon="2.455847"><ele>64.1</ele></trkpt>
      <trkpt lat="48.892418" lon="2.455774"><ele>64.1</ele></trkpt>
      <trkpt lat="48.892361" lon="2.455701"><ele>64.2</ele></trkpt>
      <trkpt lat="48.892360" lon="2.455701"><ele>64.2</ele></trkpt>
      <trkpt lat="48.892355" lon="2.455694"><ele>64.2</ele></trkpt>
      <trkpt lat="48.892299" lon="2.455627"><ele>64.2</ele></trkpt>
      <trkpt lat="48.892243" lon="2.455559"><ele>64.3</ele></trkpt>
      <trkpt lat="48.892187" lon="2.455492"><ele>64.4</ele></trkpt>
      <trkpt lat="48.892131" lon="2.455424"><ele>64.4</ele></trkpt>
      <trkpt lat="48.892128" lon="2.455421"><ele>64.5</ele></trkpt>
      <trkpt lat="48.892126" lon="2.455418"><ele>64.5</ele></trkpt>
      <trkpt lat="48.892059" lon="2.455334"><ele>64.6</ele></trkpt>
      <trkpt lat="48.891993" lon="2.455250"><ele>64.8</ele></trkpt>
      <trkpt lat="48.891927" lon="2.455166"><ele>64.9</ele></trkpt>
      <trkpt lat="48.891860" lon="2.455082"><ele>65.1</ele></trkpt>
      <trkpt lat="48.891857" lon="2.455077"><ele>65.2</ele></trkpt>
      <trkpt lat="48.891816" lon="2.455020"><ele>65.3</ele></trkpt>
      <trkpt lat="48.891764" lon="2.454952"><ele>65.4</ele></trkpt>
      <trkpt lat="48.891711" lon="2.454884"><ele>65.5</ele></trkpt>
      <trkpt lat="48.891677" lon="2.454826"><ele>65.6</ele></trkpt>
      <trkpt lat="48.891644" lon="2.454767"><ele>65.6</ele></trkpt>
      <trkpt lat="48.891595" lon="2.454704"><ele>65.7</ele></trkpt>
      <trkpt lat="48.891546" lon="2.454641"><ele>65.7</ele></trkpt>
      <trkpt lat="48.891497" lon="2.454578"><ele>65.7</ele></trkpt>
      <trkpt lat="48.891458" lon="2.454637"><ele>65.9</ele></trkpt>
      <trkpt lat="48.891457" lon="2.454638"><ele>66.0</ele></trkpt>
      <trkpt lat="48.891447" lon="2.454654"><ele>66.1</ele></trkpt>
      <trkpt lat="48.891394" lon="2.454735"><ele>66.2</ele></trkpt>
      <trkpt lat="48.891341" lon="2.454816"><ele>66.4</ele></trkpt>
      <trkpt lat="48.891288" lon="2.454897"><ele>66.5</ele></trkpt>
      <trkpt lat="48.891235" lon="2.454978"><ele>66.6</ele></trkpt>
      <trkpt lat="48.891234" lon="2.454980"><ele>66.6</ele></trkpt>
      <trkpt lat="48.891217" lon="2.455007"><ele>66.6</ele></trkpt>
      <trkpt lat="48.891215" lon="2.455009"><ele>66.6</ele></trkpt>
      <trkpt lat="48.891160" lon="2.455094"><ele>66.5</ele></trkpt>
      <trkpt lat="48.891104" lon="2.455180"><ele>66.4</ele></trkpt>
      <trkpt lat="48.891048" lon="2.455265"><ele>66.3</ele></trkpt>
      <trkpt lat="48.891045" lon="2.455269"><ele>66.3</ele></trkpt>
      <trkpt lat="48.891025" lon="2.455300"><ele>66.2</ele></trkpt>
      <trkpt lat="48.891004" lon="2.455334"><ele>66.2</ele></trkpt>
      <trkpt lat="48.891002" lon="2.455338"><ele>66.2</ele></trkpt>
      <trkpt lat="48.890942" lon="2.455435"><ele>65.9</ele></trkpt>
      <trkpt lat="48.890882" lon="2.455532"><ele>65.6</ele></trkpt>
      <trkpt lat="48.890822" lon="2.455629"><ele>65.4</ele></trkpt>
      <trkpt lat="48.890821" lon="2.455632"><ele>65.3</ele></trkpt>
      <trkpt lat="48.890777" lon="2.455702"><ele>65.2</ele></trkpt>
      <trkpt lat="48.890775" lon="2.455705"><ele>65.2</ele></trkpt>
      <trkpt lat="48.890721" lon="2.455794"><ele>65.0</ele></trkpt>
      <trkpt lat="48.890666" lon="2.455882"><ele>64.9</ele></trkpt>
      <trkpt lat="48.890611" lon="2.455971"><ele>64.8</ele></trkpt>
      <trkpt lat="48.890610" lon="2.455973"><ele>64.8</ele></trkpt>
      <trkpt lat="48.890554" lon="2.456064"><ele>64.8</ele></trkpt>
      <trkpt lat="48.890498" lon="2.456154"><ele>64.8</ele></trkpt>
      <trkpt lat="48.890442" lon="2.456245"><ele>64.9</ele></trkpt>
      <trkpt lat="48.890386" lon="2.456336"><ele>65.0</ele></trkpt>
      <trkpt lat="48.890344" lon="2.456283"><ele>65.0</ele></trkpt>
      <trkpt lat="48.890303" lon="2.456230"><ele>65.1</ele></trkpt>
      <trkpt lat="48.890248" lon="2.456158"><ele>65.2</ele></trkpt>
      <trkpt lat="48.890248" lon="2.456158"><ele>65.2</ele></trkpt>
      <trkpt lat="48.890201" lon="2.456097"><ele>65.5</ele></trkpt>
      <trkpt lat="48.890137" lon="2.456014"><ele>65.8</ele></trkpt>
      <trkpt lat="48.890073" lon="2.455930"><ele>66.0</ele></trkpt>
      <trkpt lat="48.890073" lon="2.455930"><ele>66.3</ele></trkpt>
      <trkpt lat="48.890008" lon="2.455844"><ele>66.9</ele></trkpt>
      <trkpt lat="48.889942" lon="2.455758"><ele>67.3</ele></trkpt>
      <trkpt lat="48.889876" lon="2.455673"><ele>67.7</ele></trkpt>
      <trkpt lat="48.889811" lon="2.455587"><ele>68.0</ele></trkpt>
      <trkpt lat="48.889810" lon="2.455586"><ele>68.1</ele></trkpt>
      <trkpt lat="48.889765" lon="2.455525"><ele>68.3</ele></trkpt>
      <trkpt lat="48.889696" lon="2.455446"><ele>68.5</ele></trkpt>
      <trkpt lat="48.889634" lon="2.455360"><ele>68.6</ele></trkpt>
      <trkpt lat="48.889571" lon="2.455273"><ele>68.8</ele></trkpt>
      <trkpt lat="48.889508" lon="2.455187"><ele>68.9</ele></trkpt>
      <trkpt lat="48.889505" lon="2.455181"><ele>68.9</ele></trkpt>
      <trkpt lat="48.889448" lon="2.455094"><ele>69.0</ele></trkpt>
      <trkpt lat="48.889391" lon="2.455008"><ele>69.1</ele></trkpt>
      <trkpt lat="48.889387" lon="2.455002"><ele>69.1</ele></trkpt>
      <trkpt lat="48.889340" lon="2.454915"><ele>69.1</ele></trkpt>
      <trkpt lat="48.889292" lon="2.454829"><ele>69.1</ele></trkpt>
      <trkpt lat="48.889292" lon="2.454828"><ele>69.2</ele></trkpt>
      <trkpt lat="48.889238" lon="2.454742"><ele>69.2</ele></trkpt>
      <trkpt lat="48.889153" lon="2.454735"><ele>69.2</ele></trkpt>
      <trkpt lat="48.889100" lon="2.454834"><ele>69.3</ele></trkpt>
      <trkpt lat="48.889046" lon="2.454933"><ele>69.3</ele></trkpt>
      <trkpt lat="48.888992" lon="2.455032"><ele>69.3</ele></trkpt>
      <trkpt lat="48.888938" lon="2.455131"><ele>69.4</ele></trkpt>
      <trkpt lat="48.888885" lon="2.455230"><ele>69.4</ele></trkpt>
      <trkpt lat="48.888845" lon="2.455310"><ele>69.4</ele></trkpt>
      <trkpt lat="48.888804" lon="2.455391"><ele>69.5</ele></trkpt>
      <trkpt lat="48.888756" lon="2.455490"><ele>69.5</ele></trkpt>
      <trkpt lat="48.888707" lon="2.455588"><ele>69.7</ele></trkpt>
      <trkpt lat="48.888658" lon="2.455687"><ele>69.9</ele></trkpt>
      <trkpt lat="48.888609" lon="2.455786"><ele>70.2</ele></trkpt>
      <trkpt lat="48.888564" lon="2.455900"><ele>70.5</ele></trkpt>
      <trkpt lat="48.888518" lon="2.456013"><ele>70.7</ele></trkpt>
      <trkpt lat="48.888473" lon="2.456126"><ele>70.9</ele></trkpt>
      <trkpt lat="48.888428" lon="2.456240"><ele>71.1</ele></trkpt>
      <trkpt lat="48.888398" lon="2.456313"><ele>71.1</ele></trkpt>
      <trkpt lat="48.888397" lon="2.456313"><ele>71.2</ele></trkpt>
      <trkpt lat="48.888354" lon="2.456409"><ele>71.4</ele></trkpt>
      <trkpt lat="48.888287" lon="2.456451"><ele>71.7</ele></trkpt>
      <trkpt lat="48.888221" lon="2.456492"><ele>71.9</ele></trkpt>
      <trkpt lat="48.888143" lon="2.456541"><ele>72.6</ele></trkpt>
      <trkpt lat="48.888066" lon="2.456590"><ele>72.9</ele></trkpt>
      <trkpt lat="48.888034" lon="2.456665"><ele>73.1</ele></trkpt>
      <trkpt lat="48.888002" lon="2.456741"><ele>73.2</ele></trkpt>
      <trkpt lat="48.887963" lon="2.456706"><ele>73.5</ele></trkpt>
      <trkpt lat="48.887924" lon="2.456672"><ele>73.6</ele></trkpt>
      <trkpt lat="48.887922" lon="2.456670"><ele>73.7</ele></trkpt>
      <trkpt lat="48.887860" lon="2.456616"><ele>74.2</ele></trkpt>
      <trkpt lat="48.887797" lon="2.456562"><ele>74.6</ele></trkpt>
      <trkpt lat="48.887741" lon="2.456505"><ele>74.8</ele></trkpt>
      <trkpt lat="48.887685" lon="2.456448"><ele>75.1</ele></trkpt>
      <trkpt lat="48.887628" lon="2.456391"><ele>75.3</ele></trkpt>
      <trkpt lat="48.887572" lon="2.456335"><ele>75.4</ele></trkpt>
      <trkpt lat="48.887560" lon="2.456323"><ele>75.4</ele></trkpt>
      <trkpt lat="48.887558" lon="2.456321"><ele>75.4</ele></trkpt>
      <trkpt lat="48.887487" lon="2.456250"><ele>75.7</ele></trkpt>
      <trkpt lat="48.887416" lon="2.456180"><ele>75.9</ele></trkpt>
      <trkpt lat="48.887345" lon="2.456109"><ele>76.2</ele></trkpt>
      <trkpt lat="48.887274" lon="2.456039"><ele>76.4</ele></trkpt>
      <trkpt lat="48.887203" lon="2.455968"><ele>76.7</ele></trkpt>
      <trkpt lat="48.887132" lon="2.455898"><ele>77.0</ele></trkpt>
      <trkpt lat="48.887132" lon="2.455897"><ele>77.2</ele></trkpt>
      <trkpt lat="48.887074" lon="2.455843"><ele>77.2</ele></trkpt>
      <trkpt lat="48.887021" lon="2.455798"><ele>77.6</ele></trkpt>
      <trkpt lat="48.887020" lon="2.455798"><ele>77.8</ele></trkpt>
      <trkpt lat="48.886962" lon="2.455737"><ele>78.1</ele></trkpt>
      <trkpt lat="48.886903" lon="2.455677"><ele>78.5</ele></trkpt>
      <trkpt lat="48.886829" lon="2.455626"><ele>78.9</ele></trkpt>
      <trkpt lat="48.886755" lon="2.455574"><ele>79.1</ele></trkpt>
      <trkpt lat="48.886747" lon="2.455568"><ele>79.4</ele></trkpt>
      <trkpt lat="48.886682" lon="2.455540"><ele>79.6</ele></trkpt>
      <trkpt lat="48.886616" lon="2.455512"><ele>79.7</ele></trkpt>
      <trkpt lat="48.886572" lon="2.455493"><ele>80.0</ele></trkpt>
      <trkpt lat="48.886528" lon="2.455475"><ele>80.1</ele></trkpt>
      <trkpt lat="48.886525" lon="2.455474"><ele>80.4</ele></trkpt>
      <trkpt lat="48.886440" lon="2.455460"><ele>80.7</ele></trkpt>
      <trkpt lat="48.886356" lon="2.455446"><ele>81.1</ele></trkpt>
      <trkpt lat="48.886271" lon="2.455432"><ele>81.5</ele></trkpt>
      <trkpt lat="48.886186" lon="2.455418"><ele>81.9</ele></trkpt>
      <trkpt lat="48.886123" lon="2.455411"><ele>82.4</ele></trkpt>
      <trkpt lat="48.886059" lon="2.455403"><ele>82.7</ele></trkpt>
      <trkpt lat="48.885996" lon="2.455395"><ele>82.9</ele></trkpt>
      <trkpt lat="48.885995" lon="2.455395"><ele>83.1</ele></trkpt>
      <trkpt lat="48.885932" lon="2.455393"><ele>83.2</ele></trkpt>
      <trkpt lat="48.885919" lon="2.455426"><ele>83.3</ele></trkpt>
      <trkpt lat="48.885895" lon="2.455451"><ele>83.4</ele></trkpt>
      <trkpt lat="48.885873" lon="2.455459"><ele>83.4</ele></trkpt>
      <trkpt lat="48.885852" lon="2.455455"><ele>83.5</ele></trkpt>
      <trkpt lat="48.885829" lon="2.455438"><ele>83.6</ele></trkpt>
      <trkpt lat="48.885814" lon="2.455412"><ele>83.6</ele></trkpt>
      <trkpt lat="48.885804" lon="2.455367"><ele>83.7</ele></trkpt>
      <trkpt lat="48.885745" lon="2.455351"><ele>84.1</ele></trkpt>
      <trkpt lat="48.885743" lon="2.455351"><ele>84.2</ele></trkpt>
      <trkpt lat="48.885671" lon="2.455356"><ele>84.3</ele></trkpt>
      <trkpt lat="48.885599" lon="2.455361"><ele>84.5</ele></trkpt>
      <trkpt lat="48.885530" lon="2.455356"><ele>84.6</ele></trkpt>
      <trkpt lat="48.885460" lon="2.455351"><ele>84.8</ele></trkpt>
      <trkpt lat="48.885386" lon="2.455344"><ele>84.9</ele></trkpt>
      <trkpt lat="48.885312" lon="2.455337"><ele>85.1</ele></trkpt>
      <trkpt lat="48.885238" lon="2.455329"><ele>85.2</ele></trkpt>
      <trkpt lat="48.885164" lon="2.455322"><ele>85.3</ele></trkpt>
      <trkpt lat="48.885164" lon="2.455322"><ele>85.5</ele></trkpt>
      <trkpt lat="48.885080" lon="2.455314"><ele>85.6</ele></trkpt>
      <trkpt lat="48.885080" lon="2.455314"><ele>85.8</ele></trkpt>
      <trkpt lat="48.885019" lon="2.455303"><ele>86.0</ele></trkpt>
      <trkpt lat="48.884929" lon="2.455294"><ele>86.4</ele></trkpt>
      <trkpt lat="48.884839" lon="2.455285"><ele>86.6</ele></trkpt>
      <trkpt lat="48.884750" lon="2.455276"><ele>86.8</ele></trkpt>
      <trkpt lat="48.884660" lon="2.455267"><ele>87.0</ele></trkpt>
      <trkpt lat="48.884571" lon="2.455257"><ele>87.1</ele></trkpt>
      <trkpt lat="48.884481" lon="2.455248"><ele>87.3</ele></trkpt>
      <trkpt lat="48.884391" lon="2.455239"><ele>87.5</ele></trkpt>
      <trkpt lat="48.884302" lon="2.455230"><ele>87.7</ele></trkpt>
      <trkpt lat="48.884225" lon="2.455222"><ele>87.8</ele></trkpt>
      <trkpt lat="48.884148" lon="2.455214"><ele>87.8</ele></trkpt>
      <trkpt lat="48.884071" lon="2.455206"><ele>87.9</ele></trkpt>
      <trkpt lat="48.883994" lon="2.455198"><ele>88.0</ele></trkpt>
      <trkpt lat="48.883917" lon="2.455190"><ele>88.2</ele></trkpt>
      <trkpt lat="48.883840" lon="2.455182"><ele>88.4</ele></trkpt>
      <trkpt lat="48.883839" lon="2.455182"><ele>88.5</ele></trkpt>
      <trkpt lat="48.883758" lon="2.455181"><ele>88.9</ele></trkpt>
      <trkpt lat="48.883719" lon="2.455181"><ele>89.0</ele></trkpt>
      <trkpt lat="48.883718" lon="2.455181"><ele>89.0</ele></trkpt>
      <trkpt lat="48.883640" lon="2.455192"><ele>89.6</ele></trkpt>
      <trkpt lat="48.883562" lon="2.455204"><ele>89.8</ele></trkpt>
      <trkpt lat="48.883494" lon="2.455183"><ele>90.6</ele></trkpt>
      <trkpt lat="48.883440" lon="2.455167"><ele>91.0</ele></trkpt>
      <trkpt lat="48.883387" lon="2.455151"><ele>91.5</ele></trkpt>
      <trkpt lat="48.883335" lon="2.455134"><ele>91.8</ele></trkpt>
      <trkpt lat="48.883282" lon="2.455116"><ele>92.1</ele></trkpt>
      <trkpt lat="48.883212" lon="2.455092"><ele>93.0</ele></trkpt>
      <trkpt lat="48.883142" lon="2.455068"><ele>93.4</ele></trkpt>
      <trkpt lat="48.883072" lon="2.455044"><ele>93.7</ele></trkpt>
      <trkpt lat="48.883013" lon="2.455013"><ele>94.0</ele></trkpt>
      <trkpt lat="48.882955" lon="2.454982"><ele>94.3</ele></trkpt>
      <trkpt lat="48.882897" lon="2.454952"><ele>94.7</ele></trkpt>
      <trkpt lat="48.882834" lon="2.454889"><ele>95.0</ele></trkpt>
      <trkpt lat="48.882770" lon="2.454827"><ele>95.4</ele></trkpt>
      <trkpt lat="48.882713" lon="2.454765"><ele>95.8</ele></trkpt>
      <trkpt lat="48.882656" lon="2.454704"><ele>96.1</ele></trkpt>
      <trkpt lat="48.882592" lon="2.454610"><ele>96.5</ele></trkpt>
      <trkpt lat="48.882528" lon="2.454516"><ele>96.9</ele></trkpt>
      <trkpt lat="48.882487" lon="2.454446"><ele>97.2</ele></trkpt>
      <trkpt lat="48.882447" lon="2.454377"><ele>97.5</ele></trkpt>
      <trkpt lat="48.882409" lon="2.454307"><ele>97.8</ele></trkpt>
      <trkpt lat="48.882371" lon="2.454238"><ele>98.2</ele></trkpt>
      <trkpt lat="48.882343" lon="2.454153"><ele>98.6</ele></trkpt>
      <trkpt lat="48.882314" lon="2.454068"><ele>99.1</ele></trkpt>
      <trkpt lat="48.882283" lon="2.453959"><ele>99.6</ele></trkpt>
      <trkpt lat="48.882252" lon="2.453850"><ele>100.0</ele></trkpt>
      <trkpt lat="48.882221" lon="2.453741"><ele>100.3</ele></trkpt>
      <trkpt lat="48.882190" lon="2.453632"><ele>100.6</ele></trkpt>
      <trkpt lat="48.882159" lon="2.453523"><ele>100.9</ele></trkpt>
      <trkpt lat="48.882130" lon="2.453426"><ele>101.2</ele></trkpt>
      <trkpt lat="48.882100" lon="2.453328"><ele>101.5</ele></trkpt>
      <trkpt lat="48.882071" lon="2.453250"><ele>101.8</ele></trkpt>
      <trkpt lat="48.882041" lon="2.453172"><ele>102.0</ele></trkpt>
      <trkpt lat="48.882005" lon="2.453101"><ele>102.2</ele></trkpt>
      <trkpt lat="48.881969" lon="2.453030"><ele>102.3</ele></trkpt>
      <trkpt lat="48.881933" lon="2.452981"><ele>102.3</ele></trkpt>
      <trkpt lat="48.881898" lon="2.452932"><ele>102.3</ele></trkpt>
      <trkpt lat="48.881851" lon="2.452879"><ele>102.3</ele></trkpt>
      <trkpt lat="48.881805" lon="2.452825"><ele>102.3</ele></trkpt>
      <trkpt lat="48.881741" lon="2.452760"><ele>102.3</ele></trkpt>
      <trkpt lat="48.881677" lon="2.452695"><ele>102.4</ele></trkpt>
      <trkpt lat="48.881613" lon="2.452630"><ele>102.5</ele></trkpt>
      <trkpt lat="48.881550" lon="2.452565"><ele>102.7</ele></trkpt>
      <trkpt lat="48.881499" lon="2.452501"><ele>102.9</ele></trkpt>
      <trkpt lat="48.881449" lon="2.452437"><ele>103.2</ele></trkpt>
      <trkpt lat="48.881403" lon="2.452356"><ele>103.3</ele></trkpt>
      <trkpt lat="48.881357" lon="2.452275"><ele>103.5</ele></trkpt>
      <trkpt lat="48.881335" lon="2.452229"><ele>103.5</ele></trkpt>
      <trkpt lat="48.881298" lon="2.452152"><ele>104.2</ele></trkpt>
      <trkpt lat="48.881264" lon="2.452046"><ele>104.6</ele></trkpt>
      <trkpt lat="48.881229" lon="2.451940"><ele>105.1</ele></trkpt>
      <trkpt lat="48.881201" lon="2.451866"><ele>105.4</ele></trkpt>
      <trkpt lat="48.881173" lon="2.451792"><ele>105.6</ele></trkpt>
      <trkpt lat="48.881192" lon="2.451747"><ele>106.0</ele></trkpt>
      <trkpt lat="48.881160" lon="2.451628"><ele>106.4</ele></trkpt>
      <trkpt lat="48.881128" lon="2.451509"><ele>106.7</ele></trkpt>
      <trkpt lat="48.881095" lon="2.451389"><ele>107.0</ele></trkpt>
      <trkpt lat="48.881063" lon="2.451270"><ele>107.4</ele></trkpt>
      <trkpt lat="48.881031" lon="2.451151"><ele>108.0</ele></trkpt>
      <trkpt lat="48.880998" lon="2.451032"><ele>108.6</ele></trkpt>
      <trkpt lat="48.880966" lon="2.450913"><ele>109.1</ele></trkpt>
      <trkpt lat="48.880934" lon="2.450794"><ele>109.4</ele></trkpt>
      <trkpt lat="48.880902" lon="2.450674"><ele>109.7</ele></trkpt>
      <trkpt lat="48.880869" lon="2.450555"><ele>110.0</ele></trkpt>
      <trkpt lat="48.880837" lon="2.450436"><ele>110.3</ele></trkpt>
      <trkpt lat="48.880806" lon="2.450341"><ele>110.5</ele></trkpt>
      <trkpt lat="48.880775" lon="2.450247"><ele>110.7</ele></trkpt>
      <trkpt lat="48.880727" lon="2.450155"><ele>110.9</ele></trkpt>
      <trkpt lat="48.880679" lon="2.450064"><ele>111.1</ele></trkpt>
      <trkpt lat="48.880614" lon="2.449994"><ele>111.2</ele></trkpt>
      <trkpt lat="48.880550" lon="2.449925"><ele>111.2</ele></trkpt>
      <trkpt lat="48.880492" lon="2.449892"><ele>111.2</ele></trkpt>
      <trkpt lat="48.880433" lon="2.449859"><ele>111.2</ele></trkpt>
      <trkpt lat="48.880375" lon="2.449826"><ele>111.2</ele></trkpt>
      <trkpt lat="48.880308" lon="2.449826"><ele>111.4</ele></trkpt>
      <trkpt lat="48.880241" lon="2.449826"><ele>111.4</ele></trkpt>
      <trkpt lat="48.880192" lon="2.449803"><ele>111.7</ele></trkpt>
      <trkpt lat="48.880144" lon="2.449780"><ele>111.8</ele></trkpt>
      <trkpt lat="48.880089" lon="2.449755"><ele>112.2</ele></trkpt>
      <trkpt lat="48.880046" lon="2.449710"><ele>112.4</ele></trkpt>
      <trkpt lat="48.880003" lon="2.449666"><ele>112.7</ele></trkpt>
      <trkpt lat="48.879959" lon="2.449614"><ele>113.0</ele></trkpt>
      <trkpt lat="48.879916" lon="2.449563"><ele>113.3</ele></trkpt>
      <trkpt lat="48.879885" lon="2.449496"><ele>113.7</ele></trkpt>
      <trkpt lat="48.879854" lon="2.449429"><ele>114.1</ele></trkpt>
      <trkpt lat="48.879815" lon="2.449314"><ele>114.6</ele></trkpt>
      <trkpt lat="48.879777" lon="2.449200"><ele>115.1</ele></trkpt>
      <trkpt lat="48.879738" lon="2.449085"><ele>115.5</ele></trkpt>
      <trkpt lat="48.879699" lon="2.448970"><ele>115.8</ele></trkpt>
      <trkpt lat="48.879660" lon="2.448855"><ele>116.1</ele></trkpt>
      <trkpt lat="48.879621" lon="2.448740"><ele>116.2</ele></trkpt>
      <trkpt lat="48.879620" lon="2.448736"><ele>116.3</ele></trkpt>
      <trkpt lat="48.879579" lon="2.448630"><ele>116.4</ele></trkpt>
      <trkpt lat="48.879511" lon="2.448696"><ele>116.1</ele></trkpt>
      <trkpt lat="48.879442" lon="2.448763"><ele>115.9</ele></trkpt>
      <trkpt lat="48.879374" lon="2.448829"><ele>115.6</ele></trkpt>
      <trkpt lat="48.879306" lon="2.448896"><ele>115.4</ele></trkpt>
      <trkpt lat="48.879238" lon="2.448962"><ele>115.2</ele></trkpt>
      <trkpt lat="48.879170" lon="2.449029"><ele>114.9</ele></trkpt>
      <trkpt lat="48.879167" lon="2.449032"><ele>114.8</ele></trkpt>
      <trkpt lat="48.879123" lon="2.449070"><ele>114.8</ele></trkpt>
      <trkpt lat="48.879079" lon="2.449109"><ele>114.7</ele></trkpt>
      <trkpt lat="48.879013" lon="2.449159"><ele>114.7</ele></trkpt>
      <trkpt lat="48.878958" lon="2.449204"><ele>114.8</ele></trkpt>
      <trkpt lat="48.878903" lon="2.449249"><ele>114.9</ele></trkpt>
      <trkpt lat="48.878848" lon="2.449294"><ele>115.0</ele></trkpt>
      <trkpt lat="48.878846" lon="2.449296"><ele>115.2</ele></trkpt>
      <trkpt lat="48.878790" lon="2.449334"><ele>115.3</ele></trkpt>
      <trkpt lat="48.878734" lon="2.449372"><ele>115.4</ele></trkpt>
      <trkpt lat="48.878708" lon="2.449339"><ele>115.6</ele></trkpt>
      <trkpt lat="48.878675" lon="2.449327"><ele>115.7</ele></trkpt>
      <trkpt lat="48.878643" lon="2.449338"><ele>115.7</ele></trkpt>
      <trkpt lat="48.878617" lon="2.449370"><ele>115.8</ele></trkpt>
      <trkpt lat="48.878603" lon="2.449417"><ele>115.9</ele></trkpt>
      <trkpt lat="48.878521" lon="2.449400"><ele>116.3</ele></trkpt>
      <trkpt lat="48.878520" lon="2.449400"><ele>116.4</ele></trkpt>
      <trkpt lat="48.878445" lon="2.449395"><ele>116.5</ele></trkpt>
      <trkpt lat="48.878370" lon="2.449389"><ele>116.6</ele></trkpt>
      <trkpt lat="48.878296" lon="2.449384"><ele>116.8</ele></trkpt>
      <trkpt lat="48.878221" lon="2.449379"><ele>116.9</ele></trkpt>
      <trkpt lat="48.878170" lon="2.449378"><ele>117.0</ele></trkpt>
      <trkpt lat="48.878119" lon="2.449377"><ele>117.1</ele></trkpt>
      <trkpt lat="48.878061" lon="2.449348"><ele>117.2</ele></trkpt>
      <trkpt lat="48.878027" lon="2.449331"><ele>117.2</ele></trkpt>
      <trkpt lat="48.877956" lon="2.449327"><ele>117.2</ele></trkpt>
      <trkpt lat="48.877884" lon="2.449323"><ele>117.3</ele></trkpt>
      <trkpt lat="48.877879" lon="2.449323"><ele>117.3</ele></trkpt>
      <trkpt lat="48.877875" lon="2.449323"><ele>117.3</ele></trkpt>
      <trkpt lat="48.877806" lon="2.449319"><ele>117.3</ele></trkpt>
      <trkpt lat="48.877738" lon="2.449315"><ele>117.3</ele></trkpt>
      <trkpt lat="48.877661" lon="2.449315"><ele>117.4</ele></trkpt>
      <trkpt lat="48.877584" lon="2.449316"><ele>117.4</ele></trkpt>
      <trkpt lat="48.877507" lon="2.449316"><ele>117.4</ele></trkpt>
      <trkpt lat="48.877430" lon="2.449316"><ele>117.5</ele></trkpt>
      <trkpt lat="48.877353" lon="2.449317"><ele>117.5</ele></trkpt>
      <trkpt lat="48.877276" lon="2.449317"><ele>117.5</ele></trkpt>
      <trkpt lat="48.877206" lon="2.449314"><ele>117.4</ele></trkpt>
      <trkpt lat="48.877137" lon="2.449311"><ele>117.4</ele></trkpt>
      <trkpt lat="48.877067" lon="2.449308"><ele>117.3</ele></trkpt>
      <trkpt lat="48.877066" lon="2.449308"><ele>117.3</ele></trkpt>
      <trkpt lat="48.877052" lon="2.449308"><ele>117.2</ele></trkpt>
      <trkpt lat="48.876998" lon="2.449320"><ele>117.2</ele></trkpt>
      <trkpt lat="48.876944" lon="2.449333"><ele>117.2</ele></trkpt>
      <trkpt lat="48.876863" lon="2.449325"><ele>117.1</ele></trkpt>
      <trkpt lat="48.876840" lon="2.449323"><ele>117.0</ele></trkpt>
      <trkpt lat="48.876768" lon="2.449301"><ele>116.8</ele></trkpt>
      <trkpt lat="48.876722" lon="2.449284"><ele>116.8</ele></trkpt>
      <trkpt lat="48.876716" lon="2.449281"><ele>116.7</ele></trkpt>
      <trkpt lat="48.876641" lon="2.449246"><ele>116.5</ele></trkpt>
      <trkpt lat="48.876566" lon="2.449211"><ele>116.4</ele></trkpt>
      <trkpt lat="48.876492" lon="2.449177"><ele>116.3</ele></trkpt>
      <trkpt lat="48.876412" lon="2.449127"><ele>116.3</ele></trkpt>
      <trkpt lat="48.876339" lon="2.449074"><ele>116.2</ele></trkpt>
      <trkpt lat="48.876333" lon="2.449070"><ele>116.2</ele></trkpt>
      <trkpt lat="48.876271" lon="2.449026"><ele>116.0</ele></trkpt>
      <trkpt lat="48.876210" lon="2.448983"><ele>116.0</ele></trkpt>
      <trkpt lat="48.876208" lon="2.448981"><ele>116.0</ele></trkpt>
      <trkpt lat="48.876135" lon="2.448929"><ele>115.8</ele></trkpt>
      <trkpt lat="48.876078" lon="2.448881"><ele>115.6</ele></trkpt>
      <trkpt lat="48.876020" lon="2.448832"><ele>115.5</ele></trkpt>
      <trkpt lat="48.875969" lon="2.448792"><ele>115.3</ele></trkpt>
      <trkpt lat="48.875969" lon="2.448792"><ele>115.2</ele></trkpt>
      <trkpt lat="48.875892" lon="2.448733"><ele>115.0</ele></trkpt>
      <trkpt lat="48.875815" lon="2.448674"><ele>114.7</ele></trkpt>
      <trkpt lat="48.875738" lon="2.448615"><ele>114.5</ele></trkpt>
      <trkpt lat="48.875661" lon="2.448556"><ele>114.3</ele></trkpt>
      <trkpt lat="48.875584" lon="2.448497"><ele>114.1</ele></trkpt>
      <trkpt lat="48.875507" lon="2.448438"><ele>113.9</ele></trkpt>
      <trkpt lat="48.875430" lon="2.448379"><ele>113.8</ele></trkpt>
      <trkpt lat="48.875353" lon="2.448320"><ele>113.7</ele></trkpt>
      <trkpt lat="48.875276" lon="2.448261"><ele>113.7</ele></trkpt>
      <trkpt lat="48.875200" lon="2.448202"><ele>113.7</ele></trkpt>
      <trkpt lat="48.875123" lon="2.448143"><ele>113.7</ele></trkpt>
      <trkpt lat="48.875046" lon="2.448085"><ele>113.6</ele></trkpt>
      <trkpt lat="48.874969" lon="2.448026"><ele>113.5</ele></trkpt>
      <trkpt lat="48.874892" lon="2.447967"><ele>113.4</ele></trkpt>
      <trkpt lat="48.874815" lon="2.447908"><ele>113.3</ele></trkpt>
      <trkpt lat="48.874738" lon="2.447849"><ele>113.1</ele></trkpt>
      <trkpt lat="48.874702" lon="2.447821"><ele>113.1</ele></trkpt>
      <trkpt lat="48.874701" lon="2.447820"><ele>112.9</ele></trkpt>
      <trkpt lat="48.874649" lon="2.447782"><ele>112.9</ele></trkpt>
      <trkpt lat="48.874597" lon="2.447744"><ele>112.8</ele></trkpt>
      <trkpt lat="48.874544" lon="2.447708"><ele>112.6</ele></trkpt>
      <trkpt lat="48.874498" lon="2.447593"><ele>112.5</ele></trkpt>
      <trkpt lat="48.874451" lon="2.447477"><ele>112.4</ele></trkpt>
      <trkpt lat="48.874404" lon="2.447362"><ele>112.3</ele></trkpt>
      <trkpt lat="48.874384" lon="2.447297"><ele>112.2</ele></trkpt>
      <trkpt lat="48.874364" lon="2.447231"><ele>112.1</ele></trkpt>
      <trkpt lat="48.874326" lon="2.447109"><ele>111.9</ele></trkpt>
      <trkpt lat="48.874288" lon="2.446986"><ele>111.7</ele></trkpt>
      <trkpt lat="48.874250" lon="2.446863"><ele>111.5</ele></trkpt>
      <trkpt lat="48.874212" lon="2.446740"><ele>111.2</ele></trkpt>
      <trkpt lat="48.874173" lon="2.446617"><ele>110.9</ele></trkpt>
      <trkpt lat="48.874135" lon="2.446494"><ele>110.7</ele></trkpt>
      <trkpt lat="48.874097" lon="2.446371"><ele>110.5</ele></trkpt>
      <trkpt lat="48.874059" lon="2.446248"><ele>110.3</ele></trkpt>
      <trkpt lat="48.874021" lon="2.446125"><ele>110.3</ele></trkpt>
      <trkpt lat="48.873986" lon="2.446024"><ele>110.3</ele></trkpt>
      <trkpt lat="48.873951" lon="2.445924"><ele>110.3</ele></trkpt>
      <trkpt lat="48.873915" lon="2.445823"><ele>110.4</ele></trkpt>
      <trkpt lat="48.873887" lon="2.445750"><ele>110.5</ele></trkpt>
      <trkpt lat="48.873859" lon="2.445678"><ele>110.5</ele></trkpt>
      <trkpt lat="48.873817" lon="2.445626"><ele>110.6</ele></trkpt>
      <trkpt lat="48.873775" lon="2.445575"><ele>110.6</ele></trkpt>
      <trkpt lat="48.873737" lon="2.445554"><ele>110.7</ele></trkpt>
      <trkpt lat="48.873712" lon="2.445540"><ele>110.7</ele></trkpt>
      <trkpt lat="48.873635" lon="2.445526"><ele>110.6</ele></trkpt>
      <trkpt lat="48.873558" lon="2.445513"><ele>110.6</ele></trkpt>
      <trkpt lat="48.873481" lon="2.445500"><ele>110.5</ele></trkpt>
      <trkpt lat="48.873404" lon="2.445486"><ele>110.4</ele></trkpt>
      <trkpt lat="48.873321" lon="2.445515"><ele>110.3</ele></trkpt>
      <trkpt lat="48.873260" lon="2.445558"><ele>110.2</ele></trkpt>
      <trkpt lat="48.873227" lon="2.445590"><ele>109.9</ele></trkpt>
      <trkpt lat="48.873184" lon="2.445647"><ele>109.7</ele></trkpt>
      <trkpt lat="48.873140" lon="2.445704"><ele>109.6</ele></trkpt>
      <trkpt lat="48.873087" lon="2.445789"><ele>109.5</ele></trkpt>
      <trkpt lat="48.873027" lon="2.445883"><ele>109.2</ele></trkpt>
      <trkpt lat="48.872966" lon="2.445978"><ele>109.0</ele></trkpt>
      <trkpt lat="48.872930" lon="2.446054"><ele>108.8</ele></trkpt>
      <trkpt lat="48.872893" lon="2.446131"><ele>108.6</ele></trkpt>
      <trkpt lat="48.872856" lon="2.446207"><ele>108.5</ele></trkpt>
      <trkpt lat="48.872820" lon="2.446283"><ele>108.2</ele></trkpt>
      <trkpt lat="48.872783" lon="2.446358"><ele>108.0</ele></trkpt>
      <trkpt lat="48.872747" lon="2.446434"><ele>107.8</ele></trkpt>
      <trkpt lat="48.872719" lon="2.446493"><ele>107.6</ele></trkpt>
      <trkpt lat="48.872690" lon="2.446552"><ele>107.3</ele></trkpt>
      <trkpt lat="48.872640" lon="2.446621"><ele>107.0</ele></trkpt>
      <trkpt lat="48.872567" lon="2.446691"><ele>106.7</ele></trkpt>
      <trkpt lat="48.872496" lon="2.446752"><ele>106.4</ele></trkpt>
      <trkpt lat="48.872408" lon="2.446753"><ele>105.7</ele></trkpt>
      <trkpt lat="48.872321" lon="2.446753"><ele>105.4</ele></trkpt>
      <trkpt lat="48.872233" lon="2.446754"><ele>105.0</ele></trkpt>
      <trkpt lat="48.872145" lon="2.446754"><ele>104.6</ele></trkpt>
      <trkpt lat="48.872057" lon="2.446755"><ele>104.2</ele></trkpt>
      <trkpt lat="48.871970" lon="2.446755"><ele>103.8</ele></trkpt>
      <trkpt lat="48.871882" lon="2.446756"><ele>103.4</ele></trkpt>
      <trkpt lat="48.871794" lon="2.446756"><ele>103.1</ele></trkpt>
      <trkpt lat="48.871707" lon="2.446757"><ele>102.7</ele></trkpt>
      <trkpt lat="48.871619" lon="2.446758"><ele>102.4</ele></trkpt>
      <trkpt lat="48.871531" lon="2.446758"><ele>102.0</ele></trkpt>
      <trkpt lat="48.871444" lon="2.446759"><ele>101.6</ele></trkpt>
      <trkpt lat="48.871356" lon="2.446759"><ele>101.2</ele></trkpt>
      <trkpt lat="48.871268" lon="2.446760"><ele>100.8</ele></trkpt>
      <trkpt lat="48.871181" lon="2.446760"><ele>100.5</ele></trkpt>
      <trkpt lat="48.871093" lon="2.446761"><ele>100.3</ele></trkpt>
      <trkpt lat="48.871005" lon="2.446762"><ele>100.1</ele></trkpt>
      <trkpt lat="48.870917" lon="2.446762"><ele>99.8</ele></trkpt>
      <trkpt lat="48.870830" lon="2.446763"><ele>99.5</ele></trkpt>
      <trkpt lat="48.870742" lon="2.446763"><ele>99.2</ele></trkpt>
      <trkpt lat="48.870654" lon="2.446764"><ele>98.8</ele></trkpt>
      <trkpt lat="48.870567" lon="2.446764"><ele>98.5</ele></trkpt>
      <trkpt lat="48.870479" lon="2.446765"><ele>98.2</ele></trkpt>
      <trkpt lat="48.870391" lon="2.446765"><ele>97.9</ele></trkpt>
      <trkpt lat="48.870303" lon="2.446766"><ele>97.6</ele></trkpt>
      <trkpt lat="48.870216" lon="2.446767"><ele>97.3</ele></trkpt>
      <trkpt lat="48.870128" lon="2.446767"><ele>97.0</ele></trkpt>
      <trkpt lat="48.870040" lon="2.446768"><ele>96.7</ele></trkpt>
      <trkpt lat="48.869953" lon="2.446768"><ele>96.5</ele></trkpt>
      <trkpt lat="48.869865" lon="2.446769"><ele>96.3</ele></trkpt>
      <trkpt lat="48.869777" lon="2.446769"><ele>96.1</ele></trkpt>
      <trkpt lat="48.869777" lon="2.446769"><ele>96.1</ele></trkpt>
      <trkpt lat="48.869698" lon="2.446770"><ele>95.9</ele></trkpt>
      <trkpt lat="48.869623" lon="2.446771"><ele>95.8</ele></trkpt>
      <trkpt lat="48.869623" lon="2.446771"><ele>95.8</ele></trkpt>
      <trkpt lat="48.869534" lon="2.446774"><ele>95.6</ele></trkpt>
      <trkpt lat="48.869446" lon="2.446777"><ele>95.5</ele></trkpt>
      <trkpt lat="48.869357" lon="2.446779"><ele>95.3</ele></trkpt>
      <trkpt lat="48.869268" lon="2.446782"><ele>95.1</ele></trkpt>
      <trkpt lat="48.869180" lon="2.446785"><ele>94.7</ele></trkpt>
      <trkpt lat="48.869091" lon="2.446788"><ele>94.4</ele></trkpt>
      <trkpt lat="48.869002" lon="2.446790"><ele>93.9</ele></trkpt>
      <trkpt lat="48.868914" lon="2.446793"><ele>93.5</ele></trkpt>
      <trkpt lat="48.868825" lon="2.446796"><ele>93.0</ele></trkpt>
      <trkpt lat="48.868737" lon="2.446799"><ele>92.4</ele></trkpt>
      <trkpt lat="48.868648" lon="2.446801"><ele>91.8</ele></trkpt>
      <trkpt lat="48.868559" lon="2.446804"><ele>91.3</ele></trkpt>
      <trkpt lat="48.868471" lon="2.446807"><ele>90.8</ele></trkpt>
      <trkpt lat="48.868396" lon="2.446809"><ele>90.5</ele></trkpt>
      <trkpt lat="48.868350" lon="2.446810"><ele>90.3</ele></trkpt>
      <trkpt lat="48.868303" lon="2.446812"><ele>90.2</ele></trkpt>
      <trkpt lat="48.868302" lon="2.446812"><ele>90.1</ele></trkpt>
      <trkpt lat="48.868253" lon="2.446826"><ele>90.0</ele></trkpt>
      <trkpt lat="48.868230" lon="2.446826"><ele>89.9</ele></trkpt>
      <trkpt lat="48.868229" lon="2.446826"><ele>89.9</ele></trkpt>
      <trkpt lat="48.868162" lon="2.446807"><ele>89.7</ele></trkpt>
      <trkpt lat="48.868108" lon="2.446728"><ele>89.7</ele></trkpt>
      <trkpt lat="48.868053" lon="2.446650"><ele>89.7</ele></trkpt>
      <trkpt lat="48.868048" lon="2.446642"><ele>89.7</ele></trkpt>
      <trkpt lat="48.868033" lon="2.446623"><ele>89.7</ele></trkpt>
      <trkpt lat="48.868027" lon="2.446615"><ele>89.7</ele></trkpt>
      <trkpt lat="48.867999" lon="2.446585"><ele>89.7</ele></trkpt>
      <trkpt lat="48.867959" lon="2.446541"><ele>89.6</ele></trkpt>
      <trkpt lat="48.867919" lon="2.446496"><ele>89.6</ele></trkpt>
      <trkpt lat="48.867849" lon="2.446418"><ele>89.5</ele></trkpt>
      <trkpt lat="48.867779" lon="2.446339"><ele>89.4</ele></trkpt>
      <trkpt lat="48.867710" lon="2.446260"><ele>89.3</ele></trkpt>
      <trkpt lat="48.867640" lon="2.446181"><ele>89.3</ele></trkpt>
      <trkpt lat="48.867570" lon="2.446102"><ele>89.2</ele></trkpt>
      <trkpt lat="48.867500" lon="2.446024"><ele>89.2</ele></trkpt>
      <trkpt lat="48.867431" lon="2.445945"><ele>89.2</ele></trkpt>
      <trkpt lat="48.867361" lon="2.445866"><ele>89.2</ele></trkpt>
      <trkpt lat="48.867291" lon="2.445787"><ele>89.3</ele></trkpt>
      <trkpt lat="48.867222" lon="2.445708"><ele>89.4</ele></trkpt>
      <trkpt lat="48.867152" lon="2.445630"><ele>89.6</ele></trkpt>
      <trkpt lat="48.867082" lon="2.445551"><ele>89.8</ele></trkpt>
      <trkpt lat="48.867011" lon="2.445472"><ele>90.0</ele></trkpt>
      <trkpt lat="48.866941" lon="2.445392"><ele>90.2</ele></trkpt>
      <trkpt lat="48.866870" lon="2.445313"><ele>90.4</ele></trkpt>
      <trkpt lat="48.866799" lon="2.445234"><ele>90.5</ele></trkpt>
      <trkpt lat="48.866776" lon="2.445208"><ele>90.5</ele></trkpt>
      <trkpt lat="48.866776" lon="2.445207"><ele>90.6</ele></trkpt>
      <trkpt lat="48.866721" lon="2.445146"><ele>90.6</ele></trkpt>
      <trkpt lat="48.866667" lon="2.445088"><ele>90.6</ele></trkpt>
      <trkpt lat="48.866667" lon="2.445088"><ele>90.5</ele></trkpt>
      <trkpt lat="48.866645" lon="2.445063"><ele>90.5</ele></trkpt>
      <trkpt lat="48.866577" lon="2.444986"><ele>90.4</ele></trkpt>
      <trkpt lat="48.866509" lon="2.444909"><ele>90.4</ele></trkpt>
      <trkpt lat="48.866442" lon="2.444832"><ele>90.3</ele></trkpt>
      <trkpt lat="48.866374" lon="2.444755"><ele>90.2</ele></trkpt>
      <trkpt lat="48.866306" lon="2.444678"><ele>90.1</ele></trkpt>
      <trkpt lat="48.866238" lon="2.444601"><ele>89.9</ele></trkpt>
      <trkpt lat="48.866170" lon="2.444524"><ele>89.6</ele></trkpt>
      <trkpt lat="48.866102" lon="2.444446"><ele>89.3</ele></trkpt>
      <trkpt lat="48.866034" lon="2.444369"><ele>89.0</ele></trkpt>
      <trkpt lat="48.865966" lon="2.444292"><ele>88.6</ele></trkpt>
      <trkpt lat="48.865899" lon="2.444215"><ele>88.2</ele></trkpt>
      <trkpt lat="48.865831" lon="2.444138"><ele>87.8</ele></trkpt>
      <trkpt lat="48.865763" lon="2.444061"><ele>87.4</ele></trkpt>
      <trkpt lat="48.865696" lon="2.443986"><ele>87.0</ele></trkpt>
      <trkpt lat="48.865629" lon="2.443911"><ele>86.5</ele></trkpt>
      <trkpt lat="48.865562" lon="2.443836"><ele>86.2</ele></trkpt>
      <trkpt lat="48.865559" lon="2.443832"><ele>86.0</ele></trkpt>
      <trkpt lat="48.865511" lon="2.443778"><ele>85.7</ele></trkpt>
      <trkpt lat="48.865473" lon="2.443735"><ele>85.6</ele></trkpt>
      <trkpt lat="48.865469" lon="2.443730"><ele>85.5</ele></trkpt>
      <trkpt lat="48.865433" lon="2.443679"><ele>85.1</ele></trkpt>
      <trkpt lat="48.865397" lon="2.443627"><ele>85.1</ele></trkpt>
      <trkpt lat="48.865361" lon="2.443665"><ele>84.7</ele></trkpt>
      <trkpt lat="48.865318" lon="2.443683"><ele>84.5</ele></trkpt>
      <trkpt lat="48.865273" lon="2.443679"><ele>84.3</ele></trkpt>
      <trkpt lat="48.865232" lon="2.443653"><ele>84.2</ele></trkpt>
      <trkpt lat="48.865199" lon="2.443608"><ele>84.1</ele></trkpt>
      <trkpt lat="48.865181" lon="2.443563"><ele>83.9</ele></trkpt>
      <trkpt lat="48.865104" lon="2.443619"><ele>83.6</ele></trkpt>
      <trkpt lat="48.865100" lon="2.443622"><ele>83.5</ele></trkpt>
      <trkpt lat="48.865065" lon="2.443643"><ele>83.3</ele></trkpt>
      <trkpt lat="48.865006" lon="2.443679"><ele>83.1</ele></trkpt>
      <trkpt lat="48.864948" lon="2.443716"><ele>82.9</ele></trkpt>
      <trkpt lat="48.864888" lon="2.443752"><ele>82.8</ele></trkpt>
      <trkpt lat="48.864878" lon="2.443758"><ele>82.6</ele></trkpt>
      <trkpt lat="48.864802" lon="2.443807"><ele>82.3</ele></trkpt>
      <trkpt lat="48.864726" lon="2.443855"><ele>81.9</ele></trkpt>
      <trkpt lat="48.864651" lon="2.443903"><ele>81.4</ele></trkpt>
      <trkpt lat="48.864575" lon="2.443951"><ele>81.0</ele></trkpt>
      <trkpt lat="48.864499" lon="2.443999"><ele>80.7</ele></trkpt>
      <trkpt lat="48.864477" lon="2.444013"><ele>80.2</ele></trkpt>
      <trkpt lat="48.864421" lon="2.444049"><ele>80.0</ele></trkpt>
      <trkpt lat="48.864365" lon="2.444084"><ele>79.8</ele></trkpt>
      <trkpt lat="48.864309" lon="2.444120"><ele>79.7</ele></trkpt>
      <trkpt lat="48.864280" lon="2.444138"><ele>79.4</ele></trkpt>
      <trkpt lat="48.864225" lon="2.444175"><ele>79.3</ele></trkpt>
      <trkpt lat="48.864170" lon="2.444213"><ele>79.1</ele></trkpt>
      <trkpt lat="48.864114" lon="2.444251"><ele>79.0</ele></trkpt>
      <trkpt lat="48.864107" lon="2.444254"><ele>78.9</ele></trkpt>
      <trkpt lat="48.864092" lon="2.444262"><ele>78.9</ele></trkpt>
      <trkpt lat="48.864083" lon="2.444266"><ele>78.9</ele></trkpt>
      <trkpt lat="48.864070" lon="2.444272"><ele>78.8</ele></trkpt>
      <trkpt lat="48.864045" lon="2.444282"><ele>78.8</ele></trkpt>
      <trkpt lat="48.864008" lon="2.444297"><ele>78.7</ele></trkpt>
      <trkpt lat="48.863975" lon="2.444307"><ele>78.6</ele></trkpt>
      <trkpt lat="48.863923" lon="2.444304"><ele>78.5</ele></trkpt>
      <trkpt lat="48.863872" lon="2.444296"><ele>78.4</ele></trkpt>
      <trkpt lat="48.863802" lon="2.444268"><ele>78.3</ele></trkpt>
      <trkpt lat="48.863777" lon="2.444141"><ele>78.0</ele></trkpt>
      <trkpt lat="48.863779" lon="2.444078"><ele>77.9</ele></trkpt>
      <trkpt lat="48.863784" lon="2.443951"><ele>77.9</ele></trkpt>
      <trkpt lat="48.863788" lon="2.443824"><ele>77.8</ele></trkpt>
      <trkpt lat="48.863793" lon="2.443698"><ele>77.8</ele></trkpt>
      <trkpt lat="48.863798" lon="2.443571"><ele>77.7</ele></trkpt>
      <trkpt lat="48.863802" lon="2.443444"><ele>77.7</ele></trkpt>
      <trkpt lat="48.863807" lon="2.443317"><ele>77.7</ele></trkpt>
      <trkpt lat="48.863811" lon="2.443190"><ele>77.7</ele></trkpt>
      <trkpt lat="48.863816" lon="2.443063"><ele>77.7</ele></trkpt>
      <trkpt lat="48.863820" lon="2.442936"><ele>77.8</ele></trkpt>
      <trkpt lat="48.863825" lon="2.442810"><ele>77.8</ele></trkpt>
      <trkpt lat="48.863829" lon="2.442683"><ele>77.8</ele></trkpt>
      <trkpt lat="48.863811" lon="2.442677"><ele>77.8</ele></trkpt>
      <trkpt lat="48.863811" lon="2.442677"><ele>77.8</ele></trkpt>
      <trkpt lat="48.863736" lon="2.442654"><ele>77.3</ele></trkpt>
      <trkpt lat="48.863660" lon="2.442631"><ele>76.8</ele></trkpt>
      <trkpt lat="48.863571" lon="2.442606"><ele>76.4</ele></trkpt>
      <trkpt lat="48.863483" lon="2.442581"><ele>76.0</ele></trkpt>
      <trkpt lat="48.863395" lon="2.442556"><ele>75.7</ele></trkpt>
      <trkpt lat="48.863306" lon="2.442531"><ele>75.4</ele></trkpt>
      <trkpt lat="48.863218" lon="2.442506"><ele>75.1</ele></trkpt>
      <trkpt lat="48.863129" lon="2.442481"><ele>74.8</ele></trkpt>
      <trkpt lat="48.863041" lon="2.442456"><ele>74.4</ele></trkpt>
      <trkpt lat="48.862953" lon="2.442432"><ele>74.0</ele></trkpt>
      <trkpt lat="48.862864" lon="2.442407"><ele>73.7</ele></trkpt>
      <trkpt lat="48.862776" lon="2.442382"><ele>73.3</ele></trkpt>
      <trkpt lat="48.862688" lon="2.442357"><ele>73.0</ele></trkpt>
      <trkpt lat="48.862599" lon="2.442332"><ele>72.8</ele></trkpt>
      <trkpt lat="48.862599" lon="2.442332"><ele>72.6</ele></trkpt>
      <trkpt lat="48.862552" lon="2.442318"><ele>72.6</ele></trkpt>
      <trkpt lat="48.862561" lon="2.442253"><ele>72.5</ele></trkpt>
      <trkpt lat="48.862561" lon="2.442253"><ele>72.5</ele></trkpt>
      <trkpt lat="48.862575" lon="2.442153"><ele>72.4</ele></trkpt>
      <trkpt lat="48.862590" lon="2.442053"><ele>72.4</ele></trkpt>
      <trkpt lat="48.862605" lon="2.441953"><ele>72.4</ele></trkpt>
      <trkpt lat="48.862616" lon="2.441861"><ele>72.4</ele></trkpt>
      <trkpt lat="48.862627" lon="2.441770"><ele>72.4</ele></trkpt>
      <trkpt lat="48.862627" lon="2.441770"><ele>72.4</ele></trkpt>
      <trkpt lat="48.862637" lon="2.441695"><ele>72.5</ele></trkpt>
      <trkpt lat="48.862648" lon="2.441619"><ele>72.5</ele></trkpt>
      <trkpt lat="48.862577" lon="2.441599"><ele>72.3</ele></trkpt>
      <trkpt lat="48.862506" lon="2.441578"><ele>72.1</ele></trkpt>
      <trkpt lat="48.862435" lon="2.441557"><ele>72.0</ele></trkpt>
      <trkpt lat="48.862364" lon="2.441537"><ele>72.0</ele></trkpt>
      <trkpt lat="48.862293" lon="2.441516"><ele>71.9</ele></trkpt>
      <trkpt lat="48.862290" lon="2.441515"><ele>71.9</ele></trkpt>
      <trkpt lat="48.862214" lon="2.441495"><ele>72.1</ele></trkpt>
      <trkpt lat="48.862139" lon="2.441475"><ele>72.2</ele></trkpt>
      <trkpt lat="48.862096" lon="2.441446"><ele>72.3</ele></trkpt>
      <trkpt lat="48.862054" lon="2.441418"><ele>72.3</ele></trkpt>
      <trkpt lat="48.861997" lon="2.441346"><ele>72.5</ele></trkpt>
      <trkpt lat="48.861939" lon="2.441273"><ele>72.6</ele></trkpt>
      <trkpt lat="48.861882" lon="2.441200"><ele>72.7</ele></trkpt>
      <trkpt lat="48.861730" lon="2.441020"><ele>73.1</ele></trkpt>
      <trkpt lat="48.861713" lon="2.441001"><ele>73.2</ele></trkpt>
      <trkpt lat="48.861668" lon="2.440947"><ele>73.2</ele></trkpt>
      <trkpt lat="48.861623" lon="2.440893"><ele>73.3</ele></trkpt>
      <trkpt lat="48.861573" lon="2.440836"><ele>73.4</ele></trkpt>
      <trkpt lat="48.861506" lon="2.440756"><ele>73.6</ele></trkpt>
      <trkpt lat="48.861439" lon="2.440676"><ele>73.7</ele></trkpt>
      <trkpt lat="48.861372" lon="2.440596"><ele>73.9</ele></trkpt>
      <trkpt lat="48.861305" lon="2.440517"><ele>74.1</ele></trkpt>
      <trkpt lat="48.861238" lon="2.440437"><ele>74.3</ele></trkpt>
      <trkpt lat="48.861171" lon="2.440357"><ele>74.4</ele></trkpt>
      <trkpt lat="48.861104" lon="2.440277"><ele>74.6</ele></trkpt>
      <trkpt lat="48.861037" lon="2.440197"><ele>74.7</ele></trkpt>
      <trkpt lat="48.860970" lon="2.440118"><ele>74.8</ele></trkpt>
      <trkpt lat="48.860903" lon="2.440038"><ele>74.9</ele></trkpt>
      <trkpt lat="48.860837" lon="2.439962"><ele>74.9</ele></trkpt>
      <trkpt lat="48.860772" lon="2.439887"><ele>74.9</ele></trkpt>
      <trkpt lat="48.860707" lon="2.439811"><ele>74.9</ele></trkpt>
      <trkpt lat="48.860642" lon="2.439736"><ele>74.8</ele></trkpt>
      <trkpt lat="48.860641" lon="2.439735"><ele>74.8</ele></trkpt>
      <trkpt lat="48.860628" lon="2.439720"><ele>74.8</ele></trkpt>
      <trkpt lat="48.860590" lon="2.439647"><ele>74.7</ele></trkpt>
      <trkpt lat="48.860543" lon="2.439587"><ele>74.7</ele></trkpt>
      <trkpt lat="48.860495" lon="2.439527"><ele>74.7</ele></trkpt>
      <trkpt lat="48.860447" lon="2.439466"><ele>74.7</ele></trkpt>
      <trkpt lat="48.860400" lon="2.439409"><ele>74.8</ele></trkpt>
      <trkpt lat="48.860352" lon="2.439351"><ele>74.8</ele></trkpt>
      <trkpt lat="48.860285" lon="2.439312"><ele>74.8</ele></trkpt>
      <trkpt lat="48.860266" lon="2.439289"><ele>74.8</ele></trkpt>
      <trkpt lat="48.860266" lon="2.439289"><ele>74.9</ele></trkpt>
      <trkpt lat="48.860216" lon="2.439229"><ele>74.9</ele></trkpt>
      <trkpt lat="48.860167" lon="2.439169"><ele>75.0</ele></trkpt>
      <trkpt lat="48.860117" lon="2.439109"><ele>75.2</ele></trkpt>
      <trkpt lat="48.860062" lon="2.439043"><ele>75.3</ele></trkpt>
      <trkpt lat="48.860007" lon="2.438978"><ele>75.4</ele></trkpt>
      <trkpt lat="48.859951" lon="2.438912"><ele>75.5</ele></trkpt>
      <trkpt lat="48.859888" lon="2.438838"><ele>75.5</ele></trkpt>
      <trkpt lat="48.859818" lon="2.438755"><ele>75.3</ele></trkpt>
      <trkpt lat="48.859748" lon="2.438671"><ele>75.0</ele></trkpt>
      <trkpt lat="48.859678" lon="2.438588"><ele>74.6</ele></trkpt>
      <trkpt lat="48.859608" lon="2.438504"><ele>74.2</ele></trkpt>
      <trkpt lat="48.859538" lon="2.438421"><ele>73.9</ele></trkpt>
      <trkpt lat="48.859468" lon="2.438337"><ele>73.8</ele></trkpt>
      <trkpt lat="48.859466" lon="2.438335"><ele>73.7</ele></trkpt>
      <trkpt lat="48.859411" lon="2.438259"><ele>73.8</ele></trkpt>
      <trkpt lat="48.859363" lon="2.438150"><ele>73.8</ele></trkpt>
      <trkpt lat="48.859356" lon="2.438134"><ele>73.8</ele></trkpt>
      <trkpt lat="48.859289" lon="2.438055"><ele>73.8</ele></trkpt>
      <trkpt lat="48.859221" lon="2.437976"><ele>73.8</ele></trkpt>
      <trkpt lat="48.859154" lon="2.437897"><ele>73.8</ele></trkpt>
      <trkpt lat="48.859087" lon="2.437819"><ele>73.8</ele></trkpt>
      <trkpt lat="48.859020" lon="2.437740"><ele>73.7</ele></trkpt>
      <trkpt lat="48.858952" lon="2.437661"><ele>73.7</ele></trkpt>
      <trkpt lat="48.858885" lon="2.437583"><ele>73.5</ele></trkpt>
      <trkpt lat="48.858818" lon="2.437504"><ele>73.3</ele></trkpt>
      <trkpt lat="48.858750" lon="2.437425"><ele>73.1</ele></trkpt>
      <trkpt lat="48.858683" lon="2.437347"><ele>72.8</ele></trkpt>
      <trkpt lat="48.858616" lon="2.437268"><ele>72.4</ele></trkpt>
      <trkpt lat="48.858548" lon="2.437189"><ele>72.2</ele></trkpt>
      <trkpt lat="48.858499" lon="2.437132"><ele>71.9</ele></trkpt>
      <trkpt lat="48.858449" lon="2.437076"><ele>71.7</ele></trkpt>
      <trkpt lat="48.858400" lon="2.437019"><ele>71.6</ele></trkpt>
      <trkpt lat="48.858384" lon="2.437001"><ele>71.5</ele></trkpt>
      <trkpt lat="48.858378" lon="2.436994"><ele>71.5</ele></trkpt>
      <trkpt lat="48.858371" lon="2.436987"><ele>71.4</ele></trkpt>
      <trkpt lat="48.858345" lon="2.436956"><ele>71.4</ele></trkpt>
      <trkpt lat="48.858297" lon="2.436944"><ele>71.4</ele></trkpt>
      <trkpt lat="48.858249" lon="2.436933"><ele>71.3</ele></trkpt>
      <trkpt lat="48.858227" lon="2.436928"><ele>71.1</ele></trkpt>
      <trkpt lat="48.858199" lon="2.436929"><ele>71.1</ele></trkpt>
      <trkpt lat="48.858189" lon="2.436820"><ele>71.1</ele></trkpt>
      <trkpt lat="48.858186" lon="2.436762"><ele>71.1</ele></trkpt>
      <trkpt lat="48.858186" lon="2.436762"><ele>71.2</ele></trkpt>
      <trkpt lat="48.858176" lon="2.436672"><ele>71.2</ele></trkpt>
      <trkpt lat="48.858173" lon="2.436636"><ele>71.2</ele></trkpt>
      <trkpt lat="48.858164" lon="2.436566"><ele>71.2</ele></trkpt>
      <trkpt lat="48.858164" lon="2.436566"><ele>71.3</ele></trkpt>
      <trkpt lat="48.858159" lon="2.436522"><ele>71.3</ele></trkpt>
      <trkpt lat="48.858154" lon="2.436447"><ele>71.3</ele></trkpt>
      <trkpt lat="48.858151" lon="2.436354"><ele>71.4</ele></trkpt>
      <trkpt lat="48.858138" lon="2.436284"><ele>71.5</ele></trkpt>
      <trkpt lat="48.858138" lon="2.436283"><ele>71.5</ele></trkpt>
      <trkpt lat="48.858135" lon="2.436264"><ele>71.5</ele></trkpt>
      <trkpt lat="48.858135" lon="2.436264"><ele>71.6</ele></trkpt>
      <trkpt lat="48.858119" lon="2.436154"><ele>71.7</ele></trkpt>
      <trkpt lat="48.858103" lon="2.436043"><ele>71.8</ele></trkpt>
      <trkpt lat="48.858087" lon="2.435933"><ele>71.8</ele></trkpt>
      <trkpt lat="48.858072" lon="2.435822"><ele>71.9</ele></trkpt>
      <trkpt lat="48.858072" lon="2.435822"><ele>71.9</ele></trkpt>
      <trkpt lat="48.858070" lon="2.435805"><ele>71.9</ele></trkpt>
      <trkpt lat="48.858054" lon="2.435700"><ele>71.9</ele></trkpt>
      <trkpt lat="48.858086" lon="2.435676"><ele>71.9</ele></trkpt>
      <trkpt lat="48.858097" lon="2.435672"><ele>72.0</ele></trkpt>
      <trkpt lat="48.858135" lon="2.435649"><ele>72.0</ele></trkpt>
      <trkpt lat="48.858165" lon="2.435620"><ele>72.0</ele></trkpt>
      <trkpt lat="48.858171" lon="2.435609"><ele>72.1</ele></trkpt>
      <trkpt lat="48.858189" lon="2.435580"><ele>72.1</ele></trkpt>
      <trkpt lat="48.858201" lon="2.435520"><ele>72.1</ele></trkpt>
      <trkpt lat="48.858214" lon="2.435451"><ele>72.2</ele></trkpt>
      <trkpt lat="48.858227" lon="2.435382"><ele>72.2</ele></trkpt>
      <trkpt lat="48.858239" lon="2.435283"><ele>72.3</ele></trkpt>
      <trkpt lat="48.858252" lon="2.435183"><ele>72.3</ele></trkpt>
      <trkpt lat="48.858264" lon="2.435083"><ele>72.3</ele></trkpt>
      <trkpt lat="48.858277" lon="2.434964"><ele>72.6</ele></trkpt>
      <trkpt lat="48.858290" lon="2.434846"><ele>72.7</ele></trkpt>
      <trkpt lat="48.858290" lon="2.434846"><ele>72.8</ele></trkpt>
      <trkpt lat="48.858306" lon="2.434711"><ele>73.2</ele></trkpt>
      <trkpt lat="48.858321" lon="2.434577"><ele>73.5</ele></trkpt>
      <trkpt lat="48.858336" lon="2.434443"><ele>73.7</ele></trkpt>
      <trkpt lat="48.858336" lon="2.434442"><ele>73.9</ele></trkpt>
      <trkpt lat="48.858345" lon="2.434352"><ele>73.9</ele></trkpt>
      <trkpt lat="48.858355" lon="2.434262"><ele>74.0</ele></trkpt>
      <trkpt lat="48.858365" lon="2.434172"><ele>74.0</ele></trkpt>
      <trkpt lat="48.858374" lon="2.434083"><ele>74.0</ele></trkpt>
      <trkpt lat="48.858383" lon="2.433988"><ele>73.9</ele></trkpt>
      <trkpt lat="48.858383" lon="2.433988"><ele>73.9</ele></trkpt>
      <trkpt lat="48.858391" lon="2.433898"><ele>73.8</ele></trkpt>
      <trkpt lat="48.858399" lon="2.433808"><ele>73.7</ele></trkpt>
      <trkpt lat="48.858407" lon="2.433702"><ele>73.5</ele></trkpt>
      <trkpt lat="48.858407" lon="2.433702"><ele>73.5</ele></trkpt>
      <trkpt lat="48.858413" lon="2.433584"><ele>73.3</ele></trkpt>
      <trkpt lat="48.858421" lon="2.433476"><ele>73.2</ele></trkpt>
      <trkpt lat="48.858430" lon="2.433343"><ele>73.1</ele></trkpt>
      <trkpt lat="48.858430" lon="2.433343"><ele>73.0</ele></trkpt>
      <trkpt lat="48.858436" lon="2.433228"><ele>72.7</ele></trkpt>
      <trkpt lat="48.858442" lon="2.433113"><ele>72.4</ele></trkpt>
      <trkpt lat="48.858448" lon="2.432997"><ele>72.2</ele></trkpt>
      <trkpt lat="48.858455" lon="2.432882"><ele>72.0</ele></trkpt>
      <trkpt lat="48.858460" lon="2.432758"><ele>71.8</ele></trkpt>
      <trkpt lat="48.858466" lon="2.432634"><ele>71.7</ele></trkpt>
      <trkpt lat="48.858471" lon="2.432510"><ele>71.7</ele></trkpt>
      <trkpt lat="48.858477" lon="2.432386"><ele>71.7</ele></trkpt>
      <trkpt lat="48.858482" lon="2.432262"><ele>71.8</ele></trkpt>
      <trkpt lat="48.858488" lon="2.432138"><ele>71.9</ele></trkpt>
      <trkpt lat="48.858493" lon="2.432014"><ele>72.0</ele></trkpt>
      <trkpt lat="48.858460" lon="2.431973"><ele>72.0</ele></trkpt>
      <trkpt lat="48.858439" lon="2.431948"><ele>72.0</ele></trkpt>
      <trkpt lat="48.858433" lon="2.431940"><ele>72.0</ele></trkpt>
      <trkpt lat="48.858414" lon="2.431913"><ele>71.9</ele></trkpt>
      <trkpt lat="48.858404" lon="2.431894"><ele>71.9</ele></trkpt>
      <trkpt lat="48.858393" lon="2.431869"><ele>71.9</ele></trkpt>
      <trkpt lat="48.858379" lon="2.431799"><ele>71.9</ele></trkpt>
      <trkpt lat="48.858371" lon="2.431757"><ele>71.9</ele></trkpt>
      <trkpt lat="48.858370" lon="2.431751"><ele>71.8</ele></trkpt>
      <trkpt lat="48.858354" lon="2.431681"><ele>71.7</ele></trkpt>
      <trkpt lat="48.858340" lon="2.431610"><ele>71.7</ele></trkpt>
      <trkpt lat="48.858340" lon="2.431610"><ele>71.7</ele></trkpt>
      <trkpt lat="48.858315" lon="2.431484"><ele>71.4</ele></trkpt>
      <trkpt lat="48.858290" lon="2.431358"><ele>71.1</ele></trkpt>
      <trkpt lat="48.858266" lon="2.431232"><ele>70.9</ele></trkpt>
      <trkpt lat="48.858241" lon="2.431107"><ele>70.7</ele></trkpt>
      <trkpt lat="48.858216" lon="2.430981"><ele>70.7</ele></trkpt>
      <trkpt lat="48.858191" lon="2.430855"><ele>70.7</ele></trkpt>
      <trkpt lat="48.858167" lon="2.430730"><ele>70.9</ele></trkpt>
      <trkpt lat="48.858142" lon="2.430604"><ele>71.2</ele></trkpt>
      <trkpt lat="48.858117" lon="2.430478"><ele>71.4</ele></trkpt>
      <trkpt lat="48.858092" lon="2.430353"><ele>71.7</ele></trkpt>
      <trkpt lat="48.858068" lon="2.430227"><ele>71.8</ele></trkpt>
      <trkpt lat="48.858043" lon="2.430101"><ele>71.8</ele></trkpt>
      <trkpt lat="48.858018" lon="2.429975"><ele>71.8</ele></trkpt>
      <trkpt lat="48.858017" lon="2.429970"><ele>71.7</ele></trkpt>
      <trkpt lat="48.857997" lon="2.429869"><ele>71.6</ele></trkpt>
      <trkpt lat="48.857977" lon="2.429768"><ele>71.5</ele></trkpt>
      <trkpt lat="48.857976" lon="2.429762"><ele>71.4</ele></trkpt>
      <trkpt lat="48.857952" lon="2.429638"><ele>71.1</ele></trkpt>
      <trkpt lat="48.857927" lon="2.429514"><ele>70.9</ele></trkpt>
      <trkpt lat="48.857903" lon="2.429390"><ele>70.7</ele></trkpt>
      <trkpt lat="48.857878" lon="2.429266"><ele>70.5</ele></trkpt>
      <trkpt lat="48.857854" lon="2.429141"><ele>70.3</ele></trkpt>
      <trkpt lat="48.857829" lon="2.429017"><ele>70.0</ele></trkpt>
      <trkpt lat="48.857805" lon="2.428893"><ele>69.9</ele></trkpt>
      <trkpt lat="48.857803" lon="2.428884"><ele>69.8</ele></trkpt>
      <trkpt lat="48.857780" lon="2.428769"><ele>69.7</ele></trkpt>
      <trkpt lat="48.857758" lon="2.428655"><ele>69.6</ele></trkpt>
      <trkpt lat="48.857756" lon="2.428645"><ele>69.5</ele></trkpt>
      <trkpt lat="48.857737" lon="2.428548"><ele>69.5</ele></trkpt>
      <trkpt lat="48.857718" lon="2.428451"><ele>69.5</ele></trkpt>
      <trkpt lat="48.857699" lon="2.428354"><ele>69.5</ele></trkpt>
      <trkpt lat="48.857689" lon="2.428246"><ele>69.5</ele></trkpt>
      <trkpt lat="48.857680" lon="2.428137"><ele>69.5</ele></trkpt>
      <trkpt lat="48.857670" lon="2.428028"><ele>69.6</ele></trkpt>
      <trkpt lat="48.857661" lon="2.427920"><ele>69.6</ele></trkpt>
      <trkpt lat="48.857661" lon="2.427916"><ele>69.7</ele></trkpt>
      <trkpt lat="48.857653" lon="2.427824"><ele>69.7</ele></trkpt>
      <trkpt lat="48.857645" lon="2.427731"><ele>69.7</ele></trkpt>
      <trkpt lat="48.857637" lon="2.427639"><ele>69.7</ele></trkpt>
      <trkpt lat="48.857604" lon="2.427548"><ele>69.6</ele></trkpt>
      <trkpt lat="48.857594" lon="2.427413"><ele>69.4</ele></trkpt>
      <trkpt lat="48.857583" lon="2.427278"><ele>69.2</ele></trkpt>
      <trkpt lat="48.857573" lon="2.427143"><ele>69.1</ele></trkpt>
      <trkpt lat="48.857573" lon="2.427136"><ele>69.0</ele></trkpt>
      <trkpt lat="48.857563" lon="2.427016"><ele>68.9</ele></trkpt>
      <trkpt lat="48.857554" lon="2.426896"><ele>68.7</ele></trkpt>
      <trkpt lat="48.857545" lon="2.426777"><ele>68.6</ele></trkpt>
      <trkpt lat="48.857536" lon="2.426657"><ele>68.5</ele></trkpt>
      <trkpt lat="48.857527" lon="2.426537"><ele>68.4</ele></trkpt>
      <trkpt lat="48.857518" lon="2.426417"><ele>68.2</ele></trkpt>
      <trkpt lat="48.857506" lon="2.426283"><ele>67.9</ele></trkpt>
      <trkpt lat="48.857495" lon="2.426149"><ele>67.7</ele></trkpt>
      <trkpt lat="48.857483" lon="2.426014"><ele>67.4</ele></trkpt>
      <trkpt lat="48.857472" lon="2.425880"><ele>67.1</ele></trkpt>
      <trkpt lat="48.857460" lon="2.425746"><ele>66.8</ele></trkpt>
      <trkpt lat="48.857449" lon="2.425611"><ele>66.6</ele></trkpt>
      <trkpt lat="48.857437" lon="2.425477"><ele>66.4</ele></trkpt>
      <trkpt lat="48.857426" lon="2.425343"><ele>66.3</ele></trkpt>
      <trkpt lat="48.857423" lon="2.425309"><ele>66.3</ele></trkpt>
      <trkpt lat="48.857413" lon="2.425183"><ele>66.3</ele></trkpt>
      <trkpt lat="48.857403" lon="2.425057"><ele>66.4</ele></trkpt>
      <trkpt lat="48.857393" lon="2.424931"><ele>66.5</ele></trkpt>
      <trkpt lat="48.857383" lon="2.424805"><ele>66.8</ele></trkpt>
      <trkpt lat="48.857373" lon="2.424680"><ele>67.1</ele></trkpt>
      <trkpt lat="48.857363" lon="2.424554"><ele>67.3</ele></trkpt>
      <trkpt lat="48.857353" lon="2.424428"><ele>67.5</ele></trkpt>
      <trkpt lat="48.857343" lon="2.424302"><ele>67.5</ele></trkpt>
      <trkpt lat="48.857334" lon="2.424176"><ele>67.4</ele></trkpt>
      <trkpt lat="48.857324" lon="2.424050"><ele>67.2</ele></trkpt>
      <trkpt lat="48.857314" lon="2.423924"><ele>66.9</ele></trkpt>
      <trkpt lat="48.857302" lon="2.423804"><ele>66.6</ele></trkpt>
      <trkpt lat="48.857289" lon="2.423685"><ele>66.4</ele></trkpt>
      <trkpt lat="48.857277" lon="2.423565"><ele>66.1</ele></trkpt>
      <trkpt lat="48.857265" lon="2.423445"><ele>65.9</ele></trkpt>
      <trkpt lat="48.857258" lon="2.423383"><ele>65.6</ele></trkpt>
      <trkpt lat="48.857224" lon="2.423288"><ele>65.5</ele></trkpt>
      <trkpt lat="48.857190" lon="2.423193"><ele>65.3</ele></trkpt>
      <trkpt lat="48.857176" lon="2.423137"><ele>65.2</ele></trkpt>
      <trkpt lat="48.857102" lon="2.423011"><ele>64.7</ele></trkpt>
      <trkpt lat="48.857050" lon="2.422950"><ele>64.4</ele></trkpt>
      <trkpt lat="48.856992" lon="2.422852"><ele>64.2</ele></trkpt>
      <trkpt lat="48.856934" lon="2.422755"><ele>63.9</ele></trkpt>
      <trkpt lat="48.856876" lon="2.422657"><ele>63.8</ele></trkpt>
      <trkpt lat="48.856818" lon="2.422560"><ele>63.7</ele></trkpt>
      <trkpt lat="48.856854" lon="2.422504"><ele>63.7</ele></trkpt>
      <trkpt lat="48.856841" lon="2.422531"><ele>63.7</ele></trkpt>
    </trkseg>
  </trk>
</gpx>
