{"type": "FeatureCollection", "features": [{"type": "Feature", "properties": {"name": "Variante +0 % (trajet le plus court)", "tier_pct": 0, "length_m": 7415, "detour_pct": 0.0, "max_grade_pct": 7.9, "steep_len_m": 131, "gain_m": 82, "loss_m": 76, "time_s": 1523}, "geometry": {"type": "LineString", "coordinates": [[2.462161, 48.90228, 57.8], [2.462183, 48.902232, 57.9], [2.462204, 48.902183, 57.9], [2.46221, 48.902172, 57.9], [2.462224, 48.902142, 57.9], [2.462231, 48.902126, 57.9], [2.462263, 48.902052, 57.9], [2.462296, 48.901978, 57.8], [2.462329, 48.901904, 57.8], [2.462361, 48.90183, 57.8], [2.462404, 48.9018, 57.8], [2.462448, 48.901768, 57.8], [2.462495, 48.901734, 57.9], [2.462563, 48.901688, 57.9], [2.462596, 48.901666, 57.9], [2.462686, 48.901606, 58.0], [2.462777, 48.901545, 58.0], [2.462851, 48.901496, 58.0], [2.462925, 48.901447, 58.0], [2.462955, 48.901426, 58.0], [2.46301, 48.901386, 58.1], [2.463078, 48.901369, 58.1], [2.463089, 48.901367, 58.1], [2.463107, 48.901362, 58.1], [2.463144, 48.901362, 58.1], [2.463268, 48.901385, 58.0], [2.463392, 48.901409, 58.0], [2.463516, 48.901432, 57.9], [2.463639, 48.901455, 57.8], [2.463763, 48.901478, 57.7], [2.463887, 48.901501, 57.5], [2.463937, 48.90151, 57.4], [2.463938, 48.901511, 57.4], [2.464007, 48.901523, 57.3], [2.464023, 48.90149, 57.3], [2.464025, 48.901485, 57.3], [2.46404, 48.901455, 57.3], [2.464075, 48.901382, 57.3], [2.46411, 48.90131, 57.2], [2.464145, 48.901238, 57.1], [2.464165, 48.901198, 57.1], [2.464199, 48.901126, 57.0], [2.464234, 48.901054, 56.9], [2.464269, 48.900982, 56.7], [2.464303, 48.900909, 56.6], [2.464368, 48.90087, 56.5], [2.464477, 48.900829, 56.4], [2.464585, 48.900787, 56.4], [2.464693, 48.900746, 56.3], [2.464786, 48.90071, 56.3], [2.464878, 48.900673, 56.3], [2.464971, 48.900637, 56.2], [2.465064, 48.900599, 56.2], [2.465158, 48.900561, 56.1], [2.465251, 48.900524, 56.1], [2.465345, 48.900486, 56.1], [2.465345, 48.900486, 56.0], [2.465389, 48.900466, 56.0], [2.465331, 48.900413, 56.1], [2.465273, 48.900359, 56.1], [2.465272, 48.900359, 56.1], [2.465191, 48.900289, 56.2], [2.46511, 48.900218, 56.2], [2.465029, 48.900148, 56.2], [2.464992, 48.900109, 56.2], [2.46496, 48.900077, 56.2], [2.46493, 48.900041, 56.2], [2.464891, 48.899998, 56.2], [2.464847, 48.899957, 56.2], [2.464777, 48.899894, 56.2], [2.464708, 48.899831, 56.3], [2.464638, 48.899768, 56.3], [2.464569, 48.899705, 56.4], [2.464499, 48.899642, 56.4], [2.46443, 48.89958, 56.5], [2.46436, 48.899517, 56.5], [2.464359, 48.899516, 56.5], [2.464294, 48.899456, 56.5], [2.464228, 48.899397, 56.6], [2.464163, 48.899338, 56.6], [2.464097, 48.899279, 56.6], [2.464032, 48.89922, 56.6], [2.463959, 48.899154, 56.6], [2.463885, 48.899089, 56.6], [2.463812, 48.899023, 56.6], [2.463739, 48.898957, 56.7], [2.463666, 48.898892, 56.8], [2.463592, 48.898826, 56.9], [2.463515, 48.898757, 57.0], [2.463438, 48.898688, 57.3], [2.463361, 48.89862, 57.5], [2.463284, 48.898551, 57.8], [2.463207, 48.898482, 58.0], [2.46313, 48.898413, 58.3], [2.463053, 48.898344, 58.5], [2.462976, 48.898275, 58.6], [2.462899, 48.898206, 58.7], [2.462822, 48.898137, 58.8], [2.462745, 48.898068, 58.9], [2.462668, 48.897999, 58.9], [2.462648, 48.897985, 58.9], [2.462644, 48.897981, 58.9], [2.462575, 48.89793, 58.9], [2.462507, 48.897878, 58.8], [2.462444, 48.897876, 58.7], [2.462388, 48.897859, 58.6], [2.462346, 48.89783, 58.5], [2.462323, 48.897793, 58.5], [2.462323, 48.897754, 58.5], [2.462322, 48.897752, 58.5], [2.462338, 48.897722, 58.5], [2.462367, 48.897697, 58.5], [2.462368, 48.897696, 58.5], [2.462381, 48.897688, 58.6], [2.462369, 48.897654, 58.5], [2.462369, 48.897654, 58.5], [2.462353, 48.897605, 58.5], [2.462337, 48.897557, 58.5], [2.462275, 48.897512, 58.4], [2.462212, 48.897468, 58.3], [2.462211, 48.897467, 58.2], [2.462138, 48.897408, 58.2], [2.462068, 48.897345, 58.1], [2.461998, 48.897283, 58.0], [2.461928, 48.89722, 58.0], [2.461859, 48.897158, 58.0], [2.461789, 48.897096, 58.0], [2.46171, 48.89703, 58.0], [2.461631, 48.896965, 58.0], [2.461552, 48.896899, 58.0], [2.461478, 48.896837, 58.0], [2.461404, 48.896774, 58.0], [2.461333, 48.896713, 58.1], [2.461263, 48.896652, 58.3], [2.461193, 48.89659, 58.5], [2.461122, 48.896529, 58.6], [2.461052, 48.896467, 58.8], [2.460982, 48.896406, 59.0], [2.460943, 48.896351, 59.6], [2.460917, 48.896318, 59.8], [2.460917, 48.896317, 60.3], [2.460875, 48.896252, 60.5], [2.460834, 48.896187, 60.7], [2.460818, 48.896153, 60.9], [2.460787, 48.896124, 61.1], [2.460685, 48.896079, 61.7], [2.460592, 48.896032, 61.9], [2.460586, 48.896029, 62.0], [2.460547, 48.895997, 62.1], [2.46046, 48.895933, 62.4], [2.460374, 48.89587, 62.7], [2.460288, 48.895806, 62.9], [2.460202, 48.895742, 63.1], [2.460202, 48.895742, 63.2], [2.460124, 48.895685, 63.2], [2.460047, 48.895627, 63.3], [2.459969, 48.89557, 63.4], [2.459892, 48.895513, 63.4], [2.459888, 48.89551, 63.5], [2.459799, 48.895444, 63.6], [2.459709, 48.895378, 63.6], [2.45962, 48.895311, 63.5], [2.45953, 48.895245, 63.5], [2.459462, 48.895203, 63.4], [2.459393, 48.895162, 63.3], [2.459389, 48.895159, 63.3], [2.459306, 48.895114, 63.1], [2.459215, 48.895049, 63.0], [2.459124, 48.894983, 62.9], [2.459032, 48.894918, 62.8], [2.458941, 48.894852, 62.7], [2.45885, 48.894787, 62.5], [2.458759, 48.894721, 62.2], [2.458668, 48.894655, 61.9], [2.458577, 48.89459, 61.7], [2.458486, 48.894524, 61.4], [2.458395, 48.894459, 61.1], [2.458303, 48.894393, 60.9], [2.458212, 48.894328, 60.7], [2.458134, 48.894269, 60.5], [2.458134, 48.894269, 60.5], [2.458121, 48.894259, 60.5], [2.45806, 48.894224, 60.4], [2.457999, 48.89419, 60.4], [2.457912, 48.894126, 60.4], [2.457824, 48.894063, 60.4], [2.457737, 48.893999, 60.4], [2.457729, 48.893993, 60.4], [2.457722, 48.893988, 60.5], [2.457631, 48.893921, 60.7], [2.457541, 48.893855, 61.0], [2.45745, 48.893788, 61.4], [2.457391, 48.893733, 61.7], [2.457385, 48.893728, 62.0], [2.457377, 48.893719, 62.0], [2.45732, 48.893656, 62.0], [2.457268, 48.893611, 62.5], [2.457216, 48.893566, 62.6], [2.457214, 48.893565, 62.7], [2.457206, 48.893557, 62.9], [2.457127, 48.893494, 63.1], [2.457048, 48.893431, 63.4], [2.45697, 48.893368, 63.7], [2.456891, 48.893304, 63.9], [2.456813, 48.893241, 64.1], [2.456812, 48.89324, 64.1], [2.456803, 48.893233, 64.1], [2.456766, 48.893204, 64.2], [2.456765, 48.893204, 64.2], [2.456727, 48.893174, 64.2], [2.456696, 48.89315, 64.3], [2.456696, 48.89315, 64.3], [2.456687, 48.893142, 64.3], [2.456608, 48.893081, 64.3], [2.45653, 48.893019, 64.3], [2.456452, 48.892957, 64.3], [2.456373, 48.892895, 64.3], [2.456306, 48.892841, 64.3], [2.456305, 48.892841, 64.3], [2.456292, 48.892831, 64.2], [2.456215, 48.892769, 64.2], [2.456138, 48.892706, 64.1], [2.456061, 48.892644, 64.1], [2.455984, 48.892582, 64.0], [2.45592, 48.89253, 64.0], [2.455856, 48.892479, 64.1], [2.455855, 48.892478, 64.1], [2.455847, 48.892471, 64.1], [2.455774, 48.892418, 64.1], [2.455701, 48.892361, 64.2], [2.455701, 48.89236, 64.2], [2.455694, 48.892355, 64.2], [2.455627, 48.892299, 64.2], [2.455559, 48.892243, 64.3], [2.455492, 48.892187, 64.4], [2.455424, 48.892131, 64.4], [2.455421, 48.892128, 64.5], [2.455418, 48.892126, 64.5], [2.455334, 48.892059, 64.6], [2.45525, 48.891993, 64.8], [2.455166, 48.891927, 64.9], [2.455082, 48.89186, 65.1], [2.455077, 48.891857, 65.2], [2.45502, 48.891816, 65.3], [2.454952, 48.891764, 65.4], [2.454884, 48.891711, 65.5], [2.454826, 48.891677, 65.6], [2.454767, 48.891644, 65.6], [2.454704, 48.891595, 65.7], [2.454641, 48.891546, 65.7], [2.454578, 48.891497, 65.7], [2.454576, 48.891496, 65.8], [2.454502, 48.891436, 65.8], [2.454427, 48.891376, 65.9], [2.454353, 48.891316, 66.0], [2.454278, 48.891256, 66.1], [2.454196, 48.891191, 66.3], [2.454113, 48.891126, 66.5], [2.454031, 48.891061, 66.7], [2.453948, 48.890996, 66.9], [2.453866, 48.890931, 67.2], [2.453783, 48.890866, 67.4], [2.4537, 48.890801, 67.5], [2.4537, 48.890801, 67.6], [2.453691, 48.890794, 67.7], [2.453608, 48.890723, 67.9], [2.453524, 48.890652, 68.1], [2.453441, 48.890581, 68.2], [2.453358, 48.890511, 68.3], [2.453275, 48.89044, 68.4], [2.453191, 48.890369, 68.5], [2.453108, 48.890298, 68.6], [2.453099, 48.890293, 68.6], [2.453015, 48.89024, 68.7], [2.45293, 48.890188, 68.8], [2.452857, 48.890151, 69.0], [2.452783, 48.890114, 69.1], [2.452703, 48.890052, 69.3], [2.452702, 48.890052, 69.3], [2.452628, 48.889991, 69.6], [2.452554, 48.889931, 69.8], [2.45248, 48.889871, 70.0], [2.452406, 48.88981, 70.2], [2.452331, 48.88975, 70.4], [2.452257, 48.88969, 70.6], [2.452183, 48.889629, 70.7], [2.452176, 48.889625, 70.8], [2.452114, 48.889587, 71.0], [2.452052, 48.889549, 71.1], [2.451999, 48.889488, 71.3], [2.451922, 48.889436, 71.4], [2.451917, 48.889432, 71.5], [2.451835, 48.88937, 71.9], [2.451754, 48.889308, 72.3], [2.451673, 48.889246, 72.6], [2.451591, 48.889184, 73.0], [2.45151, 48.889122, 73.3], [2.451429, 48.88906, 73.7], [2.451347, 48.888998, 73.9], [2.451343, 48.888996, 74.0], [2.451272, 48.888956, 74.3], [2.451197, 48.888897, 74.6], [2.451122, 48.888838, 74.8], [2.451046, 48.888779, 75.1], [2.450971, 48.888721, 75.4], [2.450895, 48.888662, 75.8], [2.45082, 48.888603, 76.1], [2.450737, 48.88855, 76.5], [2.450653, 48.888497, 76.9], [2.45057, 48.888444, 77.4], [2.450486, 48.888391, 77.8], [2.450411, 48.888337, 78.7], [2.450337, 48.888283, 79.2], [2.450262, 48.888229, 79.7], [2.450187, 48.888175, 80.2], [2.450113, 48.888121, 80.6], [2.450029, 48.88806, 81.0], [2.449944, 48.887999, 81.3], [2.44986, 48.887938, 81.5], [2.449776, 48.887876, 81.6], [2.449692, 48.887815, 81.7], [2.449673, 48.887802, 81.9], [2.449587, 48.887735, 82.1], [2.449501, 48.887669, 82.3], [2.449415, 48.887603, 82.7], [2.449329, 48.887536, 83.1], [2.449243, 48.88747, 83.6], [2.449157, 48.887404, 84.1], [2.449126, 48.887345, 84.6], [2.449095, 48.887286, 85.1], [2.449036, 48.887223, 85.6], [2.448976, 48.887159, 86.0], [2.448916, 48.887096, 86.4], [2.448833, 48.887035, 86.7], [2.44875, 48.886974, 86.8], [2.448687, 48.886935, 87.0], [2.448686, 48.886935, 87.0], [2.448589, 48.886873, 87.2], [2.448491, 48.886811, 87.3], [2.448393, 48.886749, 87.5], [2.448309, 48.886709, 87.6], [2.448226, 48.886668, 87.6], [2.448175, 48.886655, 87.7], [2.44817, 48.886653, 87.7], [2.448077, 48.886628, 87.7], [2.447984, 48.886603, 87.7], [2.447869, 48.886583, 87.6], [2.447754, 48.886563, 87.6], [2.44764, 48.886544, 87.7], [2.44764, 48.886543, 87.7], [2.447525, 48.886523, 88.0], [2.44741, 48.886503, 88.2], [2.447332, 48.886492, 88.5], [2.447332, 48.886492, 88.6], [2.447228, 48.886474, 89.1], [2.447124, 48.886456, 89.3], [2.446999, 48.886434, 90.2], [2.446873, 48.886412, 90.5], [2.446872, 48.886412, 90.8], [2.44677, 48.886392, 91.2], [2.446668, 48.886372, 91.7], [2.446555, 48.88635, 92.3], [2.446442, 48.886328, 92.9], [2.446329, 48.886305, 93.5], [2.446216, 48.886283, 93.9], [2.446093, 48.886271, 94.9], [2.445969, 48.886259, 95.5], [2.445969, 48.886259, 96.1], [2.44586, 48.88624, 96.4], [2.445774, 48.886243, 96.8], [2.445716, 48.886253, 97.1], [2.445595, 48.886288, 98.7], [2.445524, 48.886238, 98.8], [2.445451, 48.886181, 98.9], [2.445378, 48.886124, 99.2], [2.445281, 48.886075, 99.6], [2.445184, 48.886025, 99.9], [2.445072, 48.885985, 101.1], [2.44496, 48.885944, 101.7], [2.444848, 48.885904, 102.3], [2.444736, 48.885863, 102.8], [2.444624, 48.885823, 103.2], [2.444512, 48.885782, 103.8], [2.4444, 48.885741, 104.3], [2.444288, 48.885701, 104.8], [2.444177, 48.88566, 105.3], [2.44406, 48.885622, 105.7], [2.443944, 48.885583, 106.1], [2.443828, 48.885545, 106.5], [2.443712, 48.885506, 106.8], [2.443682, 48.885496, 107.0], [2.443661, 48.885489, 107.3], [2.44354, 48.885447, 107.7], [2.44342, 48.885405, 108.2], [2.443299, 48.885364, 108.6], [2.443178, 48.885322, 109.0], [2.443058, 48.88528, 109.6], [2.442937, 48.885239, 110.2], [2.442816, 48.885197, 110.8], [2.442696, 48.885155, 111.4], [2.442575, 48.885114, 111.9], [2.442454, 48.885072, 112.2], [2.442414, 48.885058, 112.5], [2.442295, 48.885021, 112.7], [2.442177, 48.884984, 113.1], [2.442058, 48.884947, 113.4], [2.44194, 48.88491, 113.8], [2.441845, 48.884877, 114.1], [2.44175, 48.884843, 114.4], [2.441655, 48.88481, 114.7], [2.44156, 48.884777, 114.9], [2.441496, 48.884745, 115.1], [2.441432, 48.884714, 115.3], [2.44135, 48.884654, 115.5], [2.441267, 48.884594, 115.7], [2.441215, 48.884553, 115.9], [2.441163, 48.884513, 116.0], [2.441155, 48.884508, 116.1], [2.441144, 48.884499, 116.3], [2.4411, 48.884465, 116.3], [2.441095, 48.88446, 116.4], [2.441051, 48.884427, 116.4], [2.44094, 48.884403, 116.7], [2.440863, 48.884373, 116.8], [2.440828, 48.884332, 117.1], [2.440794, 48.884275, 117.2], [2.440761, 48.884217, 117.3], [2.440716, 48.884142, 117.4], [2.440672, 48.884066, 117.5], [2.440655, 48.884025, 117.6], [2.440653, 48.88402, 117.6], [2.440644, 48.883998, 117.7], [2.440641, 48.883933, 117.7], [2.440697, 48.883882, 117.7], [2.440754, 48.88383, 117.7], [2.440791, 48.88378, 117.7], [2.440829, 48.883729, 117.8], [2.440844, 48.883662, 117.8], [2.44086, 48.883595, 117.9], [2.440863, 48.883582, 118.0], [2.440867, 48.883515, 118.0], [2.440879, 48.883446, 118.1], [2.440891, 48.883378, 118.2], [2.440903, 48.883309, 118.3], [2.440912, 48.883221, 118.5], [2.440921, 48.883134, 118.7], [2.44093, 48.883046, 118.9], [2.440939, 48.882959, 119.2], [2.440948, 48.882871, 119.4], [2.440957, 48.882784, 119.7], [2.440966, 48.882696, 120.0], [2.440975, 48.882608, 120.3], [2.440984, 48.882521, 120.5], [2.440993, 48.882433, 120.6], [2.440993, 48.882429, 120.7], [2.441001, 48.882361, 120.8], [2.441009, 48.882293, 120.8], [2.441016, 48.882226, 120.8], [2.441021, 48.882144, 120.8], [2.441027, 48.882062, 120.8], [2.441032, 48.88198, 120.7], [2.441039, 48.881901, 120.6], [2.441046, 48.881822, 120.5], [2.441053, 48.881743, 120.4], [2.44106, 48.881664, 120.3], [2.441067, 48.881585, 120.2], [2.441074, 48.881506, 120.2], [2.441081, 48.881427, 120.1], [2.441081, 48.881427, 120.1], [2.441082, 48.881369, 120.1], [2.441083, 48.881312, 120.1], [2.44109, 48.881266, 120.1], [2.441097, 48.88122, 120.1], [2.441112, 48.881131, 120.0], [2.441127, 48.881042, 120.0], [2.441127, 48.881042, 120.0], [2.441136, 48.880956, 120.0], [2.441144, 48.88087, 120.0], [2.441152, 48.880784, 119.9], [2.44116, 48.880698, 119.9], [2.441168, 48.880612, 119.9], [2.441176, 48.880526, 119.9], [2.441185, 48.88044, 119.9], [2.441193, 48.880354, 119.9], [2.441201, 48.880268, 119.9], [2.441209, 48.880182, 119.9], [2.441217, 48.880096, 119.8], [2.441217, 48.880096, 119.8], [2.441224, 48.880031, 119.8], [2.441231, 48.879967, 119.8], [2.441237, 48.879902, 119.8], [2.441245, 48.879856, 119.8], [2.441252, 48.879811, 119.7], [2.441141, 48.879772, 119.8], [2.441129, 48.879768, 119.8], [2.441039, 48.879708, 119.8], [2.440945, 48.879644, 119.8], [2.44085, 48.879581, 119.7], [2.440756, 48.879517, 119.6], [2.440662, 48.879453, 119.5], [2.440567, 48.879389, 119.4], [2.440473, 48.879326, 119.3], [2.440379, 48.879262, 119.3], [2.440284, 48.879198, 119.3], [2.44019, 48.879135, 119.3], [2.440096, 48.879071, 119.4], [2.440001, 48.879007, 119.5], [2.439907, 48.878943, 119.6], [2.439813, 48.87888, 119.7], [2.439718, 48.878816, 119.8], [2.439624, 48.878752, 119.9], [2.439624, 48.878752, 120.0], [2.439548, 48.878701, 120.0], [2.439595, 48.87866, 120.1], [2.439595, 48.87866, 120.1], [2.439658, 48.878604, 120.3], [2.43972, 48.878548, 120.5], [2.439782, 48.878493, 120.7], [2.439845, 48.878437, 120.8], [2.439845, 48.878437, 120.9], [2.439782, 48.878401, 121.0], [2.439714, 48.878376, 121.1], [2.439704, 48.87837, 121.1], [2.439699, 48.878367, 121.1], [2.439611, 48.87831, 121.1], [2.439522, 48.878252, 121.2], [2.439434, 48.878194, 121.2], [2.439432, 48.878193, 121.1], [2.439336, 48.878131, 121.1], [2.439239, 48.878068, 121.0], [2.439143, 48.878006, 121.0], [2.439047, 48.877943, 120.8], [2.438951, 48.877881, 120.7], [2.438855, 48.877819, 120.5], [2.438759, 48.877756, 120.4], [2.438663, 48.877694, 120.2], [2.438643, 48.877682, 120.2], [2.438638, 48.877679, 120.2], [2.438557, 48.877633, 119.8], [2.438477, 48.877586, 119.6], [2.438396, 48.87754, 119.4], [2.438316, 48.877493, 119.2], [2.438255, 48.87746, 119.1], [2.438255, 48.87746, 119.1], [2.438301, 48.877419, 119.1], [2.438346, 48.877378, 119.1], [2.438293, 48.877338, 119.1], [2.438293, 48.877338, 119.0], [2.438214, 48.877278, 118.6], [2.438136, 48.877219, 118.3], [2.438058, 48.877159, 118.0], [2.437979, 48.8771, 117.6], [2.437901, 48.87704, 117.4], [2.437822, 48.876981, 117.2], [2.437733, 48.876919, 116.9], [2.437643, 48.876857, 116.8], [2.437554, 48.876795, 116.7], [2.437464, 48.876733, 116.7], [2.437374, 48.876671, 116.7], [2.437285, 48.876609, 116.7], [2.437195, 48.876547, 116.7], [2.437105, 48.876485, 116.8], [2.437016, 48.876423, 116.8], [2.437016, 48.876423, 116.8], [2.436946, 48.876375, 116.8], [2.436863, 48.876401, 116.9], [2.436781, 48.876427, 117.0], [2.436779, 48.876428, 117.1], [2.436703, 48.876443, 117.2], [2.436685, 48.876382, 117.1], [2.436685, 48.876382, 117.1], [2.436663, 48.876294, 117.1], [2.436642, 48.876207, 117.0], [2.43662, 48.87612, 116.9], [2.436598, 48.876033, 116.8], [2.436576, 48.875946, 116.7], [2.436554, 48.875858, 116.6], [2.436533, 48.875771, 116.5], [2.436509, 48.875683, 116.4], [2.436486, 48.875595, 116.2], [2.436463, 48.875507, 116.1], [2.43644, 48.875419, 115.9], [2.436417, 48.875331, 115.6], [2.436394, 48.875243, 115.4], [2.436371, 48.875155, 115.2], [2.436348, 48.875067, 114.9], [2.436324, 48.874979, 114.7], [2.436301, 48.874891, 114.5], [2.436278, 48.874803, 114.3], [2.436278, 48.874803, 114.3], [2.43627, 48.874768, 114.3], [2.436162, 48.874771, 114.3], [2.436054, 48.874773, 114.3], [2.435946, 48.874776, 114.4], [2.435835, 48.874744, 114.4], [2.435724, 48.874711, 114.5], [2.435614, 48.874679, 114.6], [2.435503, 48.874647, 114.7], [2.435392, 48.874614, 114.8], [2.435288, 48.874575, 115.0], [2.435183, 48.874536, 115.1], [2.435079, 48.874497, 115.2], [2.434975, 48.874458, 115.3], [2.434896, 48.874427, 115.3], [2.434817, 48.874395, 115.4], [2.434771, 48.874377, 115.3], [2.434687, 48.874344, 115.3], [2.434602, 48.87431, 115.2], [2.434496, 48.874256, 115.0], [2.434389, 48.874203, 114.8], [2.434283, 48.874149, 114.6], [2.434205, 48.874104, 114.4], [2.434127, 48.874059, 114.2], [2.434049, 48.874014, 114.0], [2.433971, 48.873969, 113.9], [2.433922, 48.873909, 113.8], [2.433873, 48.873849, 113.8], [2.433825, 48.873789, 113.8], [2.433776, 48.873729, 113.9], [2.433724, 48.873654, 113.9], [2.433715, 48.873641, 114.1], [2.433665, 48.873568, 114.1], [2.433631, 48.87352, 114.2], [2.433631, 48.87352, 114.2], [2.433578, 48.873444, 114.5], [2.433526, 48.873368, 114.6], [2.433473, 48.873291, 114.8], [2.43342, 48.873215, 114.9], [2.433367, 48.873139, 115.0], [2.433314, 48.873063, 115.0], [2.433261, 48.872987, 115.0], [2.433208, 48.872911, 115.0], [2.433155, 48.872835, 115.0], [2.433102, 48.872759, 115.0], [2.433049, 48.872683, 114.9], [2.432996, 48.872607, 114.9], [2.432943, 48.872531, 114.8], [2.43289, 48.872455, 114.8], [2.43284, 48.872379, 114.7], [2.432789, 48.872304, 114.7], [2.432738, 48.872229, 114.6], [2.432687, 48.872154, 114.4], [2.432641, 48.872078, 114.3], [2.432594, 48.872003, 114.1], [2.432548, 48.871928, 113.9], [2.432502, 48.871852, 113.7], [2.432456, 48.871777, 113.5], [2.432387, 48.871716, 113.3], [2.432319, 48.871655, 113.1], [2.432217, 48.871599, 112.9], [2.432115, 48.871542, 112.7], [2.432005, 48.871494, 112.5], [2.431895, 48.871446, 112.3], [2.431786, 48.871398, 112.1], [2.431721, 48.87137, 111.9], [2.431617, 48.871324, 111.5], [2.431512, 48.871278, 111.0], [2.431408, 48.871233, 110.5], [2.431304, 48.871187, 110.0], [2.431199, 48.871141, 109.7], [2.431111, 48.871103, 109.5], [2.431022, 48.871069, 109.6], [2.430934, 48.871035, 109.7], [2.430992, 48.870985, 109.1], [2.43105, 48.870936, 108.5], [2.431109, 48.870886, 107.9], [2.431188, 48.870818, 107.5], [2.431268, 48.870751, 107.2], [2.431348, 48.870683, 106.9], [2.431428, 48.870615, 106.8], [2.431508, 48.870548, 106.6], [2.431588, 48.87048, 106.5], [2.431601, 48.870471, 106.4], [2.431668, 48.870412, 106.3], [2.431706, 48.870375, 106.3], [2.431744, 48.870337, 106.3], [2.431746, 48.870336, 106.2], [2.431819, 48.870263, 106.2], [2.431892, 48.870191, 106.2], [2.431966, 48.870119, 106.3], [2.432035, 48.870044, 106.3], [2.432104, 48.869969, 106.2], [2.432173, 48.869895, 106.1], [2.432242, 48.86982, 105.9], [2.432309, 48.869743, 105.7], [2.432375, 48.869666, 105.5], [2.432442, 48.869589, 105.2], [2.432509, 48.869512, 105.1], [2.432511, 48.869509, 105.0], [2.432543, 48.869468, 104.9], [2.432575, 48.869427, 104.9], [2.432643, 48.869354, 104.7], [2.432711, 48.869281, 104.5], [2.432779, 48.869207, 104.4], [2.432847, 48.869134, 104.3], [2.432892, 48.869076, 104.2], [2.432892, 48.869075, 104.1], [2.432945, 48.869014, 104.0], [2.432998, 48.868952, 103.9], [2.433051, 48.868891, 103.8], [2.433109, 48.868823, 103.6], [2.433167, 48.868756, 103.5], [2.433225, 48.868689, 103.3], [2.433283, 48.868621, 103.1], [2.433341, 48.868554, 102.8], [2.433399, 48.868486, 102.5], [2.433458, 48.868419, 102.3], [2.433468, 48.868407, 102.1], [2.433528, 48.868338, 101.8], [2.433588, 48.868269, 101.5], [2.433648, 48.868201, 101.2], [2.433708, 48.868132, 100.9], [2.433768, 48.868064, 100.6], [2.433828, 48.867995, 100.3], [2.433888, 48.867926, 100.1], [2.433931, 48.867847, 99.8], [2.433973, 48.867767, 99.6], [2.434015, 48.867687, 99.4], [2.434058, 48.867607, 99.2], [2.4341, 48.867527, 99.0], [2.434142, 48.867448, 98.8], [2.434198, 48.867374, 98.7], [2.434202, 48.867326, 98.6], [2.434243, 48.867262, 98.6], [2.434283, 48.867197, 98.5], [2.434324, 48.867133, 98.5], [2.434365, 48.867069, 98.4], [2.434366, 48.867067, 98.4], [2.434423, 48.866986, 98.4], [2.434479, 48.866905, 98.3], [2.434535, 48.866824, 98.1], [2.434572, 48.86675, 98.0], [2.434608, 48.866675, 97.8], [2.434644, 48.8666, 97.6], [2.43468, 48.866525, 97.5], [2.434717, 48.866451, 97.4], [2.434753, 48.866376, 97.4], [2.434789, 48.866301, 97.4], [2.434791, 48.866298, 97.4], [2.434824, 48.866228, 97.3], [2.434856, 48.866158, 97.3], [2.434888, 48.866087, 97.2], [2.434939, 48.86601, 96.7], [2.43499, 48.865933, 96.2], [2.435032, 48.865856, 95.7], [2.435073, 48.86578, 95.2], [2.435115, 48.865704, 94.9], [2.435115, 48.865703, 94.6], [2.435151, 48.865636, 94.4], [2.435187, 48.86557, 94.0], [2.435223, 48.865504, 93.7], [2.435271, 48.865422, 93.3], [2.435319, 48.86534, 92.9], [2.435367, 48.865258, 92.5], [2.435414, 48.865176, 92.0], [2.435462, 48.865095, 91.5], [2.43551, 48.865013, 91.0], [2.435558, 48.864931, 90.5], [2.435605, 48.864849, 90.0], [2.435653, 48.864767, 89.6], [2.435701, 48.864686, 89.3], [2.435749, 48.864604, 89.1], [2.435796, 48.864522, 89.0], [2.435844, 48.86444, 88.9], [2.435892, 48.864358, 88.9], [2.43594, 48.864276, 88.8], [2.435987, 48.864195, 88.8], [2.435988, 48.864193, 88.7], [2.436029, 48.864115, 88.7], [2.436068, 48.864047, 88.6], [2.436107, 48.86398, 88.5], [2.436145, 48.863913, 88.4], [2.436185, 48.863846, 88.1], [2.436185, 48.863846, 88.0], [2.436229, 48.863769, 87.8], [2.436274, 48.863693, 87.6], [2.436318, 48.863616, 87.3], [2.436362, 48.86354, 87.0], [2.436406, 48.863464, 86.7], [2.436442, 48.863393, 86.4], [2.436477, 48.863323, 86.2], [2.43651, 48.86324, 85.7], [2.436543, 48.863158, 85.3], [2.436576, 48.863075, 85.0], [2.436608, 48.862993, 84.7], [2.436641, 48.862911, 84.5], [2.436645, 48.862901, 84.4], [2.436669, 48.862831, 84.3], [2.436693, 48.862761, 84.3], [2.436718, 48.862691, 84.3], [2.436742, 48.86262, 84.2], [2.436766, 48.86255, 84.2], [2.436771, 48.862536, 84.2], [2.436772, 48.862532, 84.2], [2.436776, 48.862517, 84.2], [2.436796, 48.86243, 84.1], [2.436816, 48.862343, 83.9], [2.436837, 48.862256, 83.7], [2.436857, 48.862169, 83.4], [2.436878, 48.862083, 83.1], [2.436898, 48.861996, 82.9], [2.436901, 48.861982, 82.6], [2.436921, 48.861906, 82.4], [2.436941, 48.861829, 82.0], [2.436961, 48.861753, 81.7], [2.436981, 48.861677, 81.3], [2.437001, 48.8616, 81.1], [2.437005, 48.861587, 80.8], [2.437024, 48.861498, 80.6], [2.437043, 48.861409, 80.3], [2.437061, 48.86132, 79.9], [2.43708, 48.861231, 79.7], [2.437083, 48.86122, 79.4], [2.437095, 48.861161, 79.3], [2.437108, 48.861103, 79.0], [2.437119, 48.861034, 78.7], [2.437129, 48.860965, 78.5], [2.437139, 48.860896, 78.2], [2.43714, 48.860832, 78.1], [2.437142, 48.860767, 78.0], [2.437143, 48.860702, 78.0], [2.437143, 48.860634, 78.1], [2.437144, 48.860566, 78.2], [2.437145, 48.860497, 78.3], [2.437145, 48.860496, 78.5], [2.437143, 48.860412, 78.5], [2.437135, 48.86033, 78.6], [2.437127, 48.860249, 78.5], [2.43712, 48.860168, 78.2], [2.437108, 48.860111, 77.8], [2.437096, 48.860054, 77.5], [2.437095, 48.86005, 77.2], [2.437075, 48.859991, 76.6], [2.437055, 48.859931, 76.3], [2.437054, 48.859928, 76.0], [2.437034, 48.859883, 75.5], [2.437014, 48.859838, 75.4], [2.436935, 48.859842, 75.3], [2.436935, 48.859842, 75.3], [2.436817, 48.859847, 75.8], [2.436817, 48.859847, 75.9], [2.436706, 48.85984, 76.8], [2.436591, 48.859835, 77.2], [2.436475, 48.85983, 77.5], [2.43636, 48.859824, 77.8], [2.436244, 48.859819, 78.0], [2.43617, 48.859815, 78.1], [2.43617, 48.859815, 78.1], [2.436075, 48.859815, 78.3], [2.43598, 48.859814, 78.4], [2.435885, 48.859814, 78.5], [2.43578, 48.859811, 78.5], [2.435702, 48.859808, 78.6], [2.435625, 48.859805, 78.6], [2.435504, 48.859799, 78.6], [2.435382, 48.859793, 78.6], [2.43538, 48.859793, 78.6], [2.435308, 48.859789, 78.6], [2.435235, 48.859785, 78.6], [2.435205, 48.859775, 78.5], [2.435177, 48.859763, 78.5], [2.435096, 48.859754, 78.4], [2.435023, 48.859753, 78.4], [2.434974, 48.85977, 78.3], [2.434916, 48.859775, 78.3], [2.434792, 48.859769, 78.2], [2.434669, 48.859763, 78.1], [2.434545, 48.859757, 77.9], [2.434421, 48.859752, 77.6], [2.434298, 48.859746, 77.4], [2.434174, 48.85974, 77.2], [2.434172, 48.85974, 77.1], [2.434067, 48.859735, 76.7], [2.433962, 48.859729, 76.6], [2.433961, 48.859729, 76.4], [2.433883, 48.859726, 76.1], [2.433805, 48.859722, 76.0], [2.433805, 48.859722, 75.9], [2.433718, 48.859718, 75.6], [2.433643, 48.859712, 75.4], [2.433642, 48.859712, 75.3], [2.433541, 48.859704, 75.2], [2.43344, 48.859696, 75.0], [2.433339, 48.859688, 74.9], [2.433216, 48.859671, 74.8], [2.433092, 48.859655, 74.6], [2.432969, 48.859639, 74.5], [2.432846, 48.859623, 74.5], [2.432722, 48.859606, 74.4], [2.432599, 48.85959, 74.4], [2.432475, 48.859574, 74.2], [2.432352, 48.859557, 74.1], [2.432228, 48.859541, 74.0], [2.432115, 48.859526, 73.9], [2.432018, 48.859513, 73.8], [2.431906, 48.859499, 73.7], [2.431817, 48.859485, 73.7], [2.431812, 48.859484, 73.6], [2.431781, 48.85948, 73.6], [2.431742, 48.859458, 73.5], [2.431669, 48.85943, 73.4], [2.431668, 48.85943, 73.4], [2.43155, 48.859391, 73.1], [2.431432, 48.859353, 72.8], [2.431315, 48.859315, 72.6], [2.431197, 48.859276, 72.3], [2.43108, 48.859238, 72.2], [2.430962, 48.859199, 72.2], [2.430845, 48.859161, 72.2], [2.430727, 48.859123, 72.4], [2.430609, 48.859084, 72.5], [2.430608, 48.859084, 72.6], [2.430527, 48.859061, 72.7], [2.430454, 48.859042, 72.8], [2.430381, 48.859023, 72.8], [2.430377, 48.859023, 72.9], [2.430259, 48.859008, 72.9], [2.43014, 48.858993, 73.0], [2.430021, 48.858977, 72.9], [2.429903, 48.858962, 72.8], [2.429784, 48.858947, 72.7], [2.429692, 48.858937, 72.5], [2.429601, 48.858927, 72.3], [2.429509, 48.858916, 72.1], [2.4295, 48.858915, 71.8], [2.429371, 48.8589, 71.5], [2.429242, 48.858885, 71.1], [2.429113, 48.85887, 70.7], [2.428984, 48.858855, 70.4], [2.428855, 48.858839, 70.1], [2.428726, 48.858824, 69.9], [2.42869, 48.85882, 69.7], [2.428571, 48.858806, 69.7], [2.428453, 48.858792, 69.7], [2.428334, 48.858778, 69.7], [2.428312, 48.85877, 69.6], [2.428296, 48.858763, 69.6], [2.428284, 48.858755, 69.6], [2.428273, 48.858747, 69.6], [2.428272, 48.858746, 69.6], [2.42826, 48.858735, 69.6], [2.42825, 48.85872, 69.6], [2.428248, 48.858702, 69.6], [2.428247, 48.858695, 69.6], [2.428246, 48.858685, 69.6], [2.428242, 48.858646, 69.6], [2.428172, 48.858649, 69.6], [2.428103, 48.858652, 69.6], [2.428102, 48.858652, 69.6], [2.428011, 48.858655, 69.6], [2.42792, 48.858658, 69.7], [2.427795, 48.858663, 69.7], [2.42767, 48.858668, 69.8], [2.427546, 48.858673, 69.9], [2.427465, 48.858683, 70.0], [2.427385, 48.858694, 70.1], [2.427335, 48.858706, 70.2], [2.427332, 48.858707, 70.4], [2.427273, 48.858722, 70.4], [2.427211, 48.858738, 70.5], [2.427201, 48.858696, 70.4], [2.427201, 48.858696, 70.4], [2.427194, 48.858662, 70.4], [2.427194, 48.858662, 70.3], [2.427187, 48.858624, 70.2], [2.427188, 48.858579, 70.1], [2.427188, 48.858578, 70.1], [2.427183, 48.858493, 69.8], [2.427178, 48.858408, 69.6], [2.427174, 48.858322, 69.4], [2.427169, 48.858237, 69.3], [2.427165, 48.858152, 69.2], [2.42716, 48.858066, 69.2], [2.427155, 48.857981, 69.1], [2.427151, 48.857895, 69.1], [2.427146, 48.85781, 69.1], [2.427142, 48.857725, 69.0], [2.427137, 48.857639, 69.0], [2.427137, 48.857639, 69.0], [2.427136, 48.857597, 69.0], [2.427136, 48.857573, 69.0], [2.427136, 48.857573, 69.0], [2.427016, 48.857563, 68.9], [2.426896, 48.857554, 68.7], [2.426777, 48.857545, 68.6], [2.426657, 48.857536, 68.5], [2.426537, 48.857527, 68.4], [2.426417, 48.857518, 68.2], [2.426283, 48.857506, 67.9], [2.426149, 48.857495, 67.7], [2.426014, 48.857483, 67.4], [2.42588, 48.857472, 67.1], [2.425746, 48.85746, 66.8], [2.425611, 48.857449, 66.6], [2.425477, 48.857437, 66.4], [2.425343, 48.857426, 66.3], [2.425309, 48.857423, 66.3], [2.425183, 48.857413, 66.3], [2.425057, 48.857403, 66.4], [2.424931, 48.857393, 66.5], [2.424805, 48.857383, 66.8], [2.42468, 48.857373, 67.1], [2.424554, 48.857363, 67.3], [2.424428, 48.857353, 67.5], [2.424302, 48.857343, 67.5], [2.424176, 48.857334, 67.4], [2.42405, 48.857324, 67.2], [2.423924, 48.857314, 66.9], [2.423804, 48.857302, 66.6], [2.423685, 48.857289, 66.4], [2.423565, 48.857277, 66.1], [2.423445, 48.857265, 65.9], [2.423383, 48.857258, 65.6], [2.423288, 48.857224, 65.5], [2.423193, 48.85719, 65.3], [2.423137, 48.857176, 65.2], [2.423011, 48.857102, 64.7], [2.42295, 48.85705, 64.4], [2.422852, 48.856992, 64.2], [2.422755, 48.856934, 63.9], [2.422657, 48.856876, 63.8], [2.42256, 48.856818, 63.7], [2.422504, 48.856854, 63.7], [2.422531, 48.856841, 63.7]]}}, {"type": "Feature", "properties": {"kind": "steep", "from_m": 2472, "to_m": 2603}, "geometry": {"type": "LineString", "coordinates": [[2.44677, 48.886392], [2.446668, 48.886372], [2.446555, 48.88635], [2.446442, 48.886328], [2.446329, 48.886305], [2.446216, 48.886283], [2.446093, 48.886271], [2.445969, 48.886259], [2.445969, 48.886259], [2.44586, 48.88624], [2.445774, 48.886243], [2.445716, 48.886253], [2.445595, 48.886288], [2.445524, 48.886238], [2.445451, 48.886181], [2.445378, 48.886124], [2.445281, 48.886075], [2.445184, 48.886025]]}}, {"type": "Feature", "properties": {"kind": "step", "n": 1, "instruction": "Partir sur", "name": "Rue René Clément", "length_m": 196, "max_grade_pct": 0.2, "notes": []}, "geometry": {"type": "Point", "coordinates": [2.462161, 48.90228]}}, {"type": "Feature", "properties": {"kind": "step", "n": 2, "instruction": "Tourner à droite sur", "name": "Rue Jean Gabin", "length_m": 129, "max_grade_pct": -0.4, "notes": []}, "geometry": {"type": "Point", "coordinates": [2.464007, 48.901523]}}, {"type": "Feature", "properties": {"kind": "step", "n": 3, "instruction": "Continuer tout droit sur", "name": "Rue Emmanuel Arago", "length_m": 36, "max_grade_pct": -0.1, "notes": []}, "geometry": {"type": "Point", "coordinates": [2.464971, 48.900637]}}, {"type": "Feature", "properties": {"kind": "step", "n": 4, "instruction": "Tourner à droite sur", "name": "Avenue Gallieni", "length_m": 357, "max_grade_pct": 2.0, "notes": []}, "geometry": {"type": "Point", "coordinates": [2.465389, 48.900466]}}, {"type": "Feature", "properties": {"kind": "step", "n": 5, "instruction": "Continuer tout droit sur", "name": "voie sans nom", "length_m": 31, "max_grade_pct": -0.2, "notes": []}, "geometry": {"type": "Point", "coordinates": [2.462507, 48.897878]}}, {"type": "Feature", "properties": {"kind": "step", "n": 6, "instruction": "Continuer tout droit sur", "name": "Avenue Gallieni", "length_m": 211, "max_grade_pct": 4.2, "notes": ["montée sur 69 m (+3 m), pente max 4.2 %"]}, "geometry": {"type": "Point", "coordinates": [2.462381, 48.897688]}}, {"type": "Feature", "properties": {"kind": "step", "n": 7, "instruction": "Légèrement à droite sur", "name": "Place Jean Coquelin", "length_m": 9, "max_grade_pct": 4.2, "notes": []}, "geometry": {"type": "Point", "coordinates": [2.460787, 48.896124]}}, {"type": "Feature", "properties": {"kind": "step", "n": 8, "instruction": "Continuer tout droit sur", "name": "Rue Jean Jaurès", "length_m": 868, "max_grade_pct": 4.2, "notes": ["montée sur 186 m (+11 m), pente max 4.2 %", "descente sur 59 m (pente min -2.4 %)"]}, "geometry": {"type": "Point", "coordinates": [2.460685, 48.896079]}}, {"type": "Feature", "properties": {"kind": "step", "n": 9, "instruction": "Continuer tout droit sur", "name": "Rue Anatole France", "length_m": 724, "max_grade_pct": 7.9, "notes": ["montée sur 639 m (+30 m), pente max 7.9 %, dont 89 m à plus de 6 %"]}, "geometry": {"type": "Point", "coordinates": [2.45293, 48.890188]}}, {"type": "Feature", "properties": {"kind": "step", "n": 10, "instruction": "Légèrement à gauche sur", "name": "Rue du Parc", "length_m": 42, "max_grade_pct": 7.1, "notes": ["montée sur 42 m (+1 m), pente max 7.1 %, dont 42 m à plus de 6 %"]}, "geometry": {"type": "Point", "coordinates": [2.445595, 48.886288]}}, {"type": "Feature", "properties": {"kind": "step", "n": 11, "instruction": "Continuer tout droit sur", "name": "Rue Anatole France", "length_m": 368, "max_grade_pct": 6.0, "notes": ["montée sur 368 m (+17 m), pente max 6.0 %, dont 9 m à plus de 6 %"]}, "geometry": {"type": "Point", "coordinates": [2.445184, 48.886025]}}, {"type": "Feature", "properties": {"kind": "step", "n": 12, "instruction": "Légèrement à gauche sur", "name": "Rue Veuve Aublet", "length_m": 66, "max_grade_pct": 2.3, "notes": []}, "geometry": {"type": "Point", "coordinates": [2.440863, 48.884373]}}, {"type": "Feature", "properties": {"kind": "step", "n": 13, "instruction": "Continuer tout droit sur", "name": "Boulevard Henri Barbusse", "length_m": 449, "max_grade_pct": 2.4, "notes": ["montée sur 59 m (+3 m), pente max 2.4 %"]}, "geometry": {"type": "Point", "coordinates": [2.440754, 48.88383]}}, {"type": "Feature", "properties": {"kind": "step", "n": 14, "instruction": "Légèrement à droite sur", "name": "Rue Irène Joliot-Curie", "length_m": 176, "max_grade_pct": 1.7, "notes": []}, "geometry": {"type": "Point", "coordinates": [2.441252, 48.879811]}}, {"type": "Feature", "properties": {"kind": "step", "n": 15, "instruction": "Tourner à gauche sur", "name": "Rue de Benfleet", "length_m": 37, "max_grade_pct": 1.6, "notes": []}, "geometry": {"type": "Point", "coordinates": [2.439548, 48.878701]}}, {"type": "Feature", "properties": {"kind": "step", "n": 16, "instruction": "Tourner à droite sur", "name": "voie de service", "length_m": 159, "max_grade_pct": 1.2, "notes": []}, "geometry": {"type": "Point", "coordinates": [2.439845, 48.878437]}}, {"type": "Feature", "properties": {"kind": "step", "n": 17, "instruction": "Tourner à gauche sur", "name": "Rue Pierre Curie", "length_m": 12, "max_grade_pct": -2.6, "notes": []}, "geometry": {"type": "Point", "coordinates": [2.438255, 48.87746]}}, {"type": "Feature", "properties": {"kind": "step", "n": 18, "instruction": "Tourner à droite sur", "name": "Rue Eugène Levasseur", "length_m": 151, "max_grade_pct": 0.3, "notes": ["descente sur 68 m (pente min -2.9 %)"]}, "geometry": {"type": "Point", "coordinates": [2.438346, 48.877378]}}, {"type": "Feature", "properties": {"kind": "step", "n": 19, "instruction": "Tourner à droite sur", "name": "Rue Anatole France", "length_m": 19, "max_grade_pct": 0.3, "notes": []}, "geometry": {"type": "Point", "coordinates": [2.436946, 48.876375]}}, {"type": "Feature", "properties": {"kind": "step", "n": 20, "instruction": "Tourner à gauche sur", "name": "Rue d'Alembert", "length_m": 189, "max_grade_pct": 0.1, "notes": []}, "geometry": {"type": "Point", "coordinates": [2.436703, 48.876443]}}, {"type": "Feature", "properties": {"kind": "step", "n": 21, "instruction": "Tourner à droite sur", "name": "Rue des Rigondes", "length_m": 602, "max_grade_pct": 1.2, "notes": ["descente sur 149 m (pente min -4.4 %)"]}, "geometry": {"type": "Point", "coordinates": [2.43627, 48.874768]}}, {"type": "Feature", "properties": {"kind": "step", "n": 22, "instruction": "Tourner à gauche sur", "name": "Pont Pasteur", "length_m": 88, "max_grade_pct": -1.0, "notes": ["descente sur 69 m (pente min -4.1 %)"]}, "geometry": {"type": "Point", "coordinates": [2.430934, 48.871035]}}, {"type": "Feature", "properties": {"kind": "step", "n": 23, "instruction": "Continuer tout droit sur", "name": "Avenue Pasteur", "length_m": 386, "max_grade_pct": -0.7, "notes": ["descente sur 152 m (pente min -3.3 %)"]}, "geometry": {"type": "Point", "coordinates": [2.431668, 48.870412]}}, {"type": "Feature", "properties": {"kind": "step", "n": 24, "instruction": "Continuer tout droit sur", "name": "Rue de Villiers", "length_m": 152, "max_grade_pct": -1.1, "notes": []}, "geometry": {"type": "Point", "coordinates": [2.434198, 48.867374]}}, {"type": "Feature", "properties": {"kind": "step", "n": 25, "instruction": "Continuer tout droit sur", "name": "Avenue de la Résistance", "length_m": 722, "max_grade_pct": -0.7, "notes": ["descente sur 482 m (pente min -4.8 %)"]}, "geometry": {"type": "Point", "coordinates": [2.434888, 48.866087]}}, {"type": "Feature", "properties": {"kind": "step", "n": 26, "instruction": "Tourner à droite sur", "name": "Rue Parmentier", "length_m": 546, "max_grade_pct": 3.2, "notes": ["descente sur 98 m (pente min -3.2 %)"]}, "geometry": {"type": "Point", "coordinates": [2.437014, 48.859838]}}, {"type": "Feature", "properties": {"kind": "step", "n": 27, "instruction": "Continuer tout droit sur", "name": "Rue des Sorins", "length_m": 125, "max_grade_pct": -0.1, "notes": ["descente sur 79 m (pente min -3.2 %)"]}, "geometry": {"type": "Point", "coordinates": [2.429784, 48.858947]}}, {"type": "Feature", "properties": {"kind": "step", "n": 28, "instruction": "Légèrement à droite sur", "name": "Boulevard Chanzy", "length_m": 77, "max_grade_pct": 0.8, "notes": []}, "geometry": {"type": "Point", "coordinates": [2.428242, 48.858646]}}, {"type": "Feature", "properties": {"kind": "step", "n": 29, "instruction": "Tourner à gauche sur", "name": "Rue du Centenaire", "length_m": 127, "max_grade_pct": -0.3, "notes": []}, "geometry": {"type": "Point", "coordinates": [2.427211, 48.858738]}}, {"type": "Feature", "properties": {"kind": "step", "n": 30, "instruction": "Tourner à droite sur", "name": "piste cyclable", "length_m": 300, "max_grade_pct": 0.9, "notes": ["descente sur 101 m (pente min -3.2 %)"]}, "geometry": {"type": "Point", "coordinates": [2.427136, 48.857597]}}, {"type": "Feature", "properties": {"kind": "step", "n": 31, "instruction": "Continuer tout droit sur", "name": "Place de la Fraternité", "length_m": 54, "max_grade_pct": -2.2, "notes": ["descente sur 54 m (pente min -2.9 %)"]}, "geometry": {"type": "Point", "coordinates": [2.423137, 48.857176]}}, {"type": "Feature", "properties": {"kind": "step", "n": 32, "instruction": "Tourner à droite sur", "name": "Rue Arsène Chéreau", "length_m": 6, "max_grade_pct": -1.8, "notes": []}, "geometry": {"type": "Point", "coordinates": [2.42256, 48.856818]}}]}