{"type": "FeatureCollection", "features": [{"type": "Feature", "properties": {"name": "Variante +50 % de détour", "tier_pct": 50, "length_m": 11008, "detour_pct": 48.5, "max_grade_pct": 5.6, "steep_len_m": 0, "gain_m": 99, "loss_m": 93, "time_s": 2130}, "geometry": {"type": "LineString", "coordinates": [[2.462161, 48.90228, 57.8], [2.462183, 48.902232, 57.9], [2.462204, 48.902183, 57.9], [2.46221, 48.902172, 57.9], [2.462224, 48.902142, 57.9], [2.462231, 48.902126, 57.9], [2.462263, 48.902052, 57.9], [2.462296, 48.901978, 57.8], [2.462329, 48.901904, 57.8], [2.462361, 48.90183, 57.8], [2.462404, 48.9018, 57.8], [2.462448, 48.901768, 57.8], [2.462495, 48.901734, 57.9], [2.462563, 48.901688, 57.9], [2.462596, 48.901666, 57.9], [2.462686, 48.901606, 58.0], [2.462777, 48.901545, 58.0], [2.462851, 48.901496, 58.0], [2.462925, 48.901447, 58.0], [2.462955, 48.901426, 58.0], [2.46301, 48.901386, 58.1], [2.463078, 48.901369, 58.1], [2.463089, 48.901367, 58.1], [2.463107, 48.901362, 58.1], [2.463144, 48.901362, 58.1], [2.463268, 48.901385, 58.0], [2.463392, 48.901409, 58.0], [2.463516, 48.901432, 57.9], [2.463639, 48.901455, 57.8], [2.463763, 48.901478, 57.7], [2.463887, 48.901501, 57.5], [2.463937, 48.90151, 57.4], [2.463938, 48.901511, 57.4], [2.464007, 48.901523, 57.3], [2.464023, 48.90149, 57.3], [2.464025, 48.901485, 57.3], [2.46404, 48.901455, 57.3], [2.464075, 48.901382, 57.3], [2.46411, 48.90131, 57.2], [2.464145, 48.901238, 57.1], [2.464165, 48.901198, 57.1], [2.464199, 48.901126, 57.0], [2.464234, 48.901054, 56.9], [2.464269, 48.900982, 56.7], [2.464303, 48.900909, 56.6], [2.464368, 48.90087, 56.5], [2.464477, 48.900829, 56.4], [2.464585, 48.900787, 56.4], [2.464693, 48.900746, 56.3], [2.464786, 48.90071, 56.3], [2.464878, 48.900673, 56.3], [2.464971, 48.900637, 56.2], [2.465064, 48.900599, 56.2], [2.465158, 48.900561, 56.1], [2.465251, 48.900524, 56.1], [2.465345, 48.900486, 56.1], [2.465345, 48.900486, 56.0], [2.465389, 48.900466, 56.0], [2.465331, 48.900413, 56.1], [2.465273, 48.900359, 56.1], [2.465272, 48.900359, 56.1], [2.465191, 48.900289, 56.2], [2.46511, 48.900218, 56.2], [2.465029, 48.900148, 56.2], [2.464992, 48.900109, 56.2], [2.46496, 48.900077, 56.2], [2.46493, 48.900041, 56.2], [2.464891, 48.899998, 56.2], [2.464847, 48.899957, 56.2], [2.464777, 48.899894, 56.2], [2.464708, 48.899831, 56.3], [2.464638, 48.899768, 56.3], [2.464569, 48.899705, 56.4], [2.464499, 48.899642, 56.4], [2.46443, 48.89958, 56.5], [2.46436, 48.899517, 56.5], [2.464359, 48.899516, 56.5], [2.464294, 48.899456, 56.5], [2.464228, 48.899397, 56.6], [2.464163, 48.899338, 56.6], [2.464097, 48.899279, 56.6], [2.464032, 48.89922, 56.6], [2.463959, 48.899154, 56.6], [2.463885, 48.899089, 56.6], [2.463812, 48.899023, 56.6], [2.463739, 48.898957, 56.7], [2.463666, 48.898892, 56.8], [2.463592, 48.898826, 56.9], [2.463515, 48.898757, 57.0], [2.463438, 48.898688, 57.3], [2.463361, 48.89862, 57.5], [2.463284, 48.898551, 57.8], [2.463207, 48.898482, 58.0], [2.46313, 48.898413, 58.3], [2.463053, 48.898344, 58.5], [2.462976, 48.898275, 58.6], [2.462899, 48.898206, 58.7], [2.462822, 48.898137, 58.8], [2.462745, 48.898068, 58.9], [2.462668, 48.897999, 58.9], [2.462648, 48.897985, 58.9], [2.462644, 48.897981, 58.9], [2.462575, 48.89793, 58.9], [2.462507, 48.897878, 58.8], [2.462444, 48.897876, 58.7], [2.462388, 48.897859, 58.6], [2.462346, 48.89783, 58.5], [2.462323, 48.897793, 58.5], [2.462323, 48.897754, 58.5], [2.462322, 48.897752, 58.5], [2.462338, 48.897722, 58.5], [2.462367, 48.897697, 58.5], [2.462368, 48.897696, 58.5], [2.462381, 48.897688, 58.6], [2.462369, 48.897654, 58.5], [2.462369, 48.897654, 58.5], [2.462353, 48.897605, 58.5], [2.462337, 48.897557, 58.5], [2.462275, 48.897512, 58.4], [2.462212, 48.897468, 58.3], [2.462211, 48.897467, 58.2], [2.462138, 48.897408, 58.2], [2.462068, 48.897345, 58.1], [2.461998, 48.897283, 58.0], [2.461928, 48.89722, 58.0], [2.461859, 48.897158, 58.0], [2.461789, 48.897096, 58.0], [2.46171, 48.89703, 58.0], [2.461631, 48.896965, 58.0], [2.461552, 48.896899, 58.0], [2.461478, 48.896837, 58.0], [2.461404, 48.896774, 58.0], [2.461333, 48.896713, 58.1], [2.461263, 48.896652, 58.3], [2.461193, 48.89659, 58.5], [2.461122, 48.896529, 58.6], [2.461052, 48.896467, 58.8], [2.460982, 48.896406, 59.0], [2.460943, 48.896351, 59.6], [2.460917, 48.896318, 59.8], [2.460917, 48.896317, 60.3], [2.460875, 48.896252, 60.5], [2.460834, 48.896187, 60.7], [2.460818, 48.896153, 60.9], [2.460787, 48.896124, 61.1], [2.460685, 48.896079, 61.7], [2.460789, 48.896022, 62.1], [2.460789, 48.896022, 62.2], [2.460841, 48.895993, 62.2], [2.460908, 48.895951, 62.6], [2.460975, 48.89591, 62.7], [2.461043, 48.895869, 62.8], [2.461107, 48.89583, 62.9], [2.461172, 48.895792, 62.9], [2.461266, 48.895753, 62.9], [2.46136, 48.895715, 62.9], [2.461369, 48.895712, 62.8], [2.461466, 48.895652, 62.8], [2.461564, 48.895592, 62.7], [2.461661, 48.895532, 62.6], [2.461759, 48.895472, 62.6], [2.461856, 48.895412, 62.5], [2.461953, 48.895352, 62.6], [2.462051, 48.895292, 62.6], [2.462148, 48.895232, 62.7], [2.462225, 48.895185, 62.9], [2.462302, 48.895138, 63.0], [2.462363, 48.895106, 63.1], [2.462423, 48.895074, 63.2], [2.462426, 48.895072, 63.4], [2.46252, 48.895013, 63.6], [2.462614, 48.894953, 63.8], [2.462708, 48.894894, 64.1], [2.462802, 48.894834, 64.3], [2.462897, 48.894775, 64.4], [2.462938, 48.89475, 64.6], [2.462939, 48.89475, 64.7], [2.46304, 48.89469, 65.0], [2.463141, 48.894629, 65.2], [2.463242, 48.894569, 65.5], [2.463343, 48.894509, 65.7], [2.463444, 48.894449, 65.9], [2.463545, 48.894389, 66.0], [2.463646, 48.894329, 66.0], [2.46365, 48.894326, 66.0], [2.463743, 48.894267, 66.0], [2.463837, 48.894208, 65.9], [2.46393, 48.894148, 65.7], [2.464023, 48.894089, 65.5], [2.464116, 48.89403, 65.4], [2.46421, 48.893971, 65.2], [2.464303, 48.893911, 65.1], [2.464385, 48.89386, 65.0], [2.464467, 48.893809, 64.9], [2.464549, 48.893758, 64.9], [2.464549, 48.893758, 64.9], [2.464605, 48.893723, 64.8], [2.46466, 48.89369, 64.8], [2.464714, 48.893657, 64.8], [2.464771, 48.893624, 64.7], [2.464771, 48.893624, 64.7], [2.464871, 48.893565, 64.6], [2.464971, 48.893506, 64.5], [2.465072, 48.893448, 64.4], [2.465165, 48.893391, 64.1], [2.465258, 48.893333, 63.8], [2.465351, 48.893276, 63.5], [2.465445, 48.893219, 63.2], [2.465538, 48.893162, 63.0], [2.465631, 48.893104, 62.7], [2.465724, 48.893047, 62.4], [2.465818, 48.89299, 62.2], [2.465911, 48.892933, 62.1], [2.466004, 48.892875, 61.9], [2.466101, 48.892815, 61.8], [2.466197, 48.892755, 61.8], [2.466293, 48.892695, 61.7], [2.46639, 48.892635, 61.6], [2.466486, 48.892575, 61.6], [2.466583, 48.892515, 61.6], [2.466679, 48.892454, 61.5], [2.466776, 48.892394, 61.5], [2.466872, 48.892334, 61.5], [2.466925, 48.892304, 61.5], [2.466997, 48.89226, 61.6], [2.467069, 48.892215, 61.6], [2.467141, 48.892171, 61.6], [2.467141, 48.892171, 61.6], [2.467205, 48.892132, 61.7], [2.467171, 48.892102, 61.6], [2.467155, 48.892065, 61.6], [2.467157, 48.892038, 61.6], [2.467169, 48.892012, 61.6], [2.46719, 48.89199, 61.6], [2.46722, 48.891971, 61.6], [2.467257, 48.891958, 61.7], [2.467299, 48.891952, 61.7], [2.467341, 48.891953, 61.7], [2.467382, 48.891962, 61.7], [2.467417, 48.891977, 61.7], [2.46746, 48.891946, 61.6], [2.46746, 48.891946, 61.6], [2.467544, 48.891882, 61.6], [2.467628, 48.891818, 61.6], [2.467712, 48.891755, 61.5], [2.467796, 48.891691, 61.5], [2.467881, 48.891627, 61.6], [2.467965, 48.891564, 61.6], [2.468049, 48.8915, 61.7], [2.468133, 48.891436, 61.8], [2.468217, 48.891372, 61.9], [2.468276, 48.891326, 62.0], [2.468335, 48.89128, 62.0], [2.468395, 48.891234, 62.0], [2.468479, 48.891171, 62.0], [2.468562, 48.891108, 62.1], [2.468646, 48.891044, 62.1], [2.46873, 48.890981, 62.1], [2.468814, 48.890917, 62.1], [2.468898, 48.890854, 62.1], [2.468981, 48.890791, 62.2], [2.469065, 48.890727, 62.2], [2.469149, 48.890664, 62.3], [2.469233, 48.8906, 62.4], [2.469317, 48.890537, 62.5], [2.469401, 48.890474, 62.6], [2.469484, 48.89041, 62.7], [2.469568, 48.890347, 62.7], [2.469569, 48.890346, 62.8], [2.469641, 48.890292, 62.8], [2.469714, 48.890237, 62.9], [2.469787, 48.890182, 63.0], [2.46986, 48.890128, 63.1], [2.469939, 48.890066, 63.4], [2.470017, 48.890005, 63.6], [2.470096, 48.889944, 63.7], [2.470175, 48.889883, 63.9], [2.470254, 48.889821, 64.1], [2.470333, 48.88976, 64.3], [2.470411, 48.889699, 64.4], [2.47049, 48.889638, 64.5], [2.470553, 48.889592, 64.5], [2.470615, 48.889546, 64.6], [2.470678, 48.8895, 64.6], [2.470679, 48.889499, 64.6], [2.470756, 48.889441, 64.7], [2.470833, 48.889383, 64.7], [2.470885, 48.889347, 64.7], [2.470936, 48.889312, 64.7], [2.470959, 48.889292, 64.7], [2.470962, 48.889289, 64.7], [2.471006, 48.889249, 64.7], [2.471051, 48.889209, 64.7], [2.471009, 48.889126, 64.8], [2.471011, 48.889046, 64.9], [2.471065, 48.889007, 64.9], [2.471119, 48.888968, 64.9], [2.471157, 48.888923, 64.8], [2.471194, 48.888877, 64.8], [2.471179, 48.888795, 64.8], [2.471163, 48.888713, 64.8], [2.471148, 48.88863, 64.8], [2.471124, 48.888543, 64.8], [2.471101, 48.888456, 64.9], [2.471078, 48.888369, 64.9], [2.471054, 48.888282, 64.9], [2.471051, 48.888273, 64.9], [2.471031, 48.888207, 64.9], [2.471011, 48.888141, 64.9], [2.470982, 48.888069, 64.9], [2.470954, 48.887996, 65.0], [2.470923, 48.887934, 65.0], [2.470893, 48.887871, 65.0], [2.470862, 48.887809, 65.0], [2.470857, 48.887798, 65.0], [2.470817, 48.887716, 65.0], [2.470777, 48.887634, 65.0], [2.470737, 48.887552, 64.9], [2.470697, 48.88747, 64.9], [2.470657, 48.887388, 64.9], [2.470616, 48.887306, 64.9], [2.470614, 48.887301, 64.9], [2.470581, 48.887233, 64.9], [2.470548, 48.887166, 64.9], [2.470515, 48.887098, 64.9], [2.470482, 48.88703, 64.9], [2.470468, 48.887002, 65.0], [2.47046, 48.886984, 65.0], [2.470445, 48.886957, 65.0], [2.470445, 48.886957, 65.0], [2.470417, 48.886891, 65.0], [2.470389, 48.886826, 65.1], [2.470455, 48.886756, 65.3], [2.470581, 48.886729, 65.5], [2.470706, 48.886703, 65.7], [2.470832, 48.886677, 65.8], [2.470957, 48.886651, 66.0], [2.471082, 48.886624, 66.1], [2.471208, 48.886598, 66.2], [2.47131, 48.886589, 66.3], [2.471412, 48.886579, 66.3], [2.47142, 48.886579, 66.4], [2.47149, 48.886572, 66.4], [2.47156, 48.886566, 66.4], [2.471615, 48.886559, 66.4], [2.471627, 48.886558, 66.4], [2.471699, 48.886544, 66.4], [2.471806, 48.886505, 66.4], [2.471881, 48.886475, 66.4], [2.471955, 48.886446, 66.3], [2.472011, 48.886383, 66.4], [2.472066, 48.886321, 66.5], [2.472121, 48.886259, 66.7], [2.472171, 48.886199, 66.8], [2.47222, 48.886139, 66.9], [2.472274, 48.886074, 67.2], [2.472329, 48.886009, 67.3], [2.472383, 48.885944, 67.5], [2.472447, 48.885874, 67.6], [2.47251, 48.885804, 67.7], [2.472573, 48.885733, 67.7], [2.472637, 48.885663, 67.7], [2.4727, 48.885593, 67.6], [2.472764, 48.885522, 67.5], [2.472827, 48.885452, 67.3], [2.472887, 48.885384, 67.1], [2.472947, 48.885316, 67.0], [2.473008, 48.885249, 66.8], [2.473068, 48.885181, 66.6], [2.473128, 48.885113, 66.5], [2.473181, 48.885064, 66.4], [2.473235, 48.885016, 66.3], [2.473287, 48.884964, 66.3], [2.473339, 48.884911, 66.2], [2.473391, 48.884859, 66.2], [2.473442, 48.884813, 66.2], [2.473494, 48.884766, 66.2], [2.473551, 48.884706, 66.2], [2.473609, 48.884647, 66.3], [2.473666, 48.884587, 66.3], [2.47373, 48.884509, 66.4], [2.473795, 48.884431, 66.6], [2.473859, 48.884354, 66.7], [2.473924, 48.884276, 66.9], [2.473988, 48.884198, 67.1], [2.474052, 48.88412, 67.3], [2.474117, 48.884043, 67.5], [2.474117, 48.884042, 67.6], [2.474174, 48.883976, 67.7], [2.474231, 48.883909, 67.8], [2.474276, 48.883854, 68.0], [2.474321, 48.883798, 68.0], [2.474365, 48.883742, 68.1], [2.474367, 48.88374, 68.1], [2.474411, 48.883687, 68.1], [2.474478, 48.883615, 68.0], [2.474545, 48.883544, 68.0], [2.474616, 48.883481, 67.8], [2.474687, 48.883419, 67.6], [2.474758, 48.883356, 67.4], [2.474829, 48.883294, 67.3], [2.474886, 48.883223, 67.1], [2.474944, 48.883152, 67.0], [2.475002, 48.883081, 66.9], [2.475059, 48.88301, 66.9], [2.475127, 48.882941, 66.9], [2.475194, 48.882872, 67.0], [2.475261, 48.882804, 67.1], [2.475328, 48.882735, 67.2], [2.475389, 48.882663, 67.3], [2.475449, 48.882592, 67.4], [2.47551, 48.88252, 67.5], [2.47557, 48.882448, 67.5], [2.47563, 48.882377, 67.4], [2.475691, 48.882305, 67.4], [2.475751, 48.882233, 67.4], [2.475811, 48.882161, 67.3], [2.475872, 48.88209, 67.3], [2.475932, 48.882018, 67.2], [2.475988, 48.881953, 67.1], [2.476045, 48.881888, 67.1], [2.476101, 48.881822, 67.0], [2.476157, 48.881757, 67.0], [2.476214, 48.881692, 67.0], [2.47627, 48.881626, 67.0], [2.476337, 48.881548, 67.0], [2.476403, 48.88147, 67.1], [2.476469, 48.881392, 67.1], [2.476536, 48.881314, 67.2], [2.476602, 48.881235, 67.2], [2.476668, 48.881157, 67.2], [2.476735, 48.881079, 67.2], [2.476801, 48.881001, 67.1], [2.476867, 48.880923, 67.0], [2.476934, 48.880844, 66.9], [2.476992, 48.880774, 66.8], [2.477051, 48.880703, 66.7], [2.477098, 48.880651, 66.6], [2.477145, 48.8806, 66.5], [2.477194, 48.880533, 66.4], [2.477243, 48.880467, 66.3], [2.477291, 48.8804, 66.2], [2.47734, 48.880334, 66.2], [2.477389, 48.880267, 66.1], [2.47739, 48.880266, 66.1], [2.477422, 48.880206, 66.1], [2.477424, 48.880203, 66.1], [2.477491, 48.88013, 66.1], [2.477558, 48.880058, 66.1], [2.477594, 48.880014, 66.1], [2.477631, 48.879969, 66.1], [2.477692, 48.879903, 66.1], [2.477754, 48.879836, 66.1], [2.477816, 48.87977, 66.1], [2.477878, 48.879703, 66.1], [2.477878, 48.879703, 66.1], [2.477938, 48.879636, 66.1], [2.477961, 48.879611, 66.1], [2.477962, 48.879611, 66.1], [2.478032, 48.879539, 66.1], [2.478083, 48.879479, 66.1], [2.478134, 48.87942, 66.1], [2.478185, 48.87936, 66.1], [2.478238, 48.879299, 66.1], [2.478291, 48.879238, 66.1], [2.478344, 48.879177, 66.1], [2.478397, 48.879117, 66.1], [2.478413, 48.879098, 66.1], [2.478429, 48.879082, 66.1], [2.478431, 48.87908, 66.1], [2.478469, 48.879035, 66.1], [2.478506, 48.878991, 66.1], [2.478509, 48.878989, 66.0], [2.478553, 48.878936, 66.0], [2.478598, 48.878883, 66.0], [2.478617, 48.878862, 65.9], [2.478682, 48.878785, 65.9], [2.478747, 48.878708, 65.8], [2.478813, 48.878631, 65.7], [2.478878, 48.878554, 65.6], [2.478943, 48.878477, 65.6], [2.478983, 48.878432, 65.6], [2.479022, 48.878386, 65.5], [2.479024, 48.878385, 65.5], [2.479088, 48.878308, 65.5], [2.479153, 48.878231, 65.4], [2.479218, 48.878154, 65.4], [2.479227, 48.878104, 65.5], [2.479237, 48.878054, 65.5], [2.479253, 48.877971, 65.5], [2.479268, 48.877888, 65.6], [2.479293, 48.877828, 65.7], [2.479318, 48.877769, 65.7], [2.479397, 48.8777, 65.8], [2.479476, 48.877632, 65.8], [2.479506, 48.877606, 65.9], [2.479507, 48.877604, 65.9], [2.479522, 48.877591, 65.9], [2.479582, 48.877546, 65.9], [2.479641, 48.877501, 66.0], [2.479729, 48.877462, 66.0], [2.479818, 48.877424, 66.1], [2.479906, 48.877385, 66.1], [2.479966, 48.877316, 66.3], [2.479967, 48.877315, 66.4], [2.480029, 48.877237, 66.5], [2.48009, 48.877159, 66.6], [2.480152, 48.877081, 66.8], [2.480198, 48.877018, 67.0], [2.480243, 48.876954, 67.1], [2.480305, 48.876882, 67.5], [2.480367, 48.87681, 67.7], [2.480429, 48.876738, 68.0], [2.480491, 48.876666, 68.2], [2.480553, 48.876594, 68.5], [2.480614, 48.876521, 68.7], [2.480676, 48.876449, 68.9], [2.480738, 48.876377, 69.1], [2.4808, 48.876305, 69.3], [2.480862, 48.876233, 69.4], [2.480863, 48.876231, 69.5], [2.480917, 48.876168, 69.6], [2.480972, 48.876104, 69.7], [2.481026, 48.87604, 69.8], [2.48108, 48.875977, 69.9], [2.481135, 48.875913, 70.0], [2.481136, 48.875911, 70.0], [2.481189, 48.875849, 70.1], [2.481242, 48.875787, 70.2], [2.481295, 48.875725, 70.3], [2.481348, 48.875663, 70.4], [2.481406, 48.875592, 70.5], [2.481464, 48.875521, 70.7], [2.481522, 48.87545, 70.9], [2.481523, 48.87545, 71.2], [2.481574, 48.875385, 71.2], [2.48161, 48.875345, 71.5], [2.481647, 48.875306, 71.5], [2.481648, 48.875304, 71.7], [2.481679, 48.875274, 71.9], [2.48174, 48.875206, 72.1], [2.481802, 48.875138, 72.3], [2.481863, 48.87507, 72.5], [2.481925, 48.875002, 72.8], [2.481986, 48.874933, 73.0], [2.48205, 48.874854, 73.2], [2.482113, 48.874775, 73.3], [2.482177, 48.874695, 73.5], [2.482241, 48.874616, 73.6], [2.482304, 48.874537, 73.7], [2.482307, 48.874534, 73.7], [2.482326, 48.874511, 73.7], [2.482328, 48.874508, 73.8], [2.482361, 48.874462, 73.8], [2.482393, 48.874415, 73.8], [2.482432, 48.874369, 74.0], [2.482471, 48.874323, 74.0], [2.482472, 48.874321, 74.1], [2.482482, 48.87431, 74.1], [2.482504, 48.874284, 74.1], [2.482534, 48.874235, 74.1], [2.482594, 48.874178, 74.3], [2.482654, 48.87412, 74.3], [2.48266, 48.874115, 74.4], [2.482717, 48.874063, 74.5], [2.482794, 48.873999, 74.6], [2.482872, 48.873934, 74.6], [2.482884, 48.873925, 74.6], [2.482953, 48.873871, 74.6], [2.482966, 48.873861, 74.6], [2.483034, 48.873812, 74.5], [2.483102, 48.873763, 74.5], [2.483117, 48.873758, 74.4], [2.483163, 48.873745, 74.3], [2.483213, 48.873709, 74.3], [2.483263, 48.873674, 74.2], [2.483344, 48.873616, 74.2], [2.483426, 48.873559, 74.2], [2.483508, 48.873501, 74.2], [2.483589, 48.873443, 74.2], [2.48367, 48.873383, 74.3], [2.483751, 48.873323, 74.4], [2.483832, 48.873263, 74.6], [2.483913, 48.873202, 74.8], [2.483993, 48.873142, 74.9], [2.484074, 48.873082, 75.1], [2.484074, 48.873082, 75.1], [2.484144, 48.873031, 75.3], [2.484214, 48.872981, 75.4], [2.484284, 48.87293, 75.5], [2.484354, 48.87288, 75.5], [2.484429, 48.872826, 75.6], [2.484504, 48.872772, 75.7], [2.484579, 48.872718, 75.7], [2.484654, 48.872664, 75.8], [2.484729, 48.872609, 75.8], [2.484817, 48.872546, 75.9], [2.484905, 48.872483, 75.9], [2.484994, 48.872419, 75.9], [2.48503, 48.872393, 75.9], [2.485031, 48.872392, 75.8], [2.485102, 48.872338, 75.7], [2.485088, 48.87232, 75.6], [2.485081, 48.872301, 75.6], [2.485081, 48.872288, 75.6], [2.485084, 48.872274, 75.6], [2.485097, 48.872255, 75.5], [2.485117, 48.872239, 75.5], [2.485143, 48.872227, 75.5], [2.485173, 48.87222, 75.4], [2.485154, 48.872178, 75.3], [2.485154, 48.872178, 75.3], [2.485127, 48.872129, 75.3], [2.485099, 48.87208, 75.3], [2.485098, 48.872077, 75.3], [2.485072, 48.872032, 75.2], [2.485027, 48.871952, 75.2], [2.484983, 48.871872, 75.2], [2.484939, 48.871792, 75.1], [2.484895, 48.871712, 75.0], [2.48485, 48.871632, 74.9], [2.484806, 48.871552, 74.8], [2.484762, 48.871473, 74.7], [2.484718, 48.871393, 74.6], [2.484702, 48.871336, 74.5], [2.484687, 48.871279, 74.4], [2.484687, 48.871222, 74.3], [2.484686, 48.871164, 74.1], [2.484697, 48.871081, 73.9], [2.484708, 48.870998, 73.7], [2.48472, 48.870914, 73.5], [2.48472, 48.87091, 73.3], [2.484729, 48.870851, 73.3], [2.484738, 48.870791, 73.2], [2.484755, 48.870745, 73.0], [2.484756, 48.870744, 73.0], [2.484794, 48.870666, 72.9], [2.484795, 48.870665, 72.9], [2.484831, 48.870594, 72.6], [2.484867, 48.870524, 72.5], [2.484885, 48.870489, 72.4], [2.484886, 48.870487, 72.3], [2.484905, 48.870454, 72.3], [2.484906, 48.870453, 72.3], [2.484954, 48.870371, 72.1], [2.484954, 48.870371, 72.0], [2.484976, 48.870331, 71.8], [2.485, 48.870285, 71.7], [2.485024, 48.870239, 71.6], [2.485048, 48.870195, 71.5], [2.485072, 48.870151, 71.3], [2.485117, 48.870072, 71.1], [2.485161, 48.869992, 70.8], [2.485206, 48.869912, 70.5], [2.48525, 48.869833, 70.2], [2.485295, 48.869753, 69.9], [2.485319, 48.869672, 69.7], [2.485327, 48.869587, 69.5], [2.485319, 48.869539, 69.3], [2.485311, 48.869491, 69.2], [2.485297, 48.869428, 69.1], [2.485283, 48.869364, 69.0], [2.485269, 48.869301, 68.8], [2.485253, 48.869226, 68.7], [2.485238, 48.869151, 68.5], [2.485222, 48.869076, 68.3], [2.485207, 48.869001, 68.1], [2.485191, 48.868926, 68.0], [2.485188, 48.868914, 67.8], [2.485178, 48.868875, 67.7], [2.485164, 48.868805, 67.5], [2.48515, 48.868735, 67.3], [2.485135, 48.868665, 67.1], [2.485121, 48.868595, 67.0], [2.48512, 48.868589, 66.7], [2.485109, 48.868539, 66.6], [2.485098, 48.86849, 66.6], [2.485097, 48.868485, 66.4], [2.485079, 48.868403, 66.3], [2.48506, 48.868321, 66.2], [2.485042, 48.868238, 66.1], [2.485024, 48.868156, 66.1], [2.485006, 48.868074, 66.2], [2.484982, 48.868009, 66.3], [2.484958, 48.867944, 66.4], [2.484934, 48.867878, 66.5], [2.484901, 48.867798, 66.7], [2.484869, 48.867717, 66.8], [2.484868, 48.867714, 66.9], [2.484837, 48.867653, 67.1], [2.484806, 48.867591, 67.2], [2.484769, 48.867527, 67.4], [2.484757, 48.867509, 67.6], [2.484722, 48.86744, 67.7], [2.484688, 48.867372, 67.9], [2.484688, 48.867372, 68.0], [2.484681, 48.867358, 68.0], [2.48464, 48.867282, 68.2], [2.4846, 48.867205, 68.3], [2.484559, 48.867128, 68.4], [2.484519, 48.867052, 68.5], [2.484478, 48.866975, 68.6], [2.484436, 48.866903, 68.6], [2.484394, 48.86683, 68.6], [2.484353, 48.866758, 68.6], [2.484311, 48.866685, 68.6], [2.484269, 48.866613, 68.6], [2.484225, 48.866536, 68.6], [2.484181, 48.86646, 68.6], [2.484137, 48.866383, 68.5], [2.484093, 48.866307, 68.5], [2.48405, 48.86623, 68.5], [2.484006, 48.866154, 68.5], [2.483962, 48.866077, 68.5], [2.483918, 48.866001, 68.5], [2.483874, 48.865924, 68.4], [2.483836, 48.865852, 68.3], [2.483798, 48.865779, 68.3], [2.48376, 48.865707, 68.2], [2.483723, 48.865635, 68.1], [2.483685, 48.865562, 68.0], [2.483647, 48.86549, 67.9], [2.483612, 48.865423, 67.8], [2.483577, 48.865357, 67.8], [2.483577, 48.865356, 67.7], [2.483539, 48.865284, 67.7], [2.483501, 48.865211, 67.6], [2.483457, 48.865129, 67.4], [2.483457, 48.865128, 67.4], [2.483416, 48.865053, 67.3], [2.483375, 48.864978, 67.2], [2.483336, 48.864902, 67.2], [2.483297, 48.864826, 67.1], [2.483258, 48.86475, 67.1], [2.483219, 48.864674, 67.1], [2.48318, 48.864598, 67.2], [2.483141, 48.864522, 67.3], [2.483102, 48.864446, 67.4], [2.483062, 48.864372, 67.5], [2.483022, 48.864297, 67.7], [2.482982, 48.864222, 67.8], [2.482942, 48.864148, 67.9], [2.482902, 48.864073, 68.0], [2.482901, 48.864072, 68.0], [2.482856, 48.863995, 68.2], [2.482811, 48.863918, 68.2], [2.482773, 48.863847, 68.4], [2.482736, 48.863777, 68.5], [2.482701, 48.863705, 68.7], [2.482667, 48.863633, 68.7], [2.482639, 48.863573, 68.8], [2.482612, 48.863514, 68.8], [2.482572, 48.863442, 69.0], [2.482532, 48.86337, 69.1], [2.482492, 48.863298, 69.3], [2.482453, 48.863227, 69.4], [2.482413, 48.863155, 69.6], [2.482373, 48.86307, 69.7], [2.482332, 48.862986, 69.8], [2.482292, 48.862901, 69.8], [2.482252, 48.862817, 69.9], [2.482211, 48.862741, 70.1], [2.482171, 48.862665, 70.2], [2.48213, 48.862589, 70.3], [2.482129, 48.862587, 70.4], [2.482108, 48.862539, 70.4], [2.482087, 48.86249, 70.4], [2.48205, 48.862419, 70.5], [2.482049, 48.862417, 70.5], [2.482014, 48.862342, 70.6], [2.481978, 48.862266, 70.6], [2.48194, 48.862186, 70.7], [2.481901, 48.862106, 70.7], [2.481862, 48.862026, 70.8], [2.481824, 48.861947, 70.8], [2.481785, 48.861867, 70.8], [2.481771, 48.861809, 70.8], [2.481758, 48.861752, 70.7], [2.481758, 48.861716, 70.7], [2.481758, 48.861713, 70.6], [2.481769, 48.861657, 70.5], [2.481781, 48.861602, 70.5], [2.481707, 48.861579, 70.7], [2.481651, 48.861539, 70.8], [2.481621, 48.861489, 70.9], [2.481635, 48.861408, 70.8], [2.481602, 48.861368, 70.9], [2.48157, 48.861329, 70.9], [2.481569, 48.861328, 70.9], [2.48153, 48.861284, 71.1], [2.481491, 48.861241, 71.1], [2.481435, 48.861178, 71.4], [2.481394, 48.861099, 71.5], [2.481354, 48.86102, 71.6], [2.481329, 48.86097, 71.6], [2.481303, 48.860919, 71.7], [2.481262, 48.860836, 71.8], [2.481221, 48.860752, 71.9], [2.481179, 48.860669, 72.1], [2.481138, 48.860585, 72.4], [2.481097, 48.860502, 72.6], [2.481055, 48.860419, 72.7], [2.481014, 48.860335, 72.8], [2.480996, 48.860307, 72.8], [2.48099, 48.860299, 72.8], [2.480943, 48.860229, 72.8], [2.480896, 48.860159, 72.8], [2.480892, 48.860154, 72.8], [2.48084, 48.860097, 72.9], [2.480839, 48.860096, 72.9], [2.480814, 48.860059, 73.0], [2.480772, 48.860017, 73.1], [2.480757, 48.860001, 73.3], [2.480701, 48.859943, 73.4], [2.480645, 48.859885, 73.5], [2.48057, 48.859827, 73.7], [2.480495, 48.859769, 73.7], [2.480436, 48.859734, 73.9], [2.480377, 48.859698, 73.9], [2.480316, 48.859666, 74.0], [2.480256, 48.859634, 74.0], [2.480256, 48.859634, 74.1], [2.48024, 48.859625, 74.1], [2.480146, 48.859575, 74.1], [2.480052, 48.859524, 74.2], [2.479958, 48.859474, 74.2], [2.479853, 48.859428, 74.4], [2.479748, 48.859382, 74.5], [2.47963, 48.859343, 74.6], [2.479512, 48.859305, 74.7], [2.479401, 48.859276, 74.7], [2.47929, 48.859247, 74.8], [2.479178, 48.859223, 74.8], [2.479067, 48.8592, 74.9], [2.478957, 48.859187, 75.0], [2.478848, 48.859174, 75.2], [2.478739, 48.85916, 75.4], [2.478624, 48.859157, 75.6], [2.47851, 48.859154, 75.7], [2.478475, 48.859153, 75.8], [2.47835, 48.859148, 75.9], [2.478225, 48.859144, 75.9], [2.4781, 48.85914, 75.9], [2.477975, 48.859136, 76.0], [2.47785, 48.859132, 76.2], [2.477725, 48.859128, 76.5], [2.477601, 48.859124, 76.8], [2.477476, 48.859119, 77.0], [2.47734, 48.859116, 77.2], [2.477205, 48.859113, 77.4], [2.47707, 48.85911, 77.7], [2.476935, 48.859107, 77.9], [2.4768, 48.859103, 78.2], [2.476665, 48.8591, 78.6], [2.476529, 48.859097, 79.1], [2.476394, 48.859094, 79.6], [2.476259, 48.859091, 80.2], [2.476124, 48.859087, 80.6], [2.475989, 48.859084, 81.0], [2.475853, 48.859081, 81.1], [2.475718, 48.859078, 81.3], [2.475582, 48.859074, 81.6], [2.475446, 48.859071, 82.2], [2.475311, 48.859068, 82.7], [2.475175, 48.859065, 83.2], [2.475039, 48.859061, 83.7], [2.474904, 48.859058, 84.2], [2.474768, 48.859055, 84.5], [2.474768, 48.859055, 84.7], [2.474647, 48.859052, 85.0], [2.474525, 48.859049, 85.2], [2.474404, 48.859046, 85.3], [2.474315, 48.859043, 85.5], [2.474226, 48.85904, 85.5], [2.474226, 48.85904, 85.9], [2.474127, 48.859037, 86.1], [2.474029, 48.859035, 86.2], [2.47393, 48.859032, 86.4], [2.473809, 48.85902, 86.5], [2.473687, 48.859007, 86.7], [2.473565, 48.858994, 87.0], [2.473444, 48.858981, 87.2], [2.473342, 48.858956, 87.6], [2.47324, 48.858931, 87.7], [2.473138, 48.858906, 87.9], [2.473044, 48.858881, 87.9], [2.472951, 48.858856, 87.8], [2.472857, 48.858832, 87.6], [2.472748, 48.858795, 87.3], [2.472639, 48.858757, 87.0], [2.47253, 48.85872, 86.7], [2.472441, 48.858679, 86.4], [2.472352, 48.858637, 86.3], [2.472263, 48.858595, 86.2], [2.472173, 48.858553, 86.1], [2.472101, 48.85852, 86.2], [2.472055, 48.858486, 86.2], [2.472009, 48.858453, 86.3], [2.471954, 48.858413, 86.4], [2.471889, 48.858359, 86.5], [2.471824, 48.858305, 86.7], [2.471759, 48.858252, 86.8], [2.471695, 48.858189, 87.0], [2.471632, 48.858127, 87.2], [2.471569, 48.858064, 87.3], [2.471563, 48.858058, 87.5], [2.471523, 48.858015, 87.5], [2.47147, 48.857942, 88.3], [2.471416, 48.857868, 88.7], [2.471363, 48.857795, 89.2], [2.471337, 48.857738, 89.6], [2.47131, 48.85768, 90.0], [2.471284, 48.857623, 90.3], [2.47127, 48.857592, 90.5], [2.47126, 48.857571, 90.5], [2.471257, 48.857565, 90.8], [2.471235, 48.8575, 91.1], [2.471213, 48.857435, 91.3], [2.47119, 48.857371, 91.4], [2.471167, 48.857286, 91.9], [2.471154, 48.857198, 92.2], [2.471154, 48.857197, 92.4], [2.47115, 48.857158, 92.5], [2.471146, 48.857129, 92.6], [2.471145, 48.85712, 92.7], [2.471136, 48.85703, 92.8], [2.471126, 48.856941, 93.0], [2.471116, 48.856852, 93.0], [2.471107, 48.856763, 92.9], [2.471097, 48.856673, 92.8], [2.471089, 48.856594, 92.6], [2.471081, 48.856515, 92.5], [2.471073, 48.856436, 92.3], [2.471065, 48.856357, 92.1], [2.471057, 48.856278, 92.1], [2.471049, 48.856199, 92.2], [2.471041, 48.85612, 92.4], [2.471033, 48.856031, 92.6], [2.471024, 48.855942, 92.9], [2.471015, 48.855852, 93.1], [2.471006, 48.855763, 93.4], [2.470998, 48.855674, 93.7], [2.470989, 48.855584, 94.0], [2.47098, 48.85551, 94.4], [2.47097, 48.855436, 94.8], [2.470961, 48.855362, 95.1], [2.470952, 48.855288, 95.4], [2.470935, 48.855222, 95.7], [2.470918, 48.855156, 95.9], [2.470875, 48.855083, 96.4], [2.470832, 48.85501, 96.8], [2.470788, 48.854937, 97.1], [2.470788, 48.854936, 97.5], [2.470751, 48.854864, 97.5], [2.470718, 48.854796, 98.1], [2.470685, 48.854729, 98.4], [2.470655, 48.854675, 99.3], [2.470624, 48.854621, 99.5], [2.470623, 48.854619, 100.0], [2.470594, 48.854547, 100.2], [2.470565, 48.854476, 100.5], [2.470536, 48.854404, 100.8], [2.470477, 48.854334, 101.4], [2.470418, 48.854263, 101.7], [2.470367, 48.854209, 102.0], [2.470317, 48.854155, 102.1], [2.470244, 48.854086, 102.3], [2.470172, 48.854018, 102.4], [2.470124, 48.853976, 102.5], [2.470075, 48.853934, 102.5], [2.470071, 48.853931, 102.6], [2.47001, 48.85386, 102.7], [2.46995, 48.853789, 102.8], [2.46985, 48.853758, 103.0], [2.469787, 48.853722, 103.1], [2.469724, 48.853686, 103.2], [2.469634, 48.853741, 103.2], [2.469633, 48.853742, 103.2], [2.469563, 48.853788, 103.2], [2.469493, 48.853834, 103.2], [2.469415, 48.853885, 103.4], [2.469336, 48.853935, 103.4], [2.469258, 48.853986, 103.5], [2.469175, 48.85404, 103.7], [2.469174, 48.854041, 103.8], [2.469115, 48.854079, 103.9], [2.469056, 48.854118, 104.1], [2.468965, 48.854177, 104.2], [2.468956, 48.854185, 104.3], [2.468951, 48.854188, 104.6], [2.468879, 48.854241, 104.7], [2.468807, 48.854295, 104.8], [2.468803, 48.854298, 105.0], [2.468753, 48.85434, 105.1], [2.468703, 48.854382, 105.1], [2.468657, 48.854431, 105.4], [2.468612, 48.85448, 105.5], [2.468608, 48.854484, 105.7], [2.468559, 48.854541, 105.8], [2.468509, 48.854599, 106.0], [2.46846, 48.854656, 106.1], [2.468416, 48.854729, 106.3], [2.468372, 48.854802, 106.4], [2.468328, 48.854874, 106.5], [2.468227, 48.854864, 106.6], [2.468227, 48.854864, 106.6], [2.468098, 48.854853, 106.9], [2.46797, 48.854843, 107.2], [2.467841, 48.854832, 107.4], [2.467712, 48.854821, 107.5], [2.467584, 48.854811, 107.5], [2.467455, 48.8548, 107.4], [2.467327, 48.85479, 107.2], [2.467198, 48.854779, 107.0], [2.467195, 48.854779, 106.9], [2.467166, 48.854776, 106.8], [2.467047, 48.854768, 106.6], [2.466928, 48.854759, 106.4], [2.466809, 48.854751, 106.2], [2.46669, 48.854742, 106.1], [2.466571, 48.854734, 106.1], [2.466567, 48.854733, 106.0], [2.46648, 48.854729, 106.0], [2.466476, 48.854729, 106.0], [2.46636, 48.854729, 106.0], [2.466245, 48.854729, 106.0], [2.466125, 48.854734, 106.1], [2.466006, 48.854739, 106.1], [2.465886, 48.854743, 106.2], [2.465766, 48.854748, 106.3], [2.465647, 48.854753, 106.4], [2.465527, 48.854758, 106.5], [2.465407, 48.854762, 106.7], [2.465272, 48.854765, 106.8], [2.46527, 48.854765, 106.8], [2.465144, 48.854768, 107.1], [2.465017, 48.85477, 107.3], [2.464891, 48.854773, 107.6], [2.464764, 48.854775, 107.9], [2.464638, 48.854778, 108.2], [2.464511, 48.85478, 108.5], [2.464385, 48.854783, 108.8], [2.464258, 48.854785, 109.0], [2.464132, 48.854788, 109.1], [2.464006, 48.854791, 109.2], [2.463886, 48.854795, 109.3], [2.463767, 48.854799, 109.3], [2.463648, 48.854804, 109.3], [2.463528, 48.854808, 109.3], [2.463409, 48.854812, 109.3], [2.463316, 48.854817, 109.3], [2.463223, 48.854821, 109.3], [2.46313, 48.854825, 109.3], [2.463128, 48.854825, 109.3], [2.462998, 48.854829, 109.3], [2.462867, 48.854834, 109.3], [2.462736, 48.854838, 109.3], [2.462606, 48.854842, 109.3], [2.462475, 48.854846, 109.4], [2.462345, 48.85485, 109.5], [2.462214, 48.854855, 109.6], [2.462083, 48.854859, 109.8], [2.461953, 48.854863, 109.9], [2.461822, 48.854867, 109.9], [2.461692, 48.854872, 109.9], [2.461561, 48.854876, 109.9], [2.461556, 48.854876, 109.8], [2.461453, 48.854892, 109.8], [2.46135, 48.854908, 109.7], [2.461247, 48.854923, 109.6], [2.461144, 48.854939, 109.5], [2.461075, 48.854948, 109.3], [2.461005, 48.854958, 109.2], [2.461005, 48.854958, 109.0], [2.460901, 48.854968, 108.8], [2.460798, 48.854978, 108.7], [2.460794, 48.854979, 108.3], [2.46068, 48.85502, 108.1], [2.460565, 48.855061, 107.8], [2.46045, 48.855102, 107.5], [2.460434, 48.855107, 107.4], [2.46033, 48.855138, 107.2], [2.460226, 48.85517, 107.1], [2.460121, 48.855201, 106.8], [2.460005, 48.855215, 106.5], [2.459888, 48.855228, 106.2], [2.459772, 48.855242, 105.9], [2.459656, 48.855255, 105.6], [2.459545, 48.855254, 105.3], [2.459435, 48.855254, 105.1], [2.459416, 48.855253, 105.0], [2.45932, 48.855253, 104.7], [2.459224, 48.855252, 104.5], [2.459128, 48.855251, 104.2], [2.459008, 48.855247, 103.8], [2.458889, 48.855242, 103.4], [2.45877, 48.855238, 103.0], [2.45865, 48.855234, 102.6], [2.458531, 48.855229, 102.4], [2.458411, 48.855225, 102.3], [2.458292, 48.855221, 102.2], [2.458292, 48.85522, 102.3], [2.458201, 48.855206, 102.3], [2.458162, 48.855247, 102.5], [2.458162, 48.855248, 102.6], [2.458108, 48.855305, 103.2], [2.458055, 48.855362, 103.5], [2.458001, 48.85542, 103.6], [2.458001, 48.85542, 103.6], [2.457933, 48.85549, 103.8], [2.457866, 48.855559, 103.9], [2.457799, 48.855629, 104.0], [2.457732, 48.855698, 104.1], [2.457665, 48.855768, 104.2], [2.457635, 48.855811, 104.3], [2.457633, 48.855814, 104.5], [2.457617, 48.855876, 104.6], [2.457602, 48.855939, 104.8], [2.457531, 48.85589, 104.4], [2.457461, 48.855841, 104.2], [2.45739, 48.855792, 104.0], [2.457376, 48.855783, 104.0], [2.45728, 48.855721, 103.6], [2.457184, 48.855659, 103.4], [2.457088, 48.855597, 103.2], [2.457004, 48.855552, 103.0], [2.456921, 48.855507, 102.9], [2.456836, 48.85545, 102.8], [2.456751, 48.855393, 102.7], [2.456666, 48.855336, 102.5], [2.456581, 48.855278, 102.5], [2.456496, 48.855221, 102.4], [2.456411, 48.855164, 102.2], [2.456326, 48.855107, 101.9], [2.45624, 48.85505, 101.6], [2.456165, 48.855001, 101.4], [2.456157, 48.854997, 101.2], [2.456072, 48.854943, 101.0], [2.455986, 48.85489, 100.8], [2.455901, 48.854837, 100.4], [2.455797, 48.8548, 100.0], [2.455692, 48.854763, 99.5], [2.455598, 48.85473, 99.2], [2.455521, 48.854703, 98.6], [2.455445, 48.854676, 98.0], [2.455341, 48.854635, 97.4], [2.455236, 48.854595, 96.8], [2.455132, 48.854555, 96.2], [2.455028, 48.854515, 95.7], [2.45492, 48.854476, 95.1], [2.454811, 48.854438, 94.5], [2.454703, 48.854399, 93.9], [2.454595, 48.85436, 93.5], [2.454487, 48.854322, 93.2], [2.454438, 48.854305, 93.2], [2.454352, 48.854275, 92.8], [2.454267, 48.854246, 92.6], [2.454182, 48.854216, 92.4], [2.454146, 48.854204, 92.3], [2.454075, 48.854179, 92.2], [2.454004, 48.854155, 92.1], [2.453976, 48.854144, 92.1], [2.453871, 48.854105, 92.0], [2.453765, 48.854065, 91.7], [2.45366, 48.854025, 91.2], [2.453554, 48.853985, 90.6], [2.453449, 48.853945, 90.0], [2.453343, 48.853906, 89.4], [2.453238, 48.853866, 88.9], [2.453196, 48.85385, 88.6], [2.453111, 48.853818, 88.2], [2.453111, 48.853818, 88.1], [2.453001, 48.853777, 87.5], [2.452892, 48.853736, 87.1], [2.452782, 48.853694, 86.8], [2.452672, 48.853653, 86.5], [2.452592, 48.853623, 86.1], [2.452513, 48.853594, 85.8], [2.452511, 48.853593, 85.6], [2.452444, 48.85357, 85.2], [2.452376, 48.853547, 85.1], [2.452268, 48.853505, 84.2], [2.45216, 48.853464, 83.8], [2.452159, 48.853463, 83.6], [2.452135, 48.853455, 83.5], [2.452095, 48.853442, 83.3], [2.451986, 48.853404, 83.1], [2.451877, 48.853366, 82.8], [2.451767, 48.853329, 82.6], [2.451658, 48.853291, 82.4], [2.451656, 48.85329, 82.0], [2.451575, 48.853259, 81.7], [2.451494, 48.853228, 81.4], [2.451412, 48.853196, 81.2], [2.451306, 48.853158, 80.9], [2.451306, 48.853158, 80.8], [2.451195, 48.853118, 80.3], [2.451083, 48.853078, 79.8], [2.450972, 48.853038, 79.4], [2.45086, 48.852998, 79.0], [2.450749, 48.852958, 78.6], [2.450637, 48.852919, 78.4], [2.45053, 48.852882, 78.0], [2.450422, 48.852846, 77.8], [2.450413, 48.852844, 77.7], [2.450301, 48.852812, 77.4], [2.450189, 48.85278, 77.3], [2.450173, 48.852778, 77.2], [2.450058, 48.852762, 77.0], [2.449943, 48.852747, 76.9], [2.449813, 48.852739, 76.7], [2.449683, 48.852732, 76.6], [2.449553, 48.852725, 76.4], [2.449422, 48.852717, 76.2], [2.449353, 48.852713, 76.1], [2.449349, 48.852713, 76.0], [2.449239, 48.852719, 75.6], [2.449128, 48.852724, 75.5], [2.449044, 48.852788, 75.3], [2.448959, 48.852851, 75.3], [2.448957, 48.852853, 75.2], [2.448923, 48.852877, 75.1], [2.448912, 48.852886, 75.1], [2.448896, 48.852898, 75.0], [2.44883, 48.852951, 75.0], [2.448764, 48.853003, 74.9], [2.448698, 48.853056, 74.8], [2.44865, 48.853095, 74.7], [2.448602, 48.853134, 74.6], [2.448576, 48.85316, 74.5], [2.448564, 48.853171, 74.4], [2.448561, 48.853174, 74.2], [2.448515, 48.853224, 74.2], [2.448463, 48.853282, 73.9], [2.448462, 48.853283, 73.9], [2.448449, 48.853296, 73.6], [2.448409, 48.853336, 73.4], [2.448364, 48.853381, 73.1], [2.448319, 48.853427, 72.8], [2.448247, 48.853499, 72.4], [2.448176, 48.853571, 72.0], [2.448104, 48.853643, 71.6], [2.448033, 48.853714, 71.2], [2.447961, 48.853786, 70.9], [2.44789, 48.853858, 70.6], [2.447818, 48.85393, 70.2], [2.447747, 48.854001, 69.9], [2.447676, 48.854073, 69.6], [2.447604, 48.854145, 69.4], [2.447533, 48.854217, 69.1], [2.447461, 48.854288, 68.9], [2.44739, 48.85436, 68.7], [2.447318, 48.854432, 68.5], [2.447318, 48.854432, 68.4], [2.44727, 48.854482, 68.4], [2.4472, 48.854545, 68.2], [2.447199, 48.854545, 68.1], [2.447127, 48.854617, 68.0], [2.447054, 48.854688, 67.9], [2.446982, 48.854759, 67.8], [2.446909, 48.854831, 67.7], [2.446836, 48.854902, 67.6], [2.446764, 48.854973, 67.6], [2.446761, 48.854976, 67.5], [2.44669, 48.855046, 67.5], [2.446619, 48.855115, 67.5], [2.446549, 48.855184, 67.5], [2.446478, 48.855254, 67.5], [2.446408, 48.855323, 67.5], [2.446337, 48.855392, 67.5], [2.446267, 48.855462, 67.4], [2.446196, 48.855531, 67.4], [2.446188, 48.855539, 67.4], [2.446112, 48.855613, 67.2], [2.446037, 48.855687, 67.1], [2.445962, 48.855761, 66.9], [2.445887, 48.855835, 66.8], [2.445811, 48.855909, 66.7], [2.445736, 48.855983, 66.5], [2.445661, 48.856057, 66.4], [2.445637, 48.856081, 66.4], [2.445622, 48.856095, 66.3], [2.445606, 48.856104, 66.3], [2.445532, 48.856144, 66.2], [2.445459, 48.856184, 66.2], [2.445357, 48.856232, 66.0], [2.445275, 48.856272, 65.9], [2.445194, 48.856311, 65.9], [2.445101, 48.856356, 65.8], [2.44506, 48.856372, 65.8], [2.445034, 48.856377, 65.8], [2.445026, 48.856378, 65.8], [2.444952, 48.856396, 65.7], [2.444879, 48.856413, 65.7], [2.44476, 48.856433, 65.5], [2.444758, 48.856433, 65.5], [2.444669, 48.856451, 65.5], [2.444579, 48.856468, 65.4], [2.444469, 48.856497, 65.4], [2.444359, 48.856526, 65.4], [2.444294, 48.856541, 65.5], [2.444229, 48.856556, 65.5], [2.444229, 48.856556, 65.5], [2.444204, 48.856561, 65.5], [2.444155, 48.856571, 65.5], [2.444029, 48.856599, 65.5], [2.443903, 48.856627, 65.5], [2.443777, 48.856654, 65.5], [2.443651, 48.856682, 65.5], [2.443525, 48.85671, 65.5], [2.4434, 48.856738, 65.4], [2.443399, 48.856738, 65.4], [2.443281, 48.856762, 65.3], [2.443163, 48.856787, 65.1], [2.443045, 48.856812, 65.0], [2.44297, 48.856826, 64.8], [2.442895, 48.85684, 64.7], [2.442895, 48.85684, 64.6], [2.442773, 48.856865, 64.6], [2.442651, 48.856891, 64.5], [2.44253, 48.856916, 64.3], [2.442408, 48.856941, 64.1], [2.442287, 48.856967, 64.0], [2.442165, 48.856992, 63.9], [2.442043, 48.857017, 63.9], [2.441922, 48.857042, 63.8], [2.4418, 48.857068, 63.7], [2.441679, 48.857093, 63.5], [2.441557, 48.857118, 63.3], [2.441435, 48.857144, 63.1], [2.441314, 48.857169, 62.9], [2.441313, 48.857169, 62.8], [2.441242, 48.857185, 62.8], [2.44117, 48.857202, 62.7], [2.441091, 48.857218, 62.6], [2.441012, 48.857233, 62.6], [2.441012, 48.857233, 62.5], [2.440909, 48.857254, 62.5], [2.440807, 48.857275, 62.4], [2.440701, 48.857296, 62.3], [2.440595, 48.857317, 62.3], [2.44049, 48.857338, 62.3], [2.440384, 48.857359, 62.3], [2.440278, 48.85738, 62.3], [2.440252, 48.857387, 62.3], [2.440251, 48.857387, 62.4], [2.440162, 48.857407, 62.4], [2.440073, 48.857426, 62.5], [2.440007, 48.857441, 62.6], [2.43994, 48.857455, 62.7], [2.43994, 48.857455, 62.7], [2.439913, 48.857461, 62.8], [2.439798, 48.857485, 63.0], [2.439682, 48.85751, 63.2], [2.439567, 48.857534, 63.5], [2.439452, 48.857559, 63.9], [2.439336, 48.857583, 64.3], [2.439221, 48.857608, 64.7], [2.439103, 48.857633, 65.0], [2.438985, 48.857658, 65.5], [2.438867, 48.857683, 66.0], [2.438749, 48.857709, 66.6], [2.438631, 48.857734, 67.0], [2.438631, 48.857734, 67.2], [2.438543, 48.857752, 67.5], [2.438456, 48.857769, 67.8], [2.438355, 48.857779, 68.3], [2.438255, 48.857788, 68.5], [2.43825, 48.857789, 68.9], [2.438125, 48.85782, 69.1], [2.438001, 48.85785, 69.5], [2.437876, 48.857881, 69.8], [2.437751, 48.857912, 70.0], [2.437627, 48.857943, 70.2], [2.437502, 48.857973, 70.3], [2.437475, 48.85798, 70.4], [2.437474, 48.85798, 70.5], [2.437442, 48.857987, 70.5], [2.43734, 48.85801, 70.5], [2.43724, 48.858033, 70.5], [2.437237, 48.858035, 70.5], [2.437215, 48.85804, 70.7], [2.437192, 48.858045, 70.7], [2.437177, 48.858049, 70.7], [2.437177, 48.858049, 70.7], [2.437152, 48.858054, 70.7], [2.437152, 48.858054, 70.7], [2.43712, 48.858062, 70.8], [2.437044, 48.858079, 70.8], [2.436968, 48.858096, 70.9], [2.436857, 48.858107, 71.0], [2.436757, 48.858116, 71.0], [2.436665, 48.85814, 71.1], [2.436548, 48.858125, 71.2], [2.436431, 48.85811, 71.3], [2.436317, 48.858097, 71.4], [2.436299, 48.858095, 71.4], [2.436298, 48.858095, 71.5], [2.436283, 48.858138, 71.5], [2.436283, 48.858138, 71.5], [2.436264, 48.858135, 71.5], [2.436264, 48.858135, 71.6], [2.436154, 48.858119, 71.7], [2.436043, 48.858103, 71.8], [2.435933, 48.858087, 71.8], [2.435822, 48.858072, 71.9], [2.435822, 48.858072, 71.9], [2.435805, 48.85807, 71.9], [2.4357, 48.858054, 71.9], [2.435676, 48.858086, 71.9], [2.435672, 48.858097, 72.0], [2.435649, 48.858135, 72.0], [2.43562, 48.858165, 72.0], [2.435609, 48.858171, 72.1], [2.43558, 48.858189, 72.1], [2.43552, 48.858201, 72.1], [2.435451, 48.858214, 72.2], [2.435382, 48.858227, 72.2], [2.435283, 48.858239, 72.3], [2.435183, 48.858252, 72.3], [2.435083, 48.858264, 72.3], [2.434964, 48.858277, 72.6], [2.434846, 48.85829, 72.7], [2.434846, 48.85829, 72.8], [2.434711, 48.858306, 73.2], [2.434577, 48.858321, 73.5], [2.434443, 48.858336, 73.7], [2.434442, 48.858336, 73.9], [2.434352, 48.858345, 73.9], [2.434262, 48.858355, 74.0], [2.434172, 48.858365, 74.0], [2.434083, 48.858374, 74.0], [2.433988, 48.858383, 73.9], [2.433988, 48.858383, 73.9], [2.433898, 48.858391, 73.8], [2.433808, 48.858399, 73.7], [2.433702, 48.858407, 73.5], [2.433702, 48.858407, 73.5], [2.433584, 48.858413, 73.3], [2.433476, 48.858421, 73.2], [2.433343, 48.85843, 73.1], [2.433343, 48.85843, 73.0], [2.433228, 48.858436, 72.7], [2.433113, 48.858442, 72.4], [2.432997, 48.858448, 72.2], [2.432882, 48.858455, 72.0], [2.432758, 48.85846, 71.8], [2.432634, 48.858466, 71.7], [2.43251, 48.858471, 71.7], [2.432386, 48.858477, 71.7], [2.432262, 48.858482, 71.8], [2.432138, 48.858488, 71.9], [2.432014, 48.858493, 72.0], [2.431973, 48.85846, 72.0], [2.431948, 48.858439, 72.0], [2.43194, 48.858433, 72.0], [2.431913, 48.858414, 71.9], [2.431894, 48.858404, 71.9], [2.431869, 48.858393, 71.9], [2.431799, 48.858379, 71.9], [2.431757, 48.858371, 71.9], [2.431751, 48.85837, 71.8], [2.431681, 48.858354, 71.7], [2.43161, 48.85834, 71.7], [2.43161, 48.85834, 71.7], [2.431484, 48.858315, 71.4], [2.431358, 48.85829, 71.1], [2.431232, 48.858266, 70.9], [2.431107, 48.858241, 70.7], [2.430981, 48.858216, 70.7], [2.430855, 48.858191, 70.7], [2.43073, 48.858167, 70.9], [2.430604, 48.858142, 71.2], [2.430478, 48.858117, 71.4], [2.430353, 48.858092, 71.7], [2.430227, 48.858068, 71.8], [2.430101, 48.858043, 71.8], [2.429975, 48.858018, 71.8], [2.42997, 48.858017, 71.7], [2.429869, 48.857997, 71.6], [2.429768, 48.857977, 71.5], [2.429762, 48.857976, 71.4], [2.429638, 48.857952, 71.1], [2.429514, 48.857927, 70.9], [2.42939, 48.857903, 70.7], [2.429266, 48.857878, 70.5], [2.429141, 48.857854, 70.3], [2.429017, 48.857829, 70.0], [2.428893, 48.857805, 69.9], [2.428884, 48.857803, 69.8], [2.428769, 48.85778, 69.7], [2.428655, 48.857758, 69.6], [2.428645, 48.857756, 69.5], [2.428548, 48.857737, 69.5], [2.428451, 48.857718, 69.5], [2.428354, 48.857699, 69.5], [2.428246, 48.857689, 69.5], [2.428137, 48.85768, 69.5], [2.428028, 48.85767, 69.6], [2.42792, 48.857661, 69.6], [2.427916, 48.857661, 69.7], [2.427824, 48.857653, 69.7], [2.427731, 48.857645, 69.7], [2.427639, 48.857637, 69.7], [2.427548, 48.857604, 69.6], [2.427413, 48.857594, 69.4], [2.427278, 48.857583, 69.2], [2.427143, 48.857573, 69.1], [2.427136, 48.857573, 69.0], [2.427016, 48.857563, 68.9], [2.426896, 48.857554, 68.7], [2.426777, 48.857545, 68.6], [2.426657, 48.857536, 68.5], [2.426537, 48.857527, 68.4], [2.426417, 48.857518, 68.2], [2.426283, 48.857506, 67.9], [2.426149, 48.857495, 67.7], [2.426014, 48.857483, 67.4], [2.42588, 48.857472, 67.1], [2.425746, 48.85746, 66.8], [2.425611, 48.857449, 66.6], [2.425477, 48.857437, 66.4], [2.425343, 48.857426, 66.3], [2.425309, 48.857423, 66.3], [2.425183, 48.857413, 66.3], [2.425057, 48.857403, 66.4], [2.424931, 48.857393, 66.5], [2.424805, 48.857383, 66.8], [2.42468, 48.857373, 67.1], [2.424554, 48.857363, 67.3], [2.424428, 48.857353, 67.5], [2.424302, 48.857343, 67.5], [2.424176, 48.857334, 67.4], [2.42405, 48.857324, 67.2], [2.423924, 48.857314, 66.9], [2.423804, 48.857302, 66.6], [2.423685, 48.857289, 66.4], [2.423565, 48.857277, 66.1], [2.423445, 48.857265, 65.9], [2.423383, 48.857258, 65.6], [2.423288, 48.857224, 65.5], [2.423193, 48.85719, 65.3], [2.423137, 48.857176, 65.2], [2.423011, 48.857102, 64.7], [2.42295, 48.85705, 64.4], [2.422852, 48.856992, 64.2], [2.422755, 48.856934, 63.9], [2.422657, 48.856876, 63.8], [2.42256, 48.856818, 63.7], [2.422504, 48.856854, 63.7], [2.422531, 48.856841, 63.7]]}}, {"type": "Feature", "properties": {"kind": "step", "n": 1, "instruction": "Partir sur", "name": "Rue René Clément", "length_m": 196, "max_grade_pct": 0.2, "notes": []}, "geometry": {"type": "Point", "coordinates": [2.462161, 48.90228]}}, {"type": "Feature", "properties": {"kind": "step", "n": 2, "instruction": "Tourner à droite sur", "name": "Rue Jean Gabin", "length_m": 129, "max_grade_pct": -0.4, "notes": []}, "geometry": {"type": "Point", "coordinates": [2.464007, 48.901523]}}, {"type": "Feature", "properties": {"kind": "step", "n": 3, "instruction": "Continuer tout droit sur", "name": "Rue Emmanuel Arago", "length_m": 36, "max_grade_pct": -0.1, "notes": []}, "geometry": {"type": "Point", "coordinates": [2.464971, 48.900637]}}, {"type": "Feature", "properties": {"kind": "step", "n": 4, "instruction": "Tourner à droite sur", "name": "Avenue Gallieni", "length_m": 357, "max_grade_pct": 2.0, "notes": []}, "geometry": {"type": "Point", "coordinates": [2.465389, 48.900466]}}, {"type": "Feature", "properties": {"kind": "step", "n": 5, "instruction": "Continuer tout droit sur", "name": "voie sans nom", "length_m": 31, "max_grade_pct": -0.2, "notes": []}, "geometry": {"type": "Point", "coordinates": [2.462507, 48.897878]}}, {"type": "Feature", "properties": {"kind": "step", "n": 6, "instruction": "Continuer tout droit sur", "name": "Avenue Gallieni", "length_m": 211, "max_grade_pct": 4.3, "notes": ["montée sur 69 m (+3 m), pente max 4.3 %"]}, "geometry": {"type": "Point", "coordinates": [2.462381, 48.897688]}}, {"type": "Feature", "properties": {"kind": "step", "n": 7, "instruction": "Légèrement à droite sur", "name": "Place Jean Coquelin", "length_m": 9, "max_grade_pct": 4.2, "notes": []}, "geometry": {"type": "Point", "coordinates": [2.460787, 48.896124]}}, {"type": "Feature", "properties": {"kind": "step", "n": 8, "instruction": "Tourner à gauche sur", "name": "Boulevard de la République", "length_m": 648, "max_grade_pct": 4.0, "notes": ["montée sur 107 m (+5 m), pente max 4.0 %", "descente sur 65 m (pente min -2.5 %)"]}, "geometry": {"type": "Point", "coordinates": [2.460685, 48.896079]}}, {"type": "Feature", "properties": {"kind": "step", "n": 9, "instruction": "Continuer tout droit sur", "name": "Rond-Point du 11 Novembre 1918", "length_m": 36, "max_grade_pct": 0.1, "notes": []}, "geometry": {"type": "Point", "coordinates": [2.467205, 48.892132]}}, {"type": "Feature", "properties": {"kind": "step", "n": 10, "instruction": "Continuer tout droit sur", "name": "Avenue du Général Leclerc", "length_m": 407, "max_grade_pct": 1.7, "notes": []}, "geometry": {"type": "Point", "coordinates": [2.467417, 48.891977]}}, {"type": "Feature", "properties": {"kind": "step", "n": 11, "instruction": "Légèrement à droite sur", "name": "voie sans nom", "length_m": 42, "max_grade_pct": 0.2, "notes": []}, "geometry": {"type": "Point", "coordinates": [2.471051, 48.889209]}}, {"type": "Feature", "properties": {"kind": "step", "n": 12, "instruction": "Légèrement à droite sur", "name": "Rue de Montreuil à Claye", "length_m": 245, "max_grade_pct": 1.2, "notes": []}, "geometry": {"type": "Point", "coordinates": [2.471194, 48.888877]}}, {"type": "Feature", "properties": {"kind": "step", "n": 13, "instruction": "Tourner à gauche sur", "name": "Rue de Brément", "length_m": 116, "max_grade_pct": 1.4, "notes": []}, "geometry": {"type": "Point", "coordinates": [2.470455, 48.886756]}}, {"type": "Feature", "properties": {"kind": "step", "n": 14, "instruction": "Légèrement à droite sur", "name": "Avenue du Général de Gaulle", "length_m": 1065, "max_grade_pct": 1.7, "notes": []}, "geometry": {"type": "Point", "coordinates": [2.471955, 48.886446]}}, {"type": "Feature", "properties": {"kind": "step", "n": 15, "instruction": "Continuer tout droit sur", "name": "Rue de Metz", "length_m": 105, "max_grade_pct": 1.3, "notes": []}, "geometry": {"type": "Point", "coordinates": [2.479218, 48.878154]}}, {"type": "Feature", "properties": {"kind": "step", "n": 16, "instruction": "Continuer tout droit sur", "name": "Avenue du Général de Gaulle", "length_m": 400, "max_grade_pct": 2.7, "notes": ["montée sur 202 m (+8 m), pente max 2.7 %"]}, "geometry": {"type": "Point", "coordinates": [2.479906, 48.877385]}}, {"type": "Feature", "properties": {"kind": "step", "n": 17, "instruction": "Continuer tout droit sur", "name": "Rue du Général Gallieni", "length_m": 283, "max_grade_pct": 1.4, "notes": []}, "geometry": {"type": "Point", "coordinates": [2.482534, 48.874235]}}, {"type": "Feature", "properties": {"kind": "step", "n": 18, "instruction": "Continuer tout droit sur", "name": "Place Émile Lécrivain", "length_m": 17, "max_grade_pct": -0.6, "notes": []}, "geometry": {"type": "Point", "coordinates": [2.485102, 48.872338]}}, {"type": "Feature", "properties": {"kind": "step", "n": 19, "instruction": "Légèrement à droite sur", "name": "Avenue de la République", "length_m": 966, "max_grade_pct": 2.1, "notes": ["montée sur 41 m (+4 m), pente max 2.1 %", "descente sur 291 m (pente min -2.8 %)"]}, "geometry": {"type": "Point", "coordinates": [2.485173, 48.87222]}}, {"type": "Feature", "properties": {"kind": "step", "n": 20, "instruction": "Continuer tout droit sur", "name": "Avenue Victor Hugo / Avenue de la République", "length_m": 270, "max_grade_pct": 1.4, "notes": []}, "geometry": {"type": "Point", "coordinates": [2.482811, 48.863918]}}, {"type": "Feature", "properties": {"kind": "step", "n": 21, "instruction": "Légèrement à droite sur", "name": "voie sans nom", "length_m": 27, "max_grade_pct": 0.8, "notes": []}, "geometry": {"type": "Point", "coordinates": [2.481781, 48.861602]}}, {"type": "Feature", "properties": {"kind": "step", "n": 22, "instruction": "Continuer tout droit sur", "name": "Avenue Victor Hugo", "length_m": 1412, "max_grade_pct": 5.6, "notes": ["montée sur 680 m (+35 m), pente max 5.6 %"]}, "geometry": {"type": "Point", "coordinates": [2.481635, 48.861408]}}, {"type": "Feature", "properties": {"kind": "step", "n": 23, "instruction": "Continuer tout droit sur", "name": "Place du 8 Mai 1945", "length_m": 20, "max_grade_pct": 1.2, "notes": []}, "geometry": {"type": "Point", "coordinates": [2.46995, 48.853789]}}, {"type": "Feature", "properties": {"kind": "step", "n": 24, "instruction": "Tourner à droite sur", "name": "Boulevard de Verdun", "length_m": 169, "max_grade_pct": 2.7, "notes": ["montée sur 107 m (+3 m), pente max 2.7 %"]}, "geometry": {"type": "Point", "coordinates": [2.469724, 48.853686]}}, {"type": "Feature", "properties": {"kind": "step", "n": 25, "instruction": "Tourner à gauche sur", "name": "Rue Édouard Maury", "length_m": 750, "max_grade_pct": 2.5, "notes": ["montée sur 82 m (+5 m), pente max 2.5 %", "descente sur 197 m (pente min -3.9 %)"]}, "geometry": {"type": "Point", "coordinates": [2.468328, 48.854874]}}, {"type": "Feature", "properties": {"kind": "step", "n": 26, "instruction": "Tourner à droite sur", "name": "Avenue Danton", "length_m": 93, "max_grade_pct": 2.4, "notes": []}, "geometry": {"type": "Point", "coordinates": [2.458201, 48.855206]}}, {"type": "Feature", "properties": {"kind": "step", "n": 27, "instruction": "Tourner à gauche sur", "name": "Avenue Parmentier", "length_m": 729, "max_grade_pct": -0.6, "notes": ["descente sur 642 m (pente min -6.5 %)"]}, "geometry": {"type": "Point", "coordinates": [2.457602, 48.855939]}}, {"type": "Feature", "properties": {"kind": "step", "n": 28, "instruction": "Légèrement à droite sur", "name": "Avenue de Stalingrad", "length_m": 71, "max_grade_pct": -2.0, "notes": ["descente sur 71 m (pente min -3.4 %)"]}, "geometry": {"type": "Point", "coordinates": [2.449128, 48.852724]}}, {"type": "Feature", "properties": {"kind": "step", "n": 29, "instruction": "Continuer tout droit sur", "name": "Rue de Stalingrad", "length_m": 399, "max_grade_pct": -0.4, "notes": ["descente sur 167 m (pente min -4.1 %)"]}, "geometry": {"type": "Point", "coordinates": [2.448515, 48.853224]}}, {"type": "Feature", "properties": {"kind": "step", "n": 30, "instruction": "Continuer tout droit sur", "name": "Avenue Gabriel Péri", "length_m": 659, "max_grade_pct": 5.3, "notes": ["montée sur 188 m (+9 m), pente max 5.3 %"]}, "geometry": {"type": "Point", "coordinates": [2.445459, 48.856184]}}, {"type": "Feature", "properties": {"kind": "step", "n": 31, "instruction": "Continuer tout droit sur", "name": "Place Jacques Duclos", "length_m": 99, "max_grade_pct": 1.3, "notes": []}, "geometry": {"type": "Point", "coordinates": [2.436968, 48.858096]}}, {"type": "Feature", "properties": {"kind": "step", "n": 32, "instruction": "Légèrement à droite sur", "name": "Boulevard Chanzy", "length_m": 279, "max_grade_pct": 1.9, "notes": []}, "geometry": {"type": "Point", "coordinates": [2.4357, 48.858054]}}, {"type": "Feature", "properties": {"kind": "step", "n": 33, "instruction": "Légèrement à gauche sur", "name": "Rue Étienne Marcel", "length_m": 337, "max_grade_pct": 0.8, "notes": []}, "geometry": {"type": "Point", "coordinates": [2.432014, 48.858493]}}, {"type": "Feature", "properties": {"kind": "step", "n": 34, "instruction": "Continuer tout droit sur", "name": "piste cyclable", "length_m": 335, "max_grade_pct": 0.9, "notes": ["descente sur 119 m (pente min -3.2 %)"]}, "geometry": {"type": "Point", "coordinates": [2.427639, 48.857637]}}, {"type": "Feature", "properties": {"kind": "step", "n": 35, "instruction": "Continuer tout droit sur", "name": "Place de la Fraternité", "length_m": 54, "max_grade_pct": -2.2, "notes": ["descente sur 54 m (pente min -2.9 %)"]}, "geometry": {"type": "Point", "coordinates": [2.423137, 48.857176]}}, {"type": "Feature", "properties": {"kind": "step", "n": 36, "instruction": "Tourner à droite sur", "name": "Rue Arsène Chéreau", "length_m": 6, "max_grade_pct": -1.8, "notes": []}, "geometry": {"type": "Point", "coordinates": [2.42256, 48.856818]}}]}