<?xml version="1.0" encoding="UTF-8"?>
<gpx version="1.1" creator="itinerary-optim" xmlns="http://www.topografix.com/GPX/1/1">
  <trk>
    <name>Variante +0 % (trajet le plus court)</name>
    <trkseg>
      <trkpt lat="48.902280" lon="2.462161"><ele>57.8</ele></trkpt>
      <trkpt lat="48.902232" lon="2.462183"><ele>57.9</ele></trkpt>
      <trkpt lat="48.902183" lon="2.462204"><ele>57.9</ele></trkpt>
      <trkpt lat="48.902172" lon="2.462210"><ele>57.9</ele></trkpt>
      <trkpt lat="48.902142" lon="2.462224"><ele>57.9</ele></trkpt>
      <trkpt lat="48.902126" lon="2.462231"><ele>57.9</ele></trkpt>
      <trkpt lat="48.902052" lon="2.462263"><ele>57.9</ele></trkpt>
      <trkpt lat="48.901978" lon="2.462296"><ele>57.8</ele></trkpt>
      <trkpt lat="48.901904" lon="2.462329"><ele>57.8</ele></trkpt>
      <trkpt lat="48.901830" lon="2.462361"><ele>57.8</ele></trkpt>
      <trkpt lat="48.901800" lon="2.462404"><ele>57.8</ele></trkpt>
      <trkpt lat="48.901768" lon="2.462448"><ele>57.8</ele></trkpt>
      <trkpt lat="48.901734" lon="2.462495"><ele>57.9</ele></trkpt>
      <trkpt lat="48.901688" lon="2.462563"><ele>57.9</ele></trkpt>
      <trkpt lat="48.901666" lon="2.462596"><ele>57.9</ele></trkpt>
      <trkpt lat="48.901606" lon="2.462686"><ele>58.0</ele></trkpt>
      <trkpt lat="48.901545" lon="2.462777"><ele>58.0</ele></trkpt>
      <trkpt lat="48.901496" lon="2.462851"><ele>58.0</ele></trkpt>
      <trkpt lat="48.901447" lon="2.462925"><ele>58.0</ele></trkpt>
      <trkpt lat="48.901426" lon="2.462955"><ele>58.0</ele></trkpt>
      <trkpt lat="48.901386" lon="2.463010"><ele>58.1</ele></trkpt>
      <trkpt lat="48.901369" lon="2.463078"><ele>58.1</ele></trkpt>
      <trkpt lat="48.901367" lon="2.463089"><ele>58.1</ele></trkpt>
      <trkpt lat="48.901362" lon="2.463107"><ele>58.1</ele></trkpt>
      <trkpt lat="48.901362" lon="2.463144"><ele>58.1</ele></trkpt>
      <trkpt lat="48.901385" lon="2.463268"><ele>58.0</ele></trkpt>
      <trkpt lat="48.901409" lon="2.463392"><ele>58.0</ele></trkpt>
      <trkpt lat="48.901432" lon="2.463516"><ele>57.9</ele></trkpt>
      <trkpt lat="48.901455" lon="2.463639"><ele>57.8</ele></trkpt>
      <trkpt lat="48.901478" lon="2.463763"><ele>57.7</ele></trkpt>
      <trkpt lat="48.901501" lon="2.463887"><ele>57.5</ele></trkpt>
      <trkpt lat="48.901510" lon="2.463937"><ele>57.4</ele></trkpt>
      <trkpt lat="48.901511" lon="2.463938"><ele>57.4</ele></trkpt>
      <trkpt lat="48.901523" lon="2.464007"><ele>57.3</ele></trkpt>
      <trkpt lat="48.901490" lon="2.464023"><ele>57.3</ele></trkpt>
      <trkpt lat="48.901485" lon="2.464025"><ele>57.3</ele></trkpt>
      <trkpt lat="48.901455" lon="2.464040"><ele>57.3</ele></trkpt>
      <trkpt lat="48.901382" lon="2.464075"><ele>57.3</ele></trkpt>
      <trkpt lat="48.901310" lon="2.464110"><ele>57.2</ele></trkpt>
      <trkpt lat="48.901238" lon="2.464145"><ele>57.1</ele></trkpt>
      <trkpt lat="48.901198" lon="2.464165"><ele>57.1</ele></trkpt>
      <trkpt lat="48.901126" lon="2.464199"><ele>57.0</ele></trkpt>
      <trkpt lat="48.901054" lon="2.464234"><ele>56.9</ele></trkpt>
      <trkpt lat="48.900982" lon="2.464269"><ele>56.7</ele></trkpt>
      <trkpt lat="48.900909" lon="2.464303"><ele>56.6</ele></trkpt>
      <trkpt lat="48.900870" lon="2.464368"><ele>56.5</ele></trkpt>
      <trkpt lat="48.900829" lon="2.464477"><ele>56.4</ele></trkpt>
      <trkpt lat="48.900787" lon="2.464585"><ele>56.4</ele></trkpt>
      <trkpt lat="48.900746" lon="2.464693"><ele>56.3</ele></trkpt>
      <trkpt lat="48.900710" lon="2.464786"><ele>56.3</ele></trkpt>
      <trkpt lat="48.900673" lon="2.464878"><ele>56.3</ele></trkpt>
      <trkpt lat="48.900637" lon="2.464971"><ele>56.2</ele></trkpt>
      <trkpt lat="48.900599" lon="2.465064"><ele>56.2</ele></trkpt>
      <trkpt lat="48.900561" lon="2.465158"><ele>56.1</ele></trkpt>
      <trkpt lat="48.900524" lon="2.465251"><ele>56.1</ele></trkpt>
      <trkpt lat="48.900486" lon="2.465345"><ele>56.1</ele></trkpt>
      <trkpt lat="48.900486" lon="2.465345"><ele>56.0</ele></trkpt>
      <trkpt lat="48.900466" lon="2.465389"><ele>56.0</ele></trkpt>
      <trkpt lat="48.900413" lon="2.465331"><ele>56.1</ele></trkpt>
      <trkpt lat="48.900359" lon="2.465273"><ele>56.1</ele></trkpt>
      <trkpt lat="48.900359" lon="2.465272"><ele>56.1</ele></trkpt>
      <trkpt lat="48.900289" lon="2.465191"><ele>56.2</ele></trkpt>
      <trkpt lat="48.900218" lon="2.465110"><ele>56.2</ele></trkpt>
      <trkpt lat="48.900148" lon="2.465029"><ele>56.2</ele></trkpt>
      <trkpt lat="48.900109" lon="2.464992"><ele>56.2</ele></trkpt>
      <trkpt lat="48.900077" lon="2.464960"><ele>56.2</ele></trkpt>
      <trkpt lat="48.900041" lon="2.464930"><ele>56.2</ele></trkpt>
      <trkpt lat="48.899998" lon="2.464891"><ele>56.2</ele></trkpt>
      <trkpt lat="48.899957" lon="2.464847"><ele>56.2</ele></trkpt>
      <trkpt lat="48.899894" lon="2.464777"><ele>56.2</ele></trkpt>
      <trkpt lat="48.899831" lon="2.464708"><ele>56.3</ele></trkpt>
      <trkpt lat="48.899768" lon="2.464638"><ele>56.3</ele></trkpt>
      <trkpt lat="48.899705" lon="2.464569"><ele>56.4</ele></trkpt>
      <trkpt lat="48.899642" lon="2.464499"><ele>56.4</ele></trkpt>
      <trkpt lat="48.899580" lon="2.464430"><ele>56.5</ele></trkpt>
      <trkpt lat="48.899517" lon="2.464360"><ele>56.5</ele></trkpt>
      <trkpt lat="48.899516" lon="2.464359"><ele>56.5</ele></trkpt>
      <trkpt lat="48.899456" lon="2.464294"><ele>56.5</ele></trkpt>
      <trkpt lat="48.899397" lon="2.464228"><ele>56.6</ele></trkpt>
      <trkpt lat="48.899338" lon="2.464163"><ele>56.6</ele></trkpt>
      <trkpt lat="48.899279" lon="2.464097"><ele>56.6</ele></trkpt>
      <trkpt lat="48.899220" lon="2.464032"><ele>56.6</ele></trkpt>
      <trkpt lat="48.899154" lon="2.463959"><ele>56.6</ele></trkpt>
      <trkpt lat="48.899089" lon="2.463885"><ele>56.6</ele></trkpt>
      <trkpt lat="48.899023" lon="2.463812"><ele>56.6</ele></trkpt>
      <trkpt lat="48.898957" lon="2.463739"><ele>56.7</ele></trkpt>
      <trkpt lat="48.898892" lon="2.463666"><ele>56.8</ele></trkpt>
      <trkpt lat="48.898826" lon="2.463592"><ele>56.9</ele></trkpt>
      <trkpt lat="48.898757" lon="2.463515"><ele>57.0</ele></trkpt>
      <trkpt lat="48.898688" lon="2.463438"><ele>57.3</ele></trkpt>
      <trkpt lat="48.898620" lon="2.463361"><ele>57.5</ele></trkpt>
      <trkpt lat="48.898551" lon="2.463284"><ele>57.8</ele></trkpt>
      <trkpt lat="48.898482" lon="2.463207"><ele>58.0</ele></trkpt>
      <trkpt lat="48.898413" lon="2.463130"><ele>58.3</ele></trkpt>
      <trkpt lat="48.898344" lon="2.463053"><ele>58.5</ele></trkpt>
      <trkpt lat="48.898275" lon="2.462976"><ele>58.6</ele></trkpt>
      <trkpt lat="48.898206" lon="2.462899"><ele>58.7</ele></trkpt>
      <trkpt lat="48.898137" lon="2.462822"><ele>58.8</ele></trkpt>
      <trkpt lat="48.898068" lon="2.462745"><ele>58.9</ele></trkpt>
      <trkpt lat="48.897999" lon="2.462668"><ele>58.9</ele></trkpt>
      <trkpt lat="48.897985" lon="2.462648"><ele>58.9</ele></trkpt>
      <trkpt lat="48.897981" lon="2.462644"><ele>58.9</ele></trkpt>
      <trkpt lat="48.897930" lon="2.462575"><ele>58.9</ele></trkpt>
      <trkpt lat="48.897878" lon="2.462507"><ele>58.8</ele></trkpt>
      <trkpt lat="48.897876" lon="2.462444"><ele>58.7</ele></trkpt>
      <trkpt lat="48.897859" lon="2.462388"><ele>58.6</ele></trkpt>
      <trkpt lat="48.897830" lon="2.462346"><ele>58.5</ele></trkpt>
      <trkpt lat="48.897793" lon="2.462323"><ele>58.5</ele></trkpt>
      <trkpt lat="48.897754" lon="2.462323"><ele>58.5</ele></trkpt>
      <trkpt lat="48.897752" lon="2.462322"><ele>58.5</ele></trkpt>
      <trkpt lat="48.897722" lon="2.462338"><ele>58.5</ele></trkpt>
      <trkpt lat="48.897697" lon="2.462367"><ele>58.5</ele></trkpt>
      <trkpt lat="48.897696" lon="2.462368"><ele>58.5</ele></trkpt>
      <trkpt lat="48.897688" lon="2.462381"><ele>58.6</ele></trkpt>
      <trkpt lat="48.897654" lon="2.462369"><ele>58.5</ele></trkpt>
      <trkpt lat="48.897654" lon="2.462369"><ele>58.5</ele></trkpt>
      <trkpt lat="48.897605" lon="2.462353"><ele>58.5</ele></trkpt>
      <trkpt lat="48.897557" lon="2.462337"><ele>58.5</ele></trkpt>
      <trkpt lat="48.897512" lon="2.462275"><ele>58.4</ele></trkpt>
      <trkpt lat="48.897468" lon="2.462212"><ele>58.3</ele></trkpt>
      <trkpt lat="48.897467" lon="2.462211"><ele>58.2</ele></trkpt>
      <trkpt lat="48.897408" lon="2.462138"><ele>58.2</ele></trkpt>
      <trkpt lat="48.897345" lon="2.462068"><ele>58.1</ele></trkpt>
      <trkpt lat="48.897283" lon="2.461998"><ele>58.0</ele></trkpt>
      <trkpt lat="48.897220" lon="2.461928"><ele>58.0</ele></trkpt>
      <trkpt lat="48.897158" lon="2.461859"><ele>58.0</ele></trkpt>
      <trkpt lat="48.897096" lon="2.461789"><ele>58.0</ele></trkpt>
      <trkpt lat="48.897030" lon="2.461710"><ele>58.0</ele></trkpt>
      <trkpt lat="48.896965" lon="2.461631"><ele>58.0</ele></trkpt>
      <trkpt lat="48.896899" lon="2.461552"><ele>58.0</ele></trkpt>
      <trkpt lat="48.896837" lon="2.461478"><ele>58.0</ele></trkpt>
      <trkpt lat="48.896774" lon="2.461404"><ele>58.0</ele></trkpt>
      <trkpt lat="48.896713" lon="2.461333"><ele>58.1</ele></trkpt>
      <trkpt lat="48.896652" lon="2.461263"><ele>58.3</ele></trkpt>
      <trkpt lat="48.896590" lon="2.461193"><ele>58.5</ele></trkpt>
      <trkpt lat="48.896529" lon="2.461122"><ele>58.6</ele></trkpt>
      <trkpt lat="48.896467" lon="2.461052"><ele>58.8</ele></trkpt>
      <trkpt lat="48.896406" lon="2.460982"><ele>59.0</ele></trkpt>
      <trkpt lat="48.896351" lon="2.460943"><ele>59.6</ele></trkpt>
      <trkpt lat="48.896318" lon="2.460917"><ele>59.8</ele></trkpt>
      <trkpt lat="48.896317" lon="2.460917"><ele>60.3</ele></trkpt>
      <trkpt lat="48.896252" lon="2.460875"><ele>60.5</ele></trkpt>
      <trkpt lat="48.896187" lon="2.460834"><ele>60.7</ele></trkpt>
      <trkpt lat="48.896153" lon="2.460818"><ele>60.9</ele></trkpt>
      <trkpt lat="48.896124" lon="2.460787"><ele>61.1</ele></trkpt>
      <trkpt lat="48.896079" lon="2.460685"><ele>61.7</ele></trkpt>
      <trkpt lat="48.896032" lon="2.460592"><ele>61.9</ele></trkpt>
      <trkpt lat="48.896029" lon="2.460586"><ele>62.0</ele></trkpt>
      <trkpt lat="48.895997" lon="2.460547"><ele>62.1</ele></trkpt>
      <trkpt lat="48.895933" lon="2.460460"><ele>62.4</ele></trkpt>
      <trkpt lat="48.895870" lon="2.460374"><ele>62.7</ele></trkpt>
      <trkpt lat="48.895806" lon="2.460288"><ele>62.9</ele></trkpt>
      <trkpt lat="48.895742" lon="2.460202"><ele>63.1</ele></trkpt>
      <trkpt lat="48.895742" lon="2.460202"><ele>63.2</ele></trkpt>
      <trkpt lat="48.895685" lon="2.460124"><ele>63.2</ele></trkpt>
      <trkpt lat="48.895627" lon="2.460047"><ele>63.3</ele></trkpt>
      <trkpt lat="48.895570" lon="2.459969"><ele>63.4</ele></trkpt>
      <trkpt lat="48.895513" lon="2.459892"><ele>63.4</ele></trkpt>
      <trkpt lat="48.895510" lon="2.459888"><ele>63.5</ele></trkpt>
      <trkpt lat="48.895444" lon="2.459799"><ele>63.6</ele></trkpt>
      <trkpt lat="48.895378" lon="2.459709"><ele>63.6</ele></trkpt>
      <trkpt lat="48.895311" lon="2.459620"><ele>63.5</ele></trkpt>
      <trkpt lat="48.895245" lon="2.459530"><ele>63.5</ele></trkpt>
      <trkpt lat="48.895203" lon="2.459462"><ele>63.4</ele></trkpt>
      <trkpt lat="48.895162" lon="2.459393"><ele>63.3</ele></trkpt>
      <trkpt lat="48.895159" lon="2.459389"><ele>63.3</ele></trkpt>
      <trkpt lat="48.895114" lon="2.459306"><ele>63.1</ele></trkpt>
      <trkpt lat="48.895049" lon="2.459215"><ele>63.0</ele></trkpt>
      <trkpt lat="48.894983" lon="2.459124"><ele>62.9</ele></trkpt>
      <trkpt lat="48.894918" lon="2.459032"><ele>62.8</ele></trkpt>
      <trkpt lat="48.894852" lon="2.458941"><ele>62.7</ele></trkpt>
      <trkpt lat="48.894787" lon="2.458850"><ele>62.5</ele></trkpt>
      <trkpt lat="48.894721" lon="2.458759"><ele>62.2</ele></trkpt>
      <trkpt lat="48.894655" lon="2.458668"><ele>61.9</ele></trkpt>
      <trkpt lat="48.894590" lon="2.458577"><ele>61.7</ele></trkpt>
      <trkpt lat="48.894524" lon="2.458486"><ele>61.4</ele></trkpt>
      <trkpt lat="48.894459" lon="2.458395"><ele>61.1</ele></trkpt>
      <trkpt lat="48.894393" lon="2.458303"><ele>60.9</ele></trkpt>
      <trkpt lat="48.894328" lon="2.458212"><ele>60.7</ele></trkpt>
      <trkpt lat="48.894269" lon="2.458134"><ele>60.5</ele></trkpt>
      <trkpt lat="48.894269" lon="2.458134"><ele>60.5</ele></trkpt>
      <trkpt lat="48.894259" lon="2.458121"><ele>60.5</ele></trkpt>
      <trkpt lat="48.894224" lon="2.458060"><ele>60.4</ele></trkpt>
      <trkpt lat="48.894190" lon="2.457999"><ele>60.4</ele></trkpt>
      <trkpt lat="48.894126" lon="2.457912"><ele>60.4</ele></trkpt>
      <trkpt lat="48.894063" lon="2.457824"><ele>60.4</ele></trkpt>
      <trkpt lat="48.893999" lon="2.457737"><ele>60.4</ele></trkpt>
      <trkpt lat="48.893993" lon="2.457729"><ele>60.4</ele></trkpt>
      <trkpt lat="48.893988" lon="2.457722"><ele>60.5</ele></trkpt>
      <trkpt lat="48.893921" lon="2.457631"><ele>60.7</ele></trkpt>
      <trkpt lat="48.893855" lon="2.457541"><ele>61.0</ele></trkpt>
      <trkpt lat="48.893788" lon="2.457450"><ele>61.4</ele></trkpt>
      <trkpt lat="48.893733" lon="2.457391"><ele>61.7</ele></trkpt>
      <trkpt lat="48.893728" lon="2.457385"><ele>62.0</ele></trkpt>
      <trkpt lat="48.893719" lon="2.457377"><ele>62.0</ele></trkpt>
      <trkpt lat="48.893656" lon="2.457320"><ele>62.0</ele></trkpt>
      <trkpt lat="48.893611" lon="2.457268"><ele>62.5</ele></trkpt>
      <trkpt lat="48.893566" lon="2.457216"><ele>62.6</ele></trkpt>
      <trkpt lat="48.893565" lon="2.457214"><ele>62.7</ele></trkpt>
      <trkpt lat="48.893557" lon="2.457206"><ele>62.9</ele></trkpt>
      <trkpt lat="48.893494" lon="2.457127"><ele>63.1</ele></trkpt>
      <trkpt lat="48.893431" lon="2.457048"><ele>63.4</ele></trkpt>
      <trkpt lat="48.893368" lon="2.456970"><ele>63.7</ele></trkpt>
      <trkpt lat="48.893304" lon="2.456891"><ele>63.9</ele></trkpt>
      <trkpt lat="48.893241" lon="2.456813"><ele>64.1</ele></trkpt>
      <trkpt lat="48.893240" lon="2.456812"><ele>64.1</ele></trkpt>
      <trkpt lat="48.893233" lon="2.456803"><ele>64.1</ele></trkpt>
      <trkpt lat="48.893204" lon="2.456766"><ele>64.2</ele></trkpt>
      <trkpt lat="48.893204" lon="2.456765"><ele>64.2</ele></trkpt>
      <trkpt lat="48.893174" lon="2.456727"><ele>64.2</ele></trkpt>
      <trkpt lat="48.893150" lon="2.456696"><ele>64.3</ele></trkpt>
      <trkpt lat="48.893150" lon="2.456696"><ele>64.3</ele></trkpt>
      <trkpt lat="48.893142" lon="2.456687"><ele>64.3</ele></trkpt>
      <trkpt lat="48.893081" lon="2.456608"><ele>64.3</ele></trkpt>
      <trkpt lat="48.893019" lon="2.456530"><ele>64.3</ele></trkpt>
      <trkpt lat="48.892957" lon="2.456452"><ele>64.3</ele></trkpt>
      <trkpt lat="48.892895" lon="2.456373"><ele>64.3</ele></trkpt>
      <trkpt lat="48.892841" lon="2.456306"><ele>64.3</ele></trkpt>
      <trkpt lat="48.892841" lon="2.456305"><ele>64.3</ele></trkpt>
      <trkpt lat="48.892831" lon="2.456292"><ele>64.2</ele></trkpt>
      <trkpt lat="48.892769" lon="2.456215"><ele>64.2</ele></trkpt>
      <trkpt lat="48.892706" lon="2.456138"><ele>64.1</ele></trkpt>
      <trkpt lat="48.892644" lon="2.456061"><ele>64.1</ele></trkpt>
      <trkpt lat="48.892582" lon="2.455984"><ele>64.0</ele></trkpt>
      <trkpt lat="48.892530" lon="2.455920"><ele>64.0</ele></trkpt>
      <trkpt lat="48.892479" lon="2.455856"><ele>64.1</ele></trkpt>
      <trkpt lat="48.892478" lon="2.455855"><ele>64.1</ele></trkpt>
      <trkpt lat="48.892471" lon="2.455847"><ele>64.1</ele></trkpt>
      <trkpt lat="48.892418" lon="2.455774"><ele>64.1</ele></trkpt>
      <trkpt lat="48.892361" lon="2.455701"><ele>64.2</ele></trkpt>
      <trkpt lat="48.892360" lon="2.455701"><ele>64.2</ele></trkpt>
      <trkpt lat="48.892355" lon="2.455694"><ele>64.2</ele></trkpt>
      <trkpt lat="48.892299" lon="2.455627"><ele>64.2</ele></trkpt>
      <trkpt lat="48.892243" lon="2.455559"><ele>64.3</ele></trkpt>
      <trkpt lat="48.892187" lon="2.455492"><ele>64.4</ele></trkpt>
      <trkpt lat="48.892131" lon="2.455424"><ele>64.4</ele></trkpt>
      <trkpt lat="48.892128" lon="2.455421"><ele>64.5</ele></trkpt>
      <trkpt lat="48.892126" lon="2.455418"><ele>64.5</ele></trkpt>
      <trkpt lat="48.892059" lon="2.455334"><ele>64.6</ele></trkpt>
      <trkpt lat="48.891993" lon="2.455250"><ele>64.8</ele></trkpt>
      <trkpt lat="48.891927" lon="2.455166"><ele>64.9</ele></trkpt>
      <trkpt lat="48.891860" lon="2.455082"><ele>65.1</ele></trkpt>
      <trkpt lat="48.891857" lon="2.455077"><ele>65.2</ele></trkpt>
      <trkpt lat="48.891816" lon="2.455020"><ele>65.3</ele></trkpt>
      <trkpt lat="48.891764" lon="2.454952"><ele>65.4</ele></trkpt>
      <trkpt lat="48.891711" lon="2.454884"><ele>65.5</ele></trkpt>
      <trkpt lat="48.891677" lon="2.454826"><ele>65.6</ele></trkpt>
      <trkpt lat="48.891644" lon="2.454767"><ele>65.6</ele></trkpt>
      <trkpt lat="48.891595" lon="2.454704"><ele>65.7</ele></trkpt>
      <trkpt lat="48.891546" lon="2.454641"><ele>65.7</ele></trkpt>
      <trkpt lat="48.891497" lon="2.454578"><ele>65.7</ele></trkpt>
      <trkpt lat="48.891496" lon="2.454576"><ele>65.8</ele></trkpt>
      <trkpt lat="48.891436" lon="2.454502"><ele>65.8</ele></trkpt>
      <trkpt lat="48.891376" lon="2.454427"><ele>65.9</ele></trkpt>
      <trkpt lat="48.891316" lon="2.454353"><ele>66.0</ele></trkpt>
      <trkpt lat="48.891256" lon="2.454278"><ele>66.1</ele></trkpt>
      <trkpt lat="48.891191" lon="2.454196"><ele>66.3</ele></trkpt>
      <trkpt lat="48.891126" lon="2.454113"><ele>66.5</ele></trkpt>
      <trkpt lat="48.891061" lon="2.454031"><ele>66.7</ele></trkpt>
      <trkpt lat="48.890996" lon="2.453948"><ele>66.9</ele></trkpt>
      <trkpt lat="48.890931" lon="2.453866"><ele>67.2</ele></trkpt>
      <trkpt lat="48.890866" lon="2.453783"><ele>67.4</ele></trkpt>
      <trkpt lat="48.890801" lon="2.453700"><ele>67.5</ele></trkpt>
      <trkpt lat="48.890801" lon="2.453700"><ele>67.6</ele></trkpt>
      <trkpt lat="48.890794" lon="2.453691"><ele>67.7</ele></trkpt>
      <trkpt lat="48.890723" lon="2.453608"><ele>67.9</ele></trkpt>
      <trkpt lat="48.890652" lon="2.453524"><ele>68.1</ele></trkpt>
      <trkpt lat="48.890581" lon="2.453441"><ele>68.2</ele></trkpt>
      <trkpt lat="48.890511" lon="2.453358"><ele>68.3</ele></trkpt>
      <trkpt lat="48.890440" lon="2.453275"><ele>68.4</ele></trkpt>
      <trkpt lat="48.890369" lon="2.453191"><ele>68.5</ele></trkpt>
      <trkpt lat="48.890298" lon="2.453108"><ele>68.6</ele></trkpt>
      <trkpt lat="48.890293" lon="2.453099"><ele>68.6</ele></trkpt>
      <trkpt lat="48.890240" lon="2.453015"><ele>68.7</ele></trkpt>
      <trkpt lat="48.890188" lon="2.452930"><ele>68.8</ele></trkpt>
      <trkpt lat="48.890151" lon="2.452857"><ele>69.0</ele></trkpt>
      <trkpt lat="48.890114" lon="2.452783"><ele>69.1</ele></trkpt>
      <trkpt lat="48.890052" lon="2.452703"><ele>69.3</ele></trkpt>
      <trkpt lat="48.890052" lon="2.452702"><ele>69.3</ele></trkpt>
      <trkpt lat="48.889991" lon="2.452628"><ele>69.6</ele></trkpt>
      <trkpt lat="48.889931" lon="2.452554"><ele>69.8</ele></trkpt>
      <trkpt lat="48.889871" lon="2.452480"><ele>70.0</ele></trkpt>
      <trkpt lat="48.889810" lon="2.452406"><ele>70.2</ele></trkpt>
      <trkpt lat="48.889750" lon="2.452331"><ele>70.4</ele></trkpt>
      <trkpt lat="48.889690" lon="2.452257"><ele>70.6</ele></trkpt>
      <trkpt lat="48.889629" lon="2.452183"><ele>70.7</ele></trkpt>
      <trkpt lat="48.889625" lon="2.452176"><ele>70.8</ele></trkpt>
      <trkpt lat="48.889587" lon="2.452114"><ele>71.0</ele></trkpt>
      <trkpt lat="48.889549" lon="2.452052"><ele>71.1</ele></trkpt>
      <trkpt lat="48.889488" lon="2.451999"><ele>71.3</ele></trkpt>
      <trkpt lat="48.889436" lon="2.451922"><ele>71.4</ele></trkpt>
      <trkpt lat="48.889432" lon="2.451917"><ele>71.5</ele></trkpt>
      <trkpt lat="48.889370" lon="2.451835"><ele>71.9</ele></trkpt>
      <trkpt lat="48.889308" lon="2.451754"><ele>72.3</ele></trkpt>
      <trkpt lat="48.889246" lon="2.451673"><ele>72.6</ele></trkpt>
      <trkpt lat="48.889184" lon="2.451591"><ele>73.0</ele></trkpt>
      <trkpt lat="48.889122" lon="2.451510"><ele>73.3</ele></trkpt>
      <trkpt lat="48.889060" lon="2.451429"><ele>73.7</ele></trkpt>
      <trkpt lat="48.888998" lon="2.451347"><ele>73.9</ele></trkpt>
      <trkpt lat="48.888996" lon="2.451343"><ele>74.0</ele></trkpt>
      <trkpt lat="48.888956" lon="2.451272"><ele>74.3</ele></trkpt>
      <trkpt lat="48.888897" lon="2.451197"><ele>74.6</ele></trkpt>
      <trkpt lat="48.888838" lon="2.451122"><ele>74.8</ele></trkpt>
      <trkpt lat="48.888779" lon="2.451046"><ele>75.1</ele></trkpt>
      <trkpt lat="48.888721" lon="2.450971"><ele>75.4</ele></trkpt>
      <trkpt lat="48.888662" lon="2.450895"><ele>75.8</ele></trkpt>
      <trkpt lat="48.888603" lon="2.450820"><ele>76.1</ele></trkpt>
      <trkpt lat="48.888550" lon="2.450737"><ele>76.5</ele></trkpt>
      <trkpt lat="48.888497" lon="2.450653"><ele>76.9</ele></trkpt>
      <trkpt lat="48.888444" lon="2.450570"><ele>77.4</ele></trkpt>
      <trkpt lat="48.888391" lon="2.450486"><ele>77.8</ele></trkpt>
      <trkpt lat="48.888337" lon="2.450411"><ele>78.7</ele></trkpt>
      <trkpt lat="48.888283" lon="2.450337"><ele>79.2</ele></trkpt>
      <trkpt lat="48.888229" lon="2.450262"><ele>79.7</ele></trkpt>
      <trkpt lat="48.888175" lon="2.450187"><ele>80.2</ele></trkpt>
      <trkpt lat="48.888121" lon="2.450113"><ele>80.6</ele></trkpt>
      <trkpt lat="48.888060" lon="2.450029"><ele>81.0</ele></trkpt>
      <trkpt lat="48.887999" lon="2.449944"><ele>81.3</ele></trkpt>
      <trkpt lat="48.887938" lon="2.449860"><ele>81.5</ele></trkpt>
      <trkpt lat="48.887876" lon="2.449776"><ele>81.6</ele></trkpt>
      <trkpt lat="48.887815" lon="2.449692"><ele>81.7</ele></trkpt>
      <trkpt lat="48.887802" lon="2.449673"><ele>81.9</ele></trkpt>
      <trkpt lat="48.887735" lon="2.449587"><ele>82.1</ele></trkpt>
      <trkpt lat="48.887669" lon="2.449501"><ele>82.3</ele></trkpt>
      <trkpt lat="48.887603" lon="2.449415"><ele>82.7</ele></trkpt>
      <trkpt lat="48.887536" lon="2.449329"><ele>83.1</ele></trkpt>
      <trkpt lat="48.887470" lon="2.449243"><ele>83.6</ele></trkpt>
      <trkpt lat="48.887404" lon="2.449157"><ele>84.1</ele></trkpt>
      <trkpt lat="48.887345" lon="2.449126"><ele>84.6</ele></trkpt>
      <trkpt lat="48.887286" lon="2.449095"><ele>85.1</ele></trkpt>
      <trkpt lat="48.887223" lon="2.449036"><ele>85.6</ele></trkpt>
      <trkpt lat="48.887159" lon="2.448976"><ele>86.0</ele></trkpt>
      <trkpt lat="48.887096" lon="2.448916"><ele>86.4</ele></trkpt>
      <trkpt lat="48.887035" lon="2.448833"><ele>86.7</ele></trkpt>
      <trkpt lat="48.886974" lon="2.448750"><ele>86.8</ele></trkpt>
      <trkpt lat="48.886935" lon="2.448687"><ele>87.0</ele></trkpt>
      <trkpt lat="48.886935" lon="2.448686"><ele>87.0</ele></trkpt>
      <trkpt lat="48.886873" lon="2.448589"><ele>87.2</ele></trkpt>
      <trkpt lat="48.886811" lon="2.448491"><ele>87.3</ele></trkpt>
      <trkpt lat="48.886749" lon="2.448393"><ele>87.5</ele></trkpt>
      <trkpt lat="48.886709" lon="2.448309"><ele>87.6</ele></trkpt>
      <trkpt lat="48.886668" lon="2.448226"><ele>87.6</ele></trkpt>
      <trkpt lat="48.886655" lon="2.448175"><ele>87.7</ele></trkpt>
      <trkpt lat="48.886653" lon="2.448170"><ele>87.7</ele></trkpt>
      <trkpt lat="48.886628" lon="2.448077"><ele>87.7</ele></trkpt>
      <trkpt lat="48.886603" lon="2.447984"><ele>87.7</ele></trkpt>
      <trkpt lat="48.886583" lon="2.447869"><ele>87.6</ele></trkpt>
      <trkpt lat="48.886563" lon="2.447754"><ele>87.6</ele></trkpt>
      <trkpt lat="48.886544" lon="2.447640"><ele>87.7</ele></trkpt>
      <trkpt lat="48.886543" lon="2.447640"><ele>87.7</ele></trkpt>
      <trkpt lat="48.886523" lon="2.447525"><ele>88.0</ele></trkpt>
      <trkpt lat="48.886503" lon="2.447410"><ele>88.2</ele></trkpt>
      <trkpt lat="48.886492" lon="2.447332"><ele>88.5</ele></trkpt>
      <trkpt lat="48.886492" lon="2.447332"><ele>88.6</ele></trkpt>
      <trkpt lat="48.886474" lon="2.447228"><ele>89.1</ele></trkpt>
      <trkpt lat="48.886456" lon="2.447124"><ele>89.3</ele></trkpt>
      <trkpt lat="48.886434" lon="2.446999"><ele>90.2</ele></trkpt>
      <trkpt lat="48.886412" lon="2.446873"><ele>90.5</ele></trkpt>
      <trkpt lat="48.886412" lon="2.446872"><ele>90.8</ele></trkpt>
      <trkpt lat="48.886392" lon="2.446770"><ele>91.2</ele></trkpt>
      <trkpt lat="48.886372" lon="2.446668"><ele>91.7</ele></trkpt>
      <trkpt lat="48.886350" lon="2.446555"><ele>92.3</ele></trkpt>
      <trkpt lat="48.886328" lon="2.446442"><ele>92.9</ele></trkpt>
      <trkpt lat="48.886305" lon="2.446329"><ele>93.5</ele></trkpt>
      <trkpt lat="48.886283" lon="2.446216"><ele>93.9</ele></trkpt>
      <trkpt lat="48.886271" lon="2.446093"><ele>94.9</ele></trkpt>
      <trkpt lat="48.886259" lon="2.445969"><ele>95.5</ele></trkpt>
      <trkpt lat="48.886259" lon="2.445969"><ele>96.1</ele></trkpt>
      <trkpt lat="48.886240" lon="2.445860"><ele>96.4</ele></trkpt>
      <trkpt lat="48.886243" lon="2.445774"><ele>96.8</ele></trkpt>
      <trkpt lat="48.886253" lon="2.445716"><ele>97.1</ele></trkpt>
      <trkpt lat="48.886288" lon="2.445595"><ele>98.7</ele></trkpt>
      <trkpt lat="48.886238" lon="2.445524"><ele>98.8</ele></trkpt>
      <trkpt lat="48.886181" lon="2.445451"><ele>98.9</ele></trkpt>
      <trkpt lat="48.886124" lon="2.445378"><ele>99.2</ele></trkpt>
      <trkpt lat="48.886075" lon="2.445281"><ele>99.6</ele></trkpt>
      <trkpt lat="48.886025" lon="2.445184"><ele>99.9</ele></trkpt>
      <trkpt lat="48.885985" lon="2.445072"><ele>101.1</ele></trkpt>
      <trkpt lat="48.885944" lon="2.444960"><ele>101.7</ele></trkpt>
      <trkpt lat="48.885904" lon="2.444848"><ele>102.3</ele></trkpt>
      <trkpt lat="48.885863" lon="2.444736"><ele>102.8</ele></trkpt>
      <trkpt lat="48.885823" lon="2.444624"><ele>103.2</ele></trkpt>
      <trkpt lat="48.885782" lon="2.444512"><ele>103.8</ele></trkpt>
      <trkpt lat="48.885741" lon="2.444400"><ele>104.3</ele></trkpt>
      <trkpt lat="48.885701" lon="2.444288"><ele>104.8</ele></trkpt>
      <trkpt lat="48.885660" lon="2.444177"><ele>105.3</ele></trkpt>
      <trkpt lat="48.885622" lon="2.444060"><ele>105.7</ele></trkpt>
      <trkpt lat="48.885583" lon="2.443944"><ele>106.1</ele></trkpt>
      <trkpt lat="48.885545" lon="2.443828"><ele>106.5</ele></trkpt>
      <trkpt lat="48.885506" lon="2.443712"><ele>106.8</ele></trkpt>
      <trkpt lat="48.885496" lon="2.443682"><ele>107.0</ele></trkpt>
      <trkpt lat="48.885489" lon="2.443661"><ele>107.3</ele></trkpt>
      <trkpt lat="48.885447" lon="2.443540"><ele>107.7</ele></trkpt>
      <trkpt lat="48.885405" lon="2.443420"><ele>108.2</ele></trkpt>
      <trkpt lat="48.885364" lon="2.443299"><ele>108.6</ele></trkpt>
      <trkpt lat="48.885322" lon="2.443178"><ele>109.0</ele></trkpt>
      <trkpt lat="48.885280" lon="2.443058"><ele>109.6</ele></trkpt>
      <trkpt lat="48.885239" lon="2.442937"><ele>110.2</ele></trkpt>
      <trkpt lat="48.885197" lon="2.442816"><ele>110.8</ele></trkpt>
      <trkpt lat="48.885155" lon="2.442696"><ele>111.4</ele></trkpt>
      <trkpt lat="48.885114" lon="2.442575"><ele>111.9</ele></trkpt>
      <trkpt lat="48.885072" lon="2.442454"><ele>112.2</ele></trkpt>
      <trkpt lat="48.885058" lon="2.442414"><ele>112.5</ele></trkpt>
      <trkpt lat="48.885021" lon="2.442295"><ele>112.7</ele></trkpt>
      <trkpt lat="48.884984" lon="2.442177"><ele>113.1</ele></trkpt>
      <trkpt lat="48.884947" lon="2.442058"><ele>113.4</ele></trkpt>
      <trkpt lat="48.884910" lon="2.441940"><ele>113.8</ele></trkpt>
      <trkpt lat="48.884877" lon="2.441845"><ele>114.1</ele></trkpt>
      <trkpt lat="48.884843" lon="2.441750"><ele>114.4</ele></trkpt>
      <trkpt lat="48.884810" lon="2.441655"><ele>114.7</ele></trkpt>
      <trkpt lat="48.884777" lon="2.441560"><ele>114.9</ele></trkpt>
      <trkpt lat="48.884745" lon="2.441496"><ele>115.1</ele></trkpt>
      <trkpt lat="48.884714" lon="2.441432"><ele>115.3</ele></trkpt>
      <trkpt lat="48.884654" lon="2.441350"><ele>115.5</ele></trkpt>
      <trkpt lat="48.884594" lon="2.441267"><ele>115.7</ele></trkpt>
      <trkpt lat="48.884553" lon="2.441215"><ele>115.9</ele></trkpt>
      <trkpt lat="48.884513" lon="2.441163"><ele>116.0</ele></trkpt>
      <trkpt lat="48.884508" lon="2.441155"><ele>116.1</ele></trkpt>
      <trkpt lat="48.884499" lon="2.441144"><ele>116.3</ele></trkpt>
      <trkpt lat="48.884465" lon="2.441100"><ele>116.3</ele></trkpt>
      <trkpt lat="48.884460" lon="2.441095"><ele>116.4</ele></trkpt>
      <trkpt lat="48.884427" lon="2.441051"><ele>116.4</ele></trkpt>
      <trkpt lat="48.884403" lon="2.440940"><ele>116.7</ele></trkpt>
      <trkpt lat="48.884373" lon="2.440863"><ele>116.8</ele></trkpt>
      <trkpt lat="48.884332" lon="2.440828"><ele>117.1</ele></trkpt>
      <trkpt lat="48.884275" lon="2.440794"><ele>117.2</ele></trkpt>
      <trkpt lat="48.884217" lon="2.440761"><ele>117.3</ele></trkpt>
      <trkpt lat="48.884142" lon="2.440716"><ele>117.4</ele></trkpt>
      <trkpt lat="48.884066" lon="2.440672"><ele>117.5</ele></trkpt>
      <trkpt lat="48.884025" lon="2.440655"><ele>117.6</ele></trkpt>
      <trkpt lat="48.884020" lon="2.440653"><ele>117.6</ele></trkpt>
      <trkpt lat="48.883998" lon="2.440644"><ele>117.7</ele></trkpt>
      <trkpt lat="48.883933" lon="2.440641"><ele>117.7</ele></trkpt>
      <trkpt lat="48.883882" lon="2.440697"><ele>117.7</ele></trkpt>
      <trkpt lat="48.883830" lon="2.440754"><ele>117.7</ele></trkpt>
      <trkpt lat="48.883780" lon="2.440791"><ele>117.7</ele></trkpt>
      <trkpt lat="48.883729" lon="2.440829"><ele>117.8</ele></trkpt>
      <trkpt lat="48.883662" lon="2.440844"><ele>117.8</ele></trkpt>
      <trkpt lat="48.883595" lon="2.440860"><ele>117.9</ele></trkpt>
      <trkpt lat="48.883582" lon="2.440863"><ele>118.0</ele></trkpt>
      <trkpt lat="48.883515" lon="2.440867"><ele>118.0</ele></trkpt>
      <trkpt lat="48.883446" lon="2.440879"><ele>118.1</ele></trkpt>
      <trkpt lat="48.883378" lon="2.440891"><ele>118.2</ele></trkpt>
      <trkpt lat="48.883309" lon="2.440903"><ele>118.3</ele></trkpt>
      <trkpt lat="48.883221" lon="2.440912"><ele>118.5</ele></trkpt>
      <trkpt lat="48.883134" lon="2.440921"><ele>118.7</ele></trkpt>
      <trkpt lat="48.883046" lon="2.440930"><ele>118.9</ele></trkpt>
      <trkpt lat="48.882959" lon="2.440939"><ele>119.2</ele></trkpt>
      <trkpt lat="48.882871" lon="2.440948"><ele>119.4</ele></trkpt>
      <trkpt lat="48.882784" lon="2.440957"><ele>119.7</ele></trkpt>
      <trkpt lat="48.882696" lon="2.440966"><ele>120.0</ele></trkpt>
      <trkpt lat="48.882608" lon="2.440975"><ele>120.3</ele></trkpt>
      <trkpt lat="48.882521" lon="2.440984"><ele>120.5</ele></trkpt>
      <trkpt lat="48.882433" lon="2.440993"><ele>120.6</ele></trkpt>
      <trkpt lat="48.882429" lon="2.440993"><ele>120.7</ele></trkpt>
      <trkpt lat="48.882361" lon="2.441001"><ele>120.8</ele></trkpt>
      <trkpt lat="48.882293" lon="2.441009"><ele>120.8</ele></trkpt>
      <trkpt lat="48.882226" lon="2.441016"><ele>120.8</ele></trkpt>
      <trkpt lat="48.882144" lon="2.441021"><ele>120.8</ele></trkpt>
      <trkpt lat="48.882062" lon="2.441027"><ele>120.8</ele></trkpt>
      <trkpt lat="48.881980" lon="2.441032"><ele>120.7</ele></trkpt>
      <trkpt lat="48.881901" lon="2.441039"><ele>120.6</ele></trkpt>
      <trkpt lat="48.881822" lon="2.441046"><ele>120.5</ele></trkpt>
      <trkpt lat="48.881743" lon="2.441053"><ele>120.4</ele></trkpt>
      <trkpt lat="48.881664" lon="2.441060"><ele>120.3</ele></trkpt>
      <trkpt lat="48.881585" lon="2.441067"><ele>120.2</ele></trkpt>
      <trkpt lat="48.881506" lon="2.441074"><ele>120.2</ele></trkpt>
      <trkpt lat="48.881427" lon="2.441081"><ele>120.1</ele></trkpt>
      <trkpt lat="48.881427" lon="2.441081"><ele>120.1</ele></trkpt>
      <trkpt lat="48.881369" lon="2.441082"><ele>120.1</ele></trkpt>
      <trkpt lat="48.881312" lon="2.441083"><ele>120.1</ele></trkpt>
      <trkpt lat="48.881266" lon="2.441090"><ele>120.1</ele></trkpt>
      <trkpt lat="48.881220" lon="2.441097"><ele>120.1</ele></trkpt>
      <trkpt lat="48.881131" lon="2.441112"><ele>120.0</ele></trkpt>
      <trkpt lat="48.881042" lon="2.441127"><ele>120.0</ele></trkpt>
      <trkpt lat="48.881042" lon="2.441127"><ele>120.0</ele></trkpt>
      <trkpt lat="48.880956" lon="2.441136"><ele>120.0</ele></trkpt>
      <trkpt lat="48.880870" lon="2.441144"><ele>120.0</ele></trkpt>
      <trkpt lat="48.880784" lon="2.441152"><ele>119.9</ele></trkpt>
      <trkpt lat="48.880698" lon="2.441160"><ele>119.9</ele></trkpt>
      <trkpt lat="48.880612" lon="2.441168"><ele>119.9</ele></trkpt>
      <trkpt lat="48.880526" lon="2.441176"><ele>119.9</ele></trkpt>
      <trkpt lat="48.880440" lon="2.441185"><ele>119.9</ele></trkpt>
      <trkpt lat="48.880354" lon="2.441193"><ele>119.9</ele></trkpt>
      <trkpt lat="48.880268" lon="2.441201"><ele>119.9</ele></trkpt>
      <trkpt lat="48.880182" lon="2.441209"><ele>119.9</ele></trkpt>
      <trkpt lat="48.880096" lon="2.441217"><ele>119.8</ele></trkpt>
      <trkpt lat="48.880096" lon="2.441217"><ele>119.8</ele></trkpt>
      <trkpt lat="48.880031" lon="2.441224"><ele>119.8</ele></trkpt>
      <trkpt lat="48.879967" lon="2.441231"><ele>119.8</ele></trkpt>
      <trkpt lat="48.879902" lon="2.441237"><ele>119.8</ele></trkpt>
      <trkpt lat="48.879856" lon="2.441245"><ele>119.8</ele></trkpt>
      <trkpt lat="48.879811" lon="2.441252"><ele>119.7</ele></trkpt>
      <trkpt lat="48.879772" lon="2.441141"><ele>119.8</ele></trkpt>
      <trkpt lat="48.879768" lon="2.441129"><ele>119.8</ele></trkpt>
      <trkpt lat="48.879708" lon="2.441039"><ele>119.8</ele></trkpt>
      <trkpt lat="48.879644" lon="2.440945"><ele>119.8</ele></trkpt>
      <trkpt lat="48.879581" lon="2.440850"><ele>119.7</ele></trkpt>
      <trkpt lat="48.879517" lon="2.440756"><ele>119.6</ele></trkpt>
      <trkpt lat="48.879453" lon="2.440662"><ele>119.5</ele></trkpt>
      <trkpt lat="48.879389" lon="2.440567"><ele>119.4</ele></trkpt>
      <trkpt lat="48.879326" lon="2.440473"><ele>119.3</ele></trkpt>
      <trkpt lat="48.879262" lon="2.440379"><ele>119.3</ele></trkpt>
      <trkpt lat="48.879198" lon="2.440284"><ele>119.3</ele></trkpt>
      <trkpt lat="48.879135" lon="2.440190"><ele>119.3</ele></trkpt>
      <trkpt lat="48.879071" lon="2.440096"><ele>119.4</ele></trkpt>
      <trkpt lat="48.879007" lon="2.440001"><ele>119.5</ele></trkpt>
      <trkpt lat="48.878943" lon="2.439907"><ele>119.6</ele></trkpt>
      <trkpt lat="48.878880" lon="2.439813"><ele>119.7</ele></trkpt>
      <trkpt lat="48.878816" lon="2.439718"><ele>119.8</ele></trkpt>
      <trkpt lat="48.878752" lon="2.439624"><ele>119.9</ele></trkpt>
      <trkpt lat="48.878752" lon="2.439624"><ele>120.0</ele></trkpt>
      <trkpt lat="48.878701" lon="2.439548"><ele>120.0</ele></trkpt>
      <trkpt lat="48.878660" lon="2.439595"><ele>120.1</ele></trkpt>
      <trkpt lat="48.878660" lon="2.439595"><ele>120.1</ele></trkpt>
      <trkpt lat="48.878604" lon="2.439658"><ele>120.3</ele></trkpt>
      <trkpt lat="48.878548" lon="2.439720"><ele>120.5</ele></trkpt>
      <trkpt lat="48.878493" lon="2.439782"><ele>120.7</ele></trkpt>
      <trkpt lat="48.878437" lon="2.439845"><ele>120.8</ele></trkpt>
      <trkpt lat="48.878437" lon="2.439845"><ele>120.9</ele></trkpt>
      <trkpt lat="48.878401" lon="2.439782"><ele>121.0</ele></trkpt>
      <trkpt lat="48.878376" lon="2.439714"><ele>121.1</ele></trkpt>
      <trkpt lat="48.878370" lon="2.439704"><ele>121.1</ele></trkpt>
      <trkpt lat="48.878367" lon="2.439699"><ele>121.1</ele></trkpt>
      <trkpt lat="48.878310" lon="2.439611"><ele>121.1</ele></trkpt>
      <trkpt lat="48.878252" lon="2.439522"><ele>121.2</ele></trkpt>
      <trkpt lat="48.878194" lon="2.439434"><ele>121.2</ele></trkpt>
      <trkpt lat="48.878193" lon="2.439432"><ele>121.1</ele></trkpt>
      <trkpt lat="48.878131" lon="2.439336"><ele>121.1</ele></trkpt>
      <trkpt lat="48.878068" lon="2.439239"><ele>121.0</ele></trkpt>
      <trkpt lat="48.878006" lon="2.439143"><ele>121.0</ele></trkpt>
      <trkpt lat="48.877943" lon="2.439047"><ele>120.8</ele></trkpt>
      <trkpt lat="48.877881" lon="2.438951"><ele>120.7</ele></trkpt>
      <trkpt lat="48.877819" lon="2.438855"><ele>120.5</ele></trkpt>
      <trkpt lat="48.877756" lon="2.438759"><ele>120.4</ele></trkpt>
      <trkpt lat="48.877694" lon="2.438663"><ele>120.2</ele></trkpt>
      <trkpt lat="48.877682" lon="2.438643"><ele>120.2</ele></trkpt>
      <trkpt lat="48.877679" lon="2.438638"><ele>120.2</ele></trkpt>
      <trkpt lat="48.877633" lon="2.438557"><ele>119.8</ele></trkpt>
      <trkpt lat="48.877586" lon="2.438477"><ele>119.6</ele></trkpt>
      <trkpt lat="48.877540" lon="2.438396"><ele>119.4</ele></trkpt>
      <trkpt lat="48.877493" lon="2.438316"><ele>119.2</ele></trkpt>
      <trkpt lat="48.877460" lon="2.438255"><ele>119.1</ele></trkpt>
      <trkpt lat="48.877460" lon="2.438255"><ele>119.1</ele></trkpt>
      <trkpt lat="48.877419" lon="2.438301"><ele>119.1</ele></trkpt>
      <trkpt lat="48.877378" lon="2.438346"><ele>119.1</ele></trkpt>
      <trkpt lat="48.877338" lon="2.438293"><ele>119.1</ele></trkpt>
      <trkpt lat="48.877338" lon="2.438293"><ele>119.0</ele></trkpt>
      <trkpt lat="48.877278" lon="2.438214"><ele>118.6</ele></trkpt>
      <trkpt lat="48.877219" lon="2.438136"><ele>118.3</ele></trkpt>
      <trkpt lat="48.877159" lon="2.438058"><ele>118.0</ele></trkpt>
      <trkpt lat="48.877100" lon="2.437979"><ele>117.6</ele></trkpt>
      <trkpt lat="48.877040" lon="2.437901"><ele>117.4</ele></trkpt>
      <trkpt lat="48.876981" lon="2.437822"><ele>117.2</ele></trkpt>
      <trkpt lat="48.876919" lon="2.437733"><ele>116.9</ele></trkpt>
      <trkpt lat="48.876857" lon="2.437643"><ele>116.8</ele></trkpt>
      <trkpt lat="48.876795" lon="2.437554"><ele>116.7</ele></trkpt>
      <trkpt lat="48.876733" lon="2.437464"><ele>116.7</ele></trkpt>
      <trkpt lat="48.876671" lon="2.437374"><ele>116.7</ele></trkpt>
      <trkpt lat="48.876609" lon="2.437285"><ele>116.7</ele></trkpt>
      <trkpt lat="48.876547" lon="2.437195"><ele>116.7</ele></trkpt>
      <trkpt lat="48.876485" lon="2.437105"><ele>116.8</ele></trkpt>
      <trkpt lat="48.876423" lon="2.437016"><ele>116.8</ele></trkpt>
      <trkpt lat="48.876423" lon="2.437016"><ele>116.8</ele></trkpt>
      <trkpt lat="48.876375" lon="2.436946"><ele>116.8</ele></trkpt>
      <trkpt lat="48.876401" lon="2.436863"><ele>116.9</ele></trkpt>
      <trkpt lat="48.876427" lon="2.436781"><ele>117.0</ele></trkpt>
      <trkpt lat="48.876428" lon="2.436779"><ele>117.1</ele></trkpt>
      <trkpt lat="48.876443" lon="2.436703"><ele>117.2</ele></trkpt>
      <trkpt lat="48.876382" lon="2.436685"><ele>117.1</ele></trkpt>
      <trkpt lat="48.876382" lon="2.436685"><ele>117.1</ele></trkpt>
      <trkpt lat="48.876294" lon="2.436663"><ele>117.1</ele></trkpt>
      <trkpt lat="48.876207" lon="2.436642"><ele>117.0</ele></trkpt>
      <trkpt lat="48.876120" lon="2.436620"><ele>116.9</ele></trkpt>
      <trkpt lat="48.876033" lon="2.436598"><ele>116.8</ele></trkpt>
      <trkpt lat="48.875946" lon="2.436576"><ele>116.7</ele></trkpt>
      <trkpt lat="48.875858" lon="2.436554"><ele>116.6</ele></trkpt>
      <trkpt lat="48.875771" lon="2.436533"><ele>116.5</ele></trkpt>
      <trkpt lat="48.875683" lon="2.436509"><ele>116.4</ele></trkpt>
      <trkpt lat="48.875595" lon="2.436486"><ele>116.2</ele></trkpt>
      <trkpt lat="48.875507" lon="2.436463"><ele>116.1</ele></trkpt>
      <trkpt lat="48.875419" lon="2.436440"><ele>115.9</ele></trkpt>
      <trkpt lat="48.875331" lon="2.436417"><ele>115.6</ele></trkpt>
      <trkpt lat="48.875243" lon="2.436394"><ele>115.4</ele></trkpt>
      <trkpt lat="48.875155" lon="2.436371"><ele>115.2</ele></trkpt>
      <trkpt lat="48.875067" lon="2.436348"><ele>114.9</ele></trkpt>
      <trkpt lat="48.874979" lon="2.436324"><ele>114.7</ele></trkpt>
      <trkpt lat="48.874891" lon="2.436301"><ele>114.5</ele></trkpt>
      <trkpt lat="48.874803" lon="2.436278"><ele>114.3</ele></trkpt>
      <trkpt lat="48.874803" lon="2.436278"><ele>114.3</ele></trkpt>
      <trkpt lat="48.874768" lon="2.436270"><ele>114.3</ele></trkpt>
      <trkpt lat="48.874771" lon="2.436162"><ele>114.3</ele></trkpt>
      <trkpt lat="48.874773" lon="2.436054"><ele>114.3</ele></trkpt>
      <trkpt lat="48.874776" lon="2.435946"><ele>114.4</ele></trkpt>
      <trkpt lat="48.874744" lon="2.435835"><ele>114.4</ele></trkpt>
      <trkpt lat="48.874711" lon="2.435724"><ele>114.5</ele></trkpt>
      <trkpt lat="48.874679" lon="2.435614"><ele>114.6</ele></trkpt>
      <trkpt lat="48.874647" lon="2.435503"><ele>114.7</ele></trkpt>
      <trkpt lat="48.874614" lon="2.435392"><ele>114.8</ele></trkpt>
      <trkpt lat="48.874575" lon="2.435288"><ele>115.0</ele></trkpt>
      <trkpt lat="48.874536" lon="2.435183"><ele>115.1</ele></trkpt>
      <trkpt lat="48.874497" lon="2.435079"><ele>115.2</ele></trkpt>
      <trkpt lat="48.874458" lon="2.434975"><ele>115.3</ele></trkpt>
      <trkpt lat="48.874427" lon="2.434896"><ele>115.3</ele></trkpt>
      <trkpt lat="48.874395" lon="2.434817"><ele>115.4</ele></trkpt>
      <trkpt lat="48.874377" lon="2.434771"><ele>115.3</ele></trkpt>
      <trkpt lat="48.874344" lon="2.434687"><ele>115.3</ele></trkpt>
      <trkpt lat="48.874310" lon="2.434602"><ele>115.2</ele></trkpt>
      <trkpt lat="48.874256" lon="2.434496"><ele>115.0</ele></trkpt>
      <trkpt lat="48.874203" lon="2.434389"><ele>114.8</ele></trkpt>
      <trkpt lat="48.874149" lon="2.434283"><ele>114.6</ele></trkpt>
      <trkpt lat="48.874104" lon="2.434205"><ele>114.4</ele></trkpt>
      <trkpt lat="48.874059" lon="2.434127"><ele>114.2</ele></trkpt>
      <trkpt lat="48.874014" lon="2.434049"><ele>114.0</ele></trkpt>
      <trkpt lat="48.873969" lon="2.433971"><ele>113.9</ele></trkpt>
      <trkpt lat="48.873909" lon="2.433922"><ele>113.8</ele></trkpt>
      <trkpt lat="48.873849" lon="2.433873"><ele>113.8</ele></trkpt>
      <trkpt lat="48.873789" lon="2.433825"><ele>113.8</ele></trkpt>
      <trkpt lat="48.873729" lon="2.433776"><ele>113.9</ele></trkpt>
      <trkpt lat="48.873654" lon="2.433724"><ele>113.9</ele></trkpt>
      <trkpt lat="48.873641" lon="2.433715"><ele>114.1</ele></trkpt>
      <trkpt lat="48.873568" lon="2.433665"><ele>114.1</ele></trkpt>
      <trkpt lat="48.873520" lon="2.433631"><ele>114.2</ele></trkpt>
      <trkpt lat="48.873520" lon="2.433631"><ele>114.2</ele></trkpt>
      <trkpt lat="48.873444" lon="2.433578"><ele>114.5</ele></trkpt>
      <trkpt lat="48.873368" lon="2.433526"><ele>114.6</ele></trkpt>
      <trkpt lat="48.873291" lon="2.433473"><ele>114.8</ele></trkpt>
      <trkpt lat="48.873215" lon="2.433420"><ele>114.9</ele></trkpt>
      <trkpt lat="48.873139" lon="2.433367"><ele>115.0</ele></trkpt>
      <trkpt lat="48.873063" lon="2.433314"><ele>115.0</ele></trkpt>
      <trkpt lat="48.872987" lon="2.433261"><ele>115.0</ele></trkpt>
      <trkpt lat="48.872911" lon="2.433208"><ele>115.0</ele></trkpt>
      <trkpt lat="48.872835" lon="2.433155"><ele>115.0</ele></trkpt>
      <trkpt lat="48.872759" lon="2.433102"><ele>115.0</ele></trkpt>
      <trkpt lat="48.872683" lon="2.433049"><ele>114.9</ele></trkpt>
      <trkpt lat="48.872607" lon="2.432996"><ele>114.9</ele></trkpt>
      <trkpt lat="48.872531" lon="2.432943"><ele>114.8</ele></trkpt>
      <trkpt lat="48.872455" lon="2.432890"><ele>114.8</ele></trkpt>
      <trkpt lat="48.872379" lon="2.432840"><ele>114.7</ele></trkpt>
      <trkpt lat="48.872304" lon="2.432789"><ele>114.7</ele></trkpt>
      <trkpt lat="48.872229" lon="2.432738"><ele>114.6</ele></trkpt>
      <trkpt lat="48.872154" lon="2.432687"><ele>114.4</ele></trkpt>
      <trkpt lat="48.872078" lon="2.432641"><ele>114.3</ele></trkpt>
      <trkpt lat="48.872003" lon="2.432594"><ele>114.1</ele></trkpt>
      <trkpt lat="48.871928" lon="2.432548"><ele>113.9</ele></trkpt>
      <trkpt lat="48.871852" lon="2.432502"><ele>113.7</ele></trkpt>
      <trkpt lat="48.871777" lon="2.432456"><ele>113.5</ele></trkpt>
      <trkpt lat="48.871716" lon="2.432387"><ele>113.3</ele></trkpt>
      <trkpt lat="48.871655" lon="2.432319"><ele>113.1</ele></trkpt>
      <trkpt lat="48.871599" lon="2.432217"><ele>112.9</ele></trkpt>
      <trkpt lat="48.871542" lon="2.432115"><ele>112.7</ele></trkpt>
      <trkpt lat="48.871494" lon="2.432005"><ele>112.5</ele></trkpt>
      <trkpt lat="48.871446" lon="2.431895"><ele>112.3</ele></trkpt>
      <trkpt lat="48.871398" lon="2.431786"><ele>112.1</ele></trkpt>
      <trkpt lat="48.871370" lon="2.431721"><ele>111.9</ele></trkpt>
      <trkpt lat="48.871324" lon="2.431617"><ele>111.5</ele></trkpt>
      <trkpt lat="48.871278" lon="2.431512"><ele>111.0</ele></trkpt>
      <trkpt lat="48.871233" lon="2.431408"><ele>110.5</ele></trkpt>
      <trkpt lat="48.871187" lon="2.431304"><ele>110.0</ele></trkpt>
      <trkpt lat="48.871141" lon="2.431199"><ele>109.7</ele></trkpt>
      <trkpt lat="48.871103" lon="2.431111"><ele>109.5</ele></trkpt>
      <trkpt lat="48.871069" lon="2.431022"><ele>109.6</ele></trkpt>
      <trkpt lat="48.871035" lon="2.430934"><ele>109.7</ele></trkpt>
      <trkpt lat="48.870985" lon="2.430992"><ele>109.1</ele></trkpt>
      <trkpt lat="48.870936" lon="2.431050"><ele>108.5</ele></trkpt>
      <trkpt lat="48.870886" lon="2.431109"><ele>107.9</ele></trkpt>
      <trkpt lat="48.870818" lon="2.431188"><ele>107.5</ele></trkpt>
      <trkpt lat="48.870751" lon="2.431268"><ele>107.2</ele></trkpt>
      <trkpt lat="48.870683" lon="2.431348"><ele>106.9</ele></trkpt>
      <trkpt lat="48.870615" lon="2.431428"><ele>106.8</ele></trkpt>
      <trkpt lat="48.870548" lon="2.431508"><ele>106.6</ele></trkpt>
      <trkpt lat="48.870480" lon="2.431588"><ele>106.5</ele></trkpt>
      <trkpt lat="48.870471" lon="2.431601"><ele>106.4</ele></trkpt>
      <trkpt lat="48.870412" lon="2.431668"><ele>106.3</ele></trkpt>
      <trkpt lat="48.870375" lon="2.431706"><ele>106.3</ele></trkpt>
      <trkpt lat="48.870337" lon="2.431744"><ele>106.3</ele></trkpt>
      <trkpt lat="48.870336" lon="2.431746"><ele>106.2</ele></trkpt>
      <trkpt lat="48.870263" lon="2.431819"><ele>106.2</ele></trkpt>
      <trkpt lat="48.870191" lon="2.431892"><ele>106.2</ele></trkpt>
      <trkpt lat="48.870119" lon="2.431966"><ele>106.3</ele></trkpt>
      <trkpt lat="48.870044" lon="2.432035"><ele>106.3</ele></trkpt>
      <trkpt lat="48.869969" lon="2.432104"><ele>106.2</ele></trkpt>
      <trkpt lat="48.869895" lon="2.432173"><ele>106.1</ele></trkpt>
      <trkpt lat="48.869820" lon="2.432242"><ele>105.9</ele></trkpt>
      <trkpt lat="48.869743" lon="2.432309"><ele>105.7</ele></trkpt>
      <trkpt lat="48.869666" lon="2.432375"><ele>105.5</ele></trkpt>
      <trkpt lat="48.869589" lon="2.432442"><ele>105.2</ele></trkpt>
      <trkpt lat="48.869512" lon="2.432509"><ele>105.1</ele></trkpt>
      <trkpt lat="48.869509" lon="2.432511"><ele>105.0</ele></trkpt>
      <trkpt lat="48.869468" lon="2.432543"><ele>104.9</ele></trkpt>
      <trkpt lat="48.869427" lon="2.432575"><ele>104.9</ele></trkpt>
      <trkpt lat="48.869354" lon="2.432643"><ele>104.7</ele></trkpt>
      <trkpt lat="48.869281" lon="2.432711"><ele>104.5</ele></trkpt>
      <trkpt lat="48.869207" lon="2.432779"><ele>104.4</ele></trkpt>
      <trkpt lat="48.869134" lon="2.432847"><ele>104.3</ele></trkpt>
      <trkpt lat="48.869076" lon="2.432892"><ele>104.2</ele></trkpt>
      <trkpt lat="48.869075" lon="2.432892"><ele>104.1</ele></trkpt>
      <trkpt lat="48.869014" lon="2.432945"><ele>104.0</ele></trkpt>
      <trkpt lat="48.868952" lon="2.432998"><ele>103.9</ele></trkpt>
      <trkpt lat="48.868891" lon="2.433051"><ele>103.8</ele></trkpt>
      <trkpt lat="48.868823" lon="2.433109"><ele>103.6</ele></trkpt>
      <trkpt lat="48.868756" lon="2.433167"><ele>103.5</ele></trkpt>
      <trkpt lat="48.868689" lon="2.433225"><ele>103.3</ele></trkpt>
      <trkpt lat="48.868621" lon="2.433283"><ele>103.1</ele></trkpt>
      <trkpt lat="48.868554" lon="2.433341"><ele>102.8</ele></trkpt>
      <trkpt lat="48.868486" lon="2.433399"><ele>102.5</ele></trkpt>
      <trkpt lat="48.868419" lon="2.433458"><ele>102.3</ele></trkpt>
      <trkpt lat="48.868407" lon="2.433468"><ele>102.1</ele></trkpt>
      <trkpt lat="48.868338" lon="2.433528"><ele>101.8</ele></trkpt>
      <trkpt lat="48.868269" lon="2.433588"><ele>101.5</ele></trkpt>
      <trkpt lat="48.868201" lon="2.433648"><ele>101.2</ele></trkpt>
      <trkpt lat="48.868132" lon="2.433708"><ele>100.9</ele></trkpt>
      <trkpt lat="48.868064" lon="2.433768"><ele>100.6</ele></trkpt>
      <trkpt lat="48.867995" lon="2.433828"><ele>100.3</ele></trkpt>
      <trkpt lat="48.867926" lon="2.433888"><ele>100.1</ele></trkpt>
      <trkpt lat="48.867847" lon="2.433931"><ele>99.8</ele></trkpt>
      <trkpt lat="48.867767" lon="2.433973"><ele>99.6</ele></trkpt>
      <trkpt lat="48.867687" lon="2.434015"><ele>99.4</ele></trkpt>
      <trkpt lat="48.867607" lon="2.434058"><ele>99.2</ele></trkpt>
      <trkpt lat="48.867527" lon="2.434100"><ele>99.0</ele></trkpt>
      <trkpt lat="48.867448" lon="2.434142"><ele>98.8</ele></trkpt>
      <trkpt lat="48.867374" lon="2.434198"><ele>98.7</ele></trkpt>
      <trkpt lat="48.867326" lon="2.434202"><ele>98.6</ele></trkpt>
      <trkpt lat="48.867262" lon="2.434243"><ele>98.6</ele></trkpt>
      <trkpt lat="48.867197" lon="2.434283"><ele>98.5</ele></trkpt>
      <trkpt lat="48.867133" lon="2.434324"><ele>98.5</ele></trkpt>
      <trkpt lat="48.867069" lon="2.434365"><ele>98.4</ele></trkpt>
      <trkpt lat="48.867067" lon="2.434366"><ele>98.4</ele></trkpt>
      <trkpt lat="48.866986" lon="2.434423"><ele>98.4</ele></trkpt>
      <trkpt lat="48.866905" lon="2.434479"><ele>98.3</ele></trkpt>
      <trkpt lat="48.866824" lon="2.434535"><ele>98.1</ele></trkpt>
      <trkpt lat="48.866750" lon="2.434572"><ele>98.0</ele></trkpt>
      <trkpt lat="48.866675" lon="2.434608"><ele>97.8</ele></trkpt>
      <trkpt lat="48.866600" lon="2.434644"><ele>97.6</ele></trkpt>
      <trkpt lat="48.866525" lon="2.434680"><ele>97.5</ele></trkpt>
      <trkpt lat="48.866451" lon="2.434717"><ele>97.4</ele></trkpt>
      <trkpt lat="48.866376" lon="2.434753"><ele>97.4</ele></trkpt>
      <trkpt lat="48.866301" lon="2.434789"><ele>97.4</ele></trkpt>
      <trkpt lat="48.866298" lon="2.434791"><ele>97.4</ele></trkpt>
      <trkpt lat="48.866228" lon="2.434824"><ele>97.3</ele></trkpt>
      <trkpt lat="48.866158" lon="2.434856"><ele>97.3</ele></trkpt>
      <trkpt lat="48.866087" lon="2.434888"><ele>97.2</ele></trkpt>
      <trkpt lat="48.866010" lon="2.434939"><ele>96.7</ele></trkpt>
      <trkpt lat="48.865933" lon="2.434990"><ele>96.2</ele></trkpt>
      <trkpt lat="48.865856" lon="2.435032"><ele>95.7</ele></trkpt>
      <trkpt lat="48.865780" lon="2.435073"><ele>95.2</ele></trkpt>
      <trkpt lat="48.865704" lon="2.435115"><ele>94.9</ele></trkpt>
      <trkpt lat="48.865703" lon="2.435115"><ele>94.6</ele></trkpt>
      <trkpt lat="48.865636" lon="2.435151"><ele>94.4</ele></trkpt>
      <trkpt lat="48.865570" lon="2.435187"><ele>94.0</ele></trkpt>
      <trkpt lat="48.865504" lon="2.435223"><ele>93.7</ele></trkpt>
      <trkpt lat="48.865422" lon="2.435271"><ele>93.3</ele></trkpt>
      <trkpt lat="48.865340" lon="2.435319"><ele>92.9</ele></trkpt>
      <trkpt lat="48.865258" lon="2.435367"><ele>92.5</ele></trkpt>
      <trkpt lat="48.865176" lon="2.435414"><ele>92.0</ele></trkpt>
      <trkpt lat="48.865095" lon="2.435462"><ele>91.5</ele></trkpt>
      <trkpt lat="48.865013" lon="2.435510"><ele>91.0</ele></trkpt>
      <trkpt lat="48.864931" lon="2.435558"><ele>90.5</ele></trkpt>
      <trkpt lat="48.864849" lon="2.435605"><ele>90.0</ele></trkpt>
      <trkpt lat="48.864767" lon="2.435653"><ele>89.6</ele></trkpt>
      <trkpt lat="48.864686" lon="2.435701"><ele>89.3</ele></trkpt>
      <trkpt lat="48.864604" lon="2.435749"><ele>89.1</ele></trkpt>
      <trkpt lat="48.864522" lon="2.435796"><ele>89.0</ele></trkpt>
      <trkpt lat="48.864440" lon="2.435844"><ele>88.9</ele></trkpt>
      <trkpt lat="48.864358" lon="2.435892"><ele>88.9</ele></trkpt>
      <trkpt lat="48.864276" lon="2.435940"><ele>88.8</ele></trkpt>
      <trkpt lat="48.864195" lon="2.435987"><ele>88.8</ele></trkpt>
      <trkpt lat="48.864193" lon="2.435988"><ele>88.7</ele></trkpt>
      <trkpt lat="48.864115" lon="2.436029"><ele>88.7</ele></trkpt>
      <trkpt lat="48.864047" lon="2.436068"><ele>88.6</ele></trkpt>
      <trkpt lat="48.863980" lon="2.436107"><ele>88.5</ele></trkpt>
      <trkpt lat="48.863913" lon="2.436145"><ele>88.4</ele></trkpt>
      <trkpt lat="48.863846" lon="2.436185"><ele>88.1</ele></trkpt>
      <trkpt lat="48.863846" lon="2.436185"><ele>88.0</ele></trkpt>
      <trkpt lat="48.863769" lon="2.436229"><ele>87.8</ele></trkpt>
      <trkpt lat="48.863693" lon="2.436274"><ele>87.6</ele></trkpt>
      <trkpt lat="48.863616" lon="2.436318"><ele>87.3</ele></trkpt>
      <trkpt lat="48.863540" lon="2.436362"><ele>87.0</ele></trkpt>
      <trkpt lat="48.863464" lon="2.436406"><ele>86.7</ele></trkpt>
      <trkpt lat="48.863393" lon="2.436442"><ele>86.4</ele></trkpt>
      <trkpt lat="48.863323" lon="2.436477"><ele>86.2</ele></trkpt>
      <trkpt lat="48.863240" lon="2.436510"><ele>85.7</ele></trkpt>
      <trkpt lat="48.863158" lon="2.436543"><ele>85.3</ele></trkpt>
      <trkpt lat="48.863075" lon="2.436576"><ele>85.0</ele></trkpt>
      <trkpt lat="48.862993" lon="2.436608"><ele>84.7</ele></trkpt>
      <trkpt lat="48.862911" lon="2.436641"><ele>84.5</ele></trkpt>
      <trkpt lat="48.862901" lon="2.436645"><ele>84.4</ele></trkpt>
      <trkpt lat="48.862831" lon="2.436669"><ele>84.3</ele></trkpt>
      <trkpt lat="48.862761" lon="2.436693"><ele>84.3</ele></trkpt>
      <trkpt lat="48.862691" lon="2.436718"><ele>84.3</ele></trkpt>
      <trkpt lat="48.862620" lon="2.436742"><ele>84.2</ele></trkpt>
      <trkpt lat="48.862550" lon="2.436766"><ele>84.2</ele></trkpt>
      <trkpt lat="48.862536" lon="2.436771"><ele>84.2</ele></trkpt>
      <trkpt lat="48.862532" lon="2.436772"><ele>84.2</ele></trkpt>
      <trkpt lat="48.862517" lon="2.436776"><ele>84.2</ele></trkpt>
      <trkpt lat="48.862430" lon="2.436796"><ele>84.1</ele></trkpt>
      <trkpt lat="48.862343" lon="2.436816"><ele>83.9</ele></trkpt>
      <trkpt lat="48.862256" lon="2.436837"><ele>83.7</ele></trkpt>
      <trkpt lat="48.862169" lon="2.436857"><ele>83.4</ele></trkpt>
      <trkpt lat="48.862083" lon="2.436878"><ele>83.1</ele></trkpt>
      <trkpt lat="48.861996" lon="2.436898"><ele>82.9</ele></trkpt>
      <trkpt lat="48.861982" lon="2.436901"><ele>82.6</ele></trkpt>
      <trkpt lat="48.861906" lon="2.436921"><ele>82.4</ele></trkpt>
      <trkpt lat="48.861829" lon="2.436941"><ele>82.0</ele></trkpt>
      <trkpt lat="48.861753" lon="2.436961"><ele>81.7</ele></trkpt>
      <trkpt lat="48.861677" lon="2.436981"><ele>81.3</ele></trkpt>
      <trkpt lat="48.861600" lon="2.437001"><ele>81.1</ele></trkpt>
      <trkpt lat="48.861587" lon="2.437005"><ele>80.8</ele></trkpt>
      <trkpt lat="48.861498" lon="2.437024"><ele>80.6</ele></trkpt>
      <trkpt lat="48.861409" lon="2.437043"><ele>80.3</ele></trkpt>
      <trkpt lat="48.861320" lon="2.437061"><ele>79.9</ele></trkpt>
      <trkpt lat="48.861231" lon="2.437080"><ele>79.7</ele></trkpt>
      <trkpt lat="48.861220" lon="2.437083"><ele>79.4</ele></trkpt>
      <trkpt lat="48.861161" lon="2.437095"><ele>79.3</ele></trkpt>
      <trkpt lat="48.861103" lon="2.437108"><ele>79.0</ele></trkpt>
      <trkpt lat="48.861034" lon="2.437119"><ele>78.7</ele></trkpt>
      <trkpt lat="48.860965" lon="2.437129"><ele>78.5</ele></trkpt>
      <trkpt lat="48.860896" lon="2.437139"><ele>78.2</ele></trkpt>
      <trkpt lat="48.860832" lon="2.437140"><ele>78.1</ele></trkpt>
      <trkpt lat="48.860767" lon="2.437142"><ele>78.0</ele></trkpt>
      <trkpt lat="48.860702" lon="2.437143"><ele>78.0</ele></trkpt>
      <trkpt lat="48.860634" lon="2.437143"><ele>78.1</ele></trkpt>
      <trkpt lat="48.860566" lon="2.437144"><ele>78.2</ele></trkpt>
      <trkpt lat="48.860497" lon="2.437145"><ele>78.3</ele></trkpt>
      <trkpt lat="48.860496" lon="2.437145"><ele>78.5</ele></trkpt>
      <trkpt lat="48.860412" lon="2.437143"><ele>78.5</ele></trkpt>
      <trkpt lat="48.860330" lon="2.437135"><ele>78.6</ele></trkpt>
      <trkpt lat="48.860249" lon="2.437127"><ele>78.5</ele></trkpt>
      <trkpt lat="48.860168" lon="2.437120"><ele>78.2</ele></trkpt>
      <trkpt lat="48.860111" lon="2.437108"><ele>77.8</ele></trkpt>
      <trkpt lat="48.860054" lon="2.437096"><ele>77.5</ele></trkpt>
      <trkpt lat="48.860050" lon="2.437095"><ele>77.2</ele></trkpt>
      <trkpt lat="48.859991" lon="2.437075"><ele>76.6</ele></trkpt>
      <trkpt lat="48.859931" lon="2.437055"><ele>76.3</ele></trkpt>
      <trkpt lat="48.859928" lon="2.437054"><ele>76.0</ele></trkpt>
      <trkpt lat="48.859883" lon="2.437034"><ele>75.5</ele></trkpt>
      <trkpt lat="48.859838" lon="2.437014"><ele>75.4</ele></trkpt>
      <trkpt lat="48.859842" lon="2.436935"><ele>75.3</ele></trkpt>
      <trkpt lat="48.859842" lon="2.436935"><ele>75.3</ele></trkpt>
      <trkpt lat="48.859847" lon="2.436817"><ele>75.8</ele></trkpt>
      <trkpt lat="48.859847" lon="2.436817"><ele>75.9</ele></trkpt>
      <trkpt lat="48.859840" lon="2.436706"><ele>76.8</ele></trkpt>
      <trkpt lat="48.859835" lon="2.436591"><ele>77.2</ele></trkpt>
      <trkpt lat="48.859830" lon="2.436475"><ele>77.5</ele></trkpt>
      <trkpt lat="48.859824" lon="2.436360"><ele>77.8</ele></trkpt>
      <trkpt lat="48.859819" lon="2.436244"><ele>78.0</ele></trkpt>
      <trkpt lat="48.859815" lon="2.436170"><ele>78.1</ele></trkpt>
      <trkpt lat="48.859815" lon="2.436170"><ele>78.1</ele></trkpt>
      <trkpt lat="48.859815" lon="2.436075"><ele>78.3</ele></trkpt>
      <trkpt lat="48.859814" lon="2.435980"><ele>78.4</ele></trkpt>
      <trkpt lat="48.859814" lon="2.435885"><ele>78.5</ele></trkpt>
      <trkpt lat="48.859811" lon="2.435780"><ele>78.5</ele></trkpt>
      <trkpt lat="48.859808" lon="2.435702"><ele>78.6</ele></trkpt>
      <trkpt lat="48.859805" lon="2.435625"><ele>78.6</ele></trkpt>
      <trkpt lat="48.859799" lon="2.435504"><ele>78.6</ele></trkpt>
      <trkpt lat="48.859793" lon="2.435382"><ele>78.6</ele></trkpt>
      <trkpt lat="48.859793" lon="2.435380"><ele>78.6</ele></trkpt>
      <trkpt lat="48.859789" lon="2.435308"><ele>78.6</ele></trkpt>
      <trkpt lat="48.859785" lon="2.435235"><ele>78.6</ele></trkpt>
      <trkpt lat="48.859775" lon="2.435205"><ele>78.5</ele></trkpt>
      <trkpt lat="48.859763" lon="2.435177"><ele>78.5</ele></trkpt>
      <trkpt lat="48.859754" lon="2.435096"><ele>78.4</ele></trkpt>
      <trkpt lat="48.859753" lon="2.435023"><ele>78.4</ele></trkpt>
      <trkpt lat="48.859770" lon="2.434974"><ele>78.3</ele></trkpt>
      <trkpt lat="48.859775" lon="2.434916"><ele>78.3</ele></trkpt>
      <trkpt lat="48.859769" lon="2.434792"><ele>78.2</ele></trkpt>
      <trkpt lat="48.859763" lon="2.434669"><ele>78.1</ele></trkpt>
      <trkpt lat="48.859757" lon="2.434545"><ele>77.9</ele></trkpt>
      <trkpt lat="48.859752" lon="2.434421"><ele>77.6</ele></trkpt>
      <trkpt lat="48.859746" lon="2.434298"><ele>77.4</ele></trkpt>
      <trkpt lat="48.859740" lon="2.434174"><ele>77.2</ele></trkpt>
      <trkpt lat="48.859740" lon="2.434172"><ele>77.1</ele></trkpt>
      <trkpt lat="48.859735" lon="2.434067"><ele>76.7</ele></trkpt>
      <trkpt lat="48.859729" lon="2.433962"><ele>76.6</ele></trkpt>
      <trkpt lat="48.859729" lon="2.433961"><ele>76.4</ele></trkpt>
      <trkpt lat="48.859726" lon="2.433883"><ele>76.1</ele></trkpt>
      <trkpt lat="48.859722" lon="2.433805"><ele>76.0</ele></trkpt>
      <trkpt lat="48.859722" lon="2.433805"><ele>75.9</ele></trkpt>
      <trkpt lat="48.859718" lon="2.433718"><ele>75.6</ele></trkpt>
      <trkpt lat="48.859712" lon="2.433643"><ele>75.4</ele></trkpt>
      <trkpt lat="48.859712" lon="2.433642"><ele>75.3</ele></trkpt>
      <trkpt lat="48.859704" lon="2.433541"><ele>75.2</ele></trkpt>
      <trkpt lat="48.859696" lon="2.433440"><ele>75.0</ele></trkpt>
      <trkpt lat="48.859688" lon="2.433339"><ele>74.9</ele></trkpt>
      <trkpt lat="48.859671" lon="2.433216"><ele>74.8</ele></trkpt>
      <trkpt lat="48.859655" lon="2.433092"><ele>74.6</ele></trkpt>
      <trkpt lat="48.859639" lon="2.432969"><ele>74.5</ele></trkpt>
      <trkpt lat="48.859623" lon="2.432846"><ele>74.5</ele></trkpt>
      <trkpt lat="48.859606" lon="2.432722"><ele>74.4</ele></trkpt>
      <trkpt lat="48.859590" lon="2.432599"><ele>74.4</ele></trkpt>
      <trkpt lat="48.859574" lon="2.432475"><ele>74.2</ele></trkpt>
      <trkpt lat="48.859557" lon="2.432352"><ele>74.1</ele></trkpt>
      <trkpt lat="48.859541" lon="2.432228"><ele>74.0</ele></trkpt>
      <trkpt lat="48.859526" lon="2.432115"><ele>73.9</ele></trkpt>
      <trkpt lat="48.859513" lon="2.432018"><ele>73.8</ele></trkpt>
      <trkpt lat="48.859499" lon="2.431906"><ele>73.7</ele></trkpt>
      <trkpt lat="48.859485" lon="2.431817"><ele>73.7</ele></trkpt>
      <trkpt lat="48.859484" lon="2.431812"><ele>73.6</ele></trkpt>
      <trkpt lat="48.859480" lon="2.431781"><ele>73.6</ele></trkpt>
      <trkpt lat="48.859458" lon="2.431742"><ele>73.5</ele></trkpt>
      <trkpt lat="48.859430" lon="2.431669"><ele>73.4</ele></trkpt>
      <trkpt lat="48.859430" lon="2.431668"><ele>73.4</ele></trkpt>
      <trkpt lat="48.859391" lon="2.431550"><ele>73.1</ele></trkpt>
      <trkpt lat="48.859353" lon="2.431432"><ele>72.8</ele></trkpt>
      <trkpt lat="48.859315" lon="2.431315"><ele>72.6</ele></trkpt>
      <trkpt lat="48.859276" lon="2.431197"><ele>72.3</ele></trkpt>
      <trkpt lat="48.859238" lon="2.431080"><ele>72.2</ele></trkpt>
      <trkpt lat="48.859199" lon="2.430962"><ele>72.2</ele></trkpt>
      <trkpt lat="48.859161" lon="2.430845"><ele>72.2</ele></trkpt>
      <trkpt lat="48.859123" lon="2.430727"><ele>72.4</ele></trkpt>
      <trkpt lat="48.859084" lon="2.430609"><ele>72.5</ele></trkpt>
      <trkpt lat="48.859084" lon="2.430608"><ele>72.6</ele></trkpt>
      <trkpt lat="48.859061" lon="2.430527"><ele>72.7</ele></trkpt>
      <trkpt lat="48.859042" lon="2.430454"><ele>72.8</ele></trkpt>
      <trkpt lat="48.859023" lon="2.430381"><ele>72.8</ele></trkpt>
      <trkpt lat="48.859023" lon="2.430377"><ele>72.9</ele></trkpt>
      <trkpt lat="48.859008" lon="2.430259"><ele>72.9</ele></trkpt>
      <trkpt lat="48.858993" lon="2.430140"><ele>73.0</ele></trkpt>
      <trkpt lat="48.858977" lon="2.430021"><ele>72.9</ele></trkpt>
      <trkpt lat="48.858962" lon="2.429903"><ele>72.8</ele></trkpt>
      <trkpt lat="48.858947" lon="2.429784"><ele>72.7</ele></trkpt>
      <trkpt lat="48.858937" lon="2.429692"><ele>72.5</ele></trkpt>
      <trkpt lat="48.858927" lon="2.429601"><ele>72.3</ele></trkpt>
      <trkpt lat="48.858916" lon="2.429509"><ele>72.1</ele></trkpt>
      <trkpt lat="48.858915" lon="2.429500"><ele>71.8</ele></trkpt>
      <trkpt lat="48.858900" lon="2.429371"><ele>71.5</ele></trkpt>
      <trkpt lat="48.858885" lon="2.429242"><ele>71.1</ele></trkpt>
      <trkpt lat="48.858870" lon="2.429113"><ele>70.7</ele></trkpt>
      <trkpt lat="48.858855" lon="2.428984"><ele>70.4</ele></trkpt>
      <trkpt lat="48.858839" lon="2.428855"><ele>70.1</ele></trkpt>
      <trkpt lat="48.858824" lon="2.428726"><ele>69.9</ele></trkpt>
      <trkpt lat="48.858820" lon="2.428690"><ele>69.7</ele></trkpt>
      <trkpt lat="48.858806" lon="2.428571"><ele>69.7</ele></trkpt>
      <trkpt lat="48.858792" lon="2.428453"><ele>69.7</ele></trkpt>
      <trkpt lat="48.858778" lon="2.428334"><ele>69.7</ele></trkpt>
      <trkpt lat="48.858770" lon="2.428312"><ele>69.6</ele></trkpt>
      <trkpt lat="48.858763" lon="2.428296"><ele>69.6</ele></trkpt>
      <trkpt lat="48.858755" lon="2.428284"><ele>69.6</ele></trkpt>
      <trkpt lat="48.858747" lon="2.428273"><ele>69.6</ele></trkpt>
      <trkpt lat="48.858746" lon="2.428272"><ele>69.6</ele></trkpt>
      <trkpt lat="48.858735" lon="2.428260"><ele>69.6</ele></trkpt>
      <trkpt lat="48.858720" lon="2.428250"><ele>69.6</ele></trkpt>
      <trkpt lat="48.858702" lon="2.428248"><ele>69.6</ele></trkpt>
      <trkpt lat="48.858695" lon="2.428247"><ele>69.6</ele></trkpt>
      <trkpt lat="48.858685" lon="2.428246"><ele>69.6</ele></trkpt>
      <trkpt lat="48.858646" lon="2.428242"><ele>69.6</ele></trkpt>
      <trkpt lat="48.858649" lon="2.428172"><ele>69.6</ele></trkpt>
      <trkpt lat="48.858652" lon="2.428103"><ele>69.6</ele></trkpt>
      <trkpt lat="48.858652" lon="2.428102"><ele>69.6</ele></trkpt>
      <trkpt lat="48.858655" lon="2.428011"><ele>69.6</ele></trkpt>
      <trkpt lat="48.858658" lon="2.427920"><ele>69.7</ele></trkpt>
      <trkpt lat="48.858663" lon="2.427795"><ele>69.7</ele></trkpt>
      <trkpt lat="48.858668" lon="2.427670"><ele>69.8</ele></trkpt>
      <trkpt lat="48.858673" lon="2.427546"><ele>69.9</ele></trkpt>
      <trkpt lat="48.858683" lon="2.427465"><ele>70.0</ele></trkpt>
      <trkpt lat="48.858694" lon="2.427385"><ele>70.1</ele></trkpt>
      <trkpt lat="48.858706" lon="2.427335"><ele>70.2</ele></trkpt>
      <trkpt lat="48.858707" lon="2.427332"><ele>70.4</ele></trkpt>
      <trkpt lat="48.858722" lon="2.427273"><ele>70.4</ele></trkpt>
      <trkpt lat="48.858738" lon="2.427211"><ele>70.5</ele></trkpt>
      <trkpt lat="48.858696" lon="2.427201"><ele>70.4</ele></trkpt>
      <trkpt lat="48.858696" lon="2.427201"><ele>70.4</ele></trkpt>
      <trkpt lat="48.858662" lon="2.427194"><ele>70.4</ele></trkpt>
      <trkpt lat="48.858662" lon="2.427194"><ele>70.3</ele></trkpt>
      <trkpt lat="48.858624" lon="2.427187"><ele>70.2</ele></trkpt>
      <trkpt lat="48.858579" lon="2.427188"><ele>70.1</ele></trkpt>
      <trkpt lat="48.858578" lon="2.427188"><ele>70.1</ele></trkpt>
      <trkpt lat="48.858493" lon="2.427183"><ele>69.8</ele></trkpt>
      <trkpt lat="48.858408" lon="2.427178"><ele>69.6</ele></trkpt>
      <trkpt lat="48.858322" lon="2.427174"><ele>69.4</ele></trkpt>
      <trkpt lat="48.858237" lon="2.427169"><ele>69.3</ele></trkpt>
      <trkpt lat="48.858152" lon="2.427165"><ele>69.2</ele></trkpt>
      <trkpt lat="48.858066" lon="2.427160"><ele>69.2</ele></trkpt>
      <trkpt lat="48.857981" lon="2.427155"><ele>69.1</ele></trkpt>
      <trkpt lat="48.857895" lon="2.427151"><ele>69.1</ele></trkpt>
      <trkpt lat="48.857810" lon="2.427146"><ele>69.1</ele></trkpt>
      <trkpt lat="48.857725" lon="2.427142"><ele>69.0</ele></trkpt>
      <trkpt lat="48.857639" lon="2.427137"><ele>69.0</ele></trkpt>
      <trkpt lat="48.857639" lon="2.427137"><ele>69.0</ele></trkpt>
      <trkpt lat="48.857597" lon="2.427136"><ele>69.0</ele></trkpt>
      <trkpt lat="48.857573" lon="2.427136"><ele>69.0</ele></trkpt>
      <trkpt lat="48.857573" lon="2.427136"><ele>69.0</ele></trkpt>
      <trkpt lat="48.857563" lon="2.427016"><ele>68.9</ele></trkpt>
      <trkpt lat="48.857554" lon="2.426896"><ele>68.7</ele></trkpt>
      <trkpt lat="48.857545" lon="2.426777"><ele>68.6</ele></trkpt>
      <trkpt lat="48.857536" lon="2.426657"><ele>68.5</ele></trkpt>
      <trkpt lat="48.857527" lon="2.426537"><ele>68.4</ele></trkpt>
      <trkpt lat="48.857518" lon="2.426417"><ele>68.2</ele></trkpt>
      <trkpt lat="48.857506" lon="2.426283"><ele>67.9</ele></trkpt>
      <trkpt lat="48.857495" lon="2.426149"><ele>67.7</ele></trkpt>
      <trkpt lat="48.857483" lon="2.426014"><ele>67.4</ele></trkpt>
      <trkpt lat="48.857472" lon="2.425880"><ele>67.1</ele></trkpt>
      <trkpt lat="48.857460" lon="2.425746"><ele>66.8</ele></trkpt>
      <trkpt lat="48.857449" lon="2.425611"><ele>66.6</ele></trkpt>
      <trkpt lat="48.857437" lon="2.425477"><ele>66.4</ele></trkpt>
      <trkpt lat="48.857426" lon="2.425343"><ele>66.3</ele></trkpt>
      <trkpt lat="48.857423" lon="2.425309"><ele>66.3</ele></trkpt>
      <trkpt lat="48.857413" lon="2.425183"><ele>66.3</ele></trkpt>
      <trkpt lat="48.857403" lon="2.425057"><ele>66.4</ele></trkpt>
      <trkpt lat="48.857393" lon="2.424931"><ele>66.5</ele></trkpt>
      <trkpt lat="48.857383" lon="2.424805"><ele>66.8</ele></trkpt>
      <trkpt lat="48.857373" lon="2.424680"><ele>67.1</ele></trkpt>
      <trkpt lat="48.857363" lon="2.424554"><ele>67.3</ele></trkpt>
      <trkpt lat="48.857353" lon="2.424428"><ele>67.5</ele></trkpt>
      <trkpt lat="48.857343" lon="2.424302"><ele>67.5</ele></trkpt>
      <trkpt lat="48.857334" lon="2.424176"><ele>67.4</ele></trkpt>
      <trkpt lat="48.857324" lon="2.424050"><ele>67.2</ele></trkpt>
      <trkpt lat="48.857314" lon="2.423924"><ele>66.9</ele></trkpt>
      <trkpt lat="48.857302" lon="2.423804"><ele>66.6</ele></trkpt>
      <trkpt lat="48.857289" lon="2.423685"><ele>66.4</ele></trkpt>
      <trkpt lat="48.857277" lon="2.423565"><ele>66.1</ele></trkpt>
      <trkpt lat="48.857265" lon="2.423445"><ele>65.9</ele></trkpt>
      <trkpt lat="48.857258" lon="2.423383"><ele>65.6</ele></trkpt>
      <trkpt lat="48.857224" lon="2.423288"><ele>65.5</ele></trkpt>
      <trkpt lat="48.857190" lon="2.423193"><ele>65.3</ele></trkpt>
      <trkpt lat="48.857176" lon="2.423137"><ele>65.2</ele></trkpt>
      <trkpt lat="48.857102" lon="2.423011"><ele>64.7</ele></trkpt>
      <trkpt lat="48.857050" lon="2.422950"><ele>64.4</ele></trkpt>
      <trkpt lat="48.856992" lon="2.422852"><ele>64.2</ele></trkpt>
      <trkpt lat="48.856934" lon="2.422755"><ele>63.9</ele></trkpt>
      <trkpt lat="48.856876" lon="2.422657"><ele>63.8</ele></trkpt>
      <trkpt lat="48.856818" lon="2.422560"><ele>63.7</ele></trkpt>
      <trkpt lat="48.856854" lon="2.422504"><ele>63.7</ele></trkpt>
      <trkpt lat="48.856841" lon="2.422531"><ele>63.7</ele></trkpt>
    </trkseg>
  </trk>
</gpx>
